location_sk,address_bk,city,province_name,province_code,postal_code,country_code
1,1,Buenos Aires,Buenos Aires,BA,1001,AR
2,2,Córdoba,Córdoba,CBA,1002,AR
3,3,Santa Fe,Santa Fe,SF,1003,AR
4,4,Mendoza,Mendoza,MZA,1004,AR
5,1001,Córdoba,Córdoba,CBA,4934,AR
6,1002,Rafaela,Santa Fe,SF,2071,AR
7,1003,CABA,Buenos Aires,BA,7131,AR
8,1004,Río Cuarto,Córdoba,CBA,9773,AR
9,1005,Santa Fe,Santa Fe,SF,3071,AR
10,1006,Godoy Cruz,Mendoza,MZA,2062,AR
11,1007,Mar del Plata,Buenos Aires,BA,3932,AR
12,1008,Río Cuarto,Córdoba,CBA,5396,AR
13,1009,Río Cuarto,Córdoba,CBA,8406,AR
14,1010,La Plata,Buenos Aires,BA,7129,AR
15,1011,Córdoba,Córdoba,CBA,4771,AR
16,1012,Mar del Plata,Buenos Aires,BA,8086,AR
17,1013,La Plata,Buenos Aires,BA,3942,AR
18,1014,Mar del Plata,Buenos Aires,BA,9220,AR
19,1015,CABA,Buenos Aires,BA,2168,AR
20,1016,CABA,Buenos Aires,BA,5096,AR
21,1017,Río Cuarto,Córdoba,CBA,9898,AR
22,1018,La Plata,Buenos Aires,BA,1194,AR
23,1019,Córdoba,Córdoba,CBA,8773,AR
24,1020,Mar del Plata,Buenos Aires,BA,2406,AR
25,1021,Santa Fe,Santa Fe,SF,1493,AR
26,1022,CABA,Buenos Aires,BA,6810,AR
27,1023,La Plata,Buenos Aires,BA,6342,AR
28,1024,Córdoba,Córdoba,CBA,7247,AR
29,1025,Mendoza,Mendoza,MZA,2779,AR
30,1026,Villa Carlos Paz,Córdoba,CBA,3910,AR
31,1027,Rafaela,Santa Fe,SF,2138,AR
32,1028,CABA,Buenos Aires,BA,8449,AR
33,1029,CABA,Buenos Aires,BA,3572,AR
34,1030,La Plata,Buenos Aires,BA,4382,AR
35,1031,Santa Fe,Santa Fe,SF,3601,AR
36,1032,Río Cuarto,Córdoba,CBA,3337,AR
37,1033,La Plata,Buenos Aires,BA,9043,AR
38,1034,CABA,Buenos Aires,BA,6681,AR
39,1035,CABA,Buenos Aires,BA,8501,AR
40,1036,Mendoza,Mendoza,MZA,4927,AR
41,1037,Mar del Plata,Buenos Aires,BA,4559,AR
42,1038,Mar del Plata,Buenos Aires,BA,9264,AR
43,1039,CABA,Buenos Aires,BA,8572,AR
44,1040,Mar del Plata,Buenos Aires,BA,4185,AR
45,1041,La Plata,Buenos Aires,BA,8606,AR
46,1042,CABA,Buenos Aires,BA,3297,AR
47,1043,Rosario,Santa Fe,SF,3903,AR
48,1044,Mar del Plata,Buenos Aires,BA,5476,AR
49,1045,CABA,Buenos Aires,BA,8242,AR
50,1046,Rafaela,Santa Fe,SF,8274,AR
51,1047,Córdoba,Córdoba,CBA,4908,AR
52,1048,La Plata,Buenos Aires,BA,2035,AR
53,1049,Mendoza,Mendoza,MZA,7810,AR
54,1050,La Plata,Buenos Aires,BA,4393,AR
55,1051,La Plata,Buenos Aires,BA,6842,AR
56,1052,La Plata,Buenos Aires,BA,8516,AR
57,1053,La Plata,Buenos Aires,BA,7735,AR
58,1054,Santa Fe,Santa Fe,SF,5127,AR
59,1055,Río Cuarto,Córdoba,CBA,6440,AR
60,1056,Río Cuarto,Córdoba,CBA,6490,AR
61,1057,Río Cuarto,Córdoba,CBA,9248,AR
62,1058,Mar del Plata,Buenos Aires,BA,4990,AR
63,1059,La Plata,Buenos Aires,BA,7156,AR
64,1060,Córdoba,Córdoba,CBA,3199,AR
65,1061,CABA,Buenos Aires,BA,1388,AR
66,1062,Santa Fe,Santa Fe,SF,5068,AR
67,1063,Villa Carlos Paz,Córdoba,CBA,1099,AR
68,1064,Rosario,Santa Fe,SF,4345,AR
69,1065,Mar del Plata,Buenos Aires,BA,7983,AR
70,1066,Mar del Plata,Buenos Aires,BA,5079,AR
71,1067,La Plata,Buenos Aires,BA,6891,AR
72,1068,La Plata,Buenos Aires,BA,3553,AR
73,1069,La Plata,Buenos Aires,BA,3878,AR
74,1070,La Plata,Buenos Aires,BA,2178,AR
75,1071,La Plata,Buenos Aires,BA,1210,AR
76,1072,Villa Carlos Paz,Córdoba,CBA,7113,AR
77,1073,Mar del Plata,Buenos Aires,BA,3039,AR
78,1074,Mendoza,Mendoza,MZA,9349,AR
79,1075,Villa Carlos Paz,Córdoba,CBA,5043,AR
80,1076,La Plata,Buenos Aires,BA,5281,AR
81,1077,Mendoza,Mendoza,MZA,1202,AR
82,1078,Rafaela,Santa Fe,SF,9495,AR
83,1079,Rosario,Santa Fe,SF,9202,AR
84,1080,Villa Carlos Paz,Córdoba,CBA,2456,AR
85,1081,Villa Carlos Paz,Córdoba,CBA,7520,AR
86,1082,CABA,Buenos Aires,BA,7845,AR
87,1083,La Plata,Buenos Aires,BA,4053,AR
88,1084,CABA,Buenos Aires,BA,4041,AR
89,1085,CABA,Buenos Aires,BA,2789,AR
90,1086,CABA,Buenos Aires,BA,6605,AR
91,1087,Villa Carlos Paz,Córdoba,CBA,2000,AR
92,1088,Rosario,Santa Fe,SF,9557,AR
93,1089,Mar del Plata,Buenos Aires,BA,8036,AR
94,1090,La Plata,Buenos Aires,BA,7200,AR
95,1091,Godoy Cruz,Mendoza,MZA,3275,AR
96,1092,Río Cuarto,Córdoba,CBA,8404,AR
97,1093,Mar del Plata,Buenos Aires,BA,1272,AR
98,1094,Rafaela,Santa Fe,SF,8938,AR
99,1095,Córdoba,Córdoba,CBA,7305,AR
100,1096,Río Cuarto,Córdoba,CBA,3094,AR
101,1097,Santa Fe,Santa Fe,SF,2895,AR
102,1098,Córdoba,Córdoba,CBA,2728,AR
103,1099,Mendoza,Mendoza,MZA,4610,AR
104,1100,Río Cuarto,Córdoba,CBA,2481,AR
105,1101,Rafaela,Santa Fe,SF,7176,AR
106,1102,Río Cuarto,Córdoba,CBA,2895,AR
107,1103,CABA,Buenos Aires,BA,2902,AR
108,1104,La Plata,Buenos Aires,BA,6092,AR
109,1105,Córdoba,Córdoba,CBA,3069,AR
110,1106,Río Cuarto,Córdoba,CBA,9819,AR
111,1107,La Plata,Buenos Aires,BA,3415,AR
112,1108,Mar del Plata,Buenos Aires,BA,9230,AR
113,1109,Mar del Plata,Buenos Aires,BA,9110,AR
114,1110,Villa Carlos Paz,Córdoba,CBA,4687,AR
115,1111,Mendoza,Mendoza,MZA,3608,AR
116,1112,La Plata,Buenos Aires,BA,7412,AR
117,1113,Mar del Plata,Buenos Aires,BA,9978,AR
118,1114,La Plata,Buenos Aires,BA,8496,AR
119,1115,Villa Carlos Paz,Córdoba,CBA,4573,AR
120,1116,Córdoba,Córdoba,CBA,3418,AR
121,1117,Godoy Cruz,Mendoza,MZA,8763,AR
122,1118,Mendoza,Mendoza,MZA,3434,AR
123,1119,CABA,Buenos Aires,BA,3826,AR
124,1120,Rafaela,Santa Fe,SF,5509,AR
125,1121,CABA,Buenos Aires,BA,9351,AR
126,1122,Mar del Plata,Buenos Aires,BA,3967,AR
127,1123,Mar del Plata,Buenos Aires,BA,2629,AR
128,1124,Mar del Plata,Buenos Aires,BA,7451,AR
129,1125,Rafaela,Santa Fe,SF,4399,AR
130,1126,Mar del Plata,Buenos Aires,BA,6149,AR
131,1127,Mar del Plata,Buenos Aires,BA,5206,AR
132,1128,CABA,Buenos Aires,BA,7931,AR
133,1129,CABA,Buenos Aires,BA,3291,AR
134,1130,Río Cuarto,Córdoba,CBA,2622,AR
135,1131,CABA,Buenos Aires,BA,4539,AR
136,1132,Mar del Plata,Buenos Aires,BA,5270,AR
137,1133,Córdoba,Córdoba,CBA,7968,AR
138,1134,CABA,Buenos Aires,BA,7097,AR
139,1135,Río Cuarto,Córdoba,CBA,6183,AR
140,1136,Mar del Plata,Buenos Aires,BA,9707,AR
141,1137,Villa Carlos Paz,Córdoba,CBA,6944,AR
142,1138,Rosario,Santa Fe,SF,7179,AR
143,1139,CABA,Buenos Aires,BA,9021,AR
144,1140,Mar del Plata,Buenos Aires,BA,2623,AR
145,1141,La Plata,Buenos Aires,BA,8812,AR
146,1142,Mar del Plata,Buenos Aires,BA,3337,AR
147,1143,Villa Carlos Paz,Córdoba,CBA,5081,AR
148,1144,Córdoba,Córdoba,CBA,5519,AR
149,1145,Mar del Plata,Buenos Aires,BA,6007,AR
150,1146,Rosario,Santa Fe,SF,2534,AR
151,1147,Córdoba,Córdoba,CBA,7946,AR
152,1148,Mendoza,Mendoza,MZA,7643,AR
153,1149,Río Cuarto,Córdoba,CBA,5001,AR
154,1150,Córdoba,Córdoba,CBA,3864,AR
155,1151,CABA,Buenos Aires,BA,9118,AR
156,1152,CABA,Buenos Aires,BA,5752,AR
157,1153,La Plata,Buenos Aires,BA,4562,AR
158,1154,San Rafael,Mendoza,MZA,1942,AR
159,1155,La Plata,Buenos Aires,BA,1084,AR
160,1156,Rosario,Santa Fe,SF,8058,AR
161,1157,Mar del Plata,Buenos Aires,BA,8985,AR
162,1158,Mar del Plata,Buenos Aires,BA,7132,AR
163,1159,CABA,Buenos Aires,BA,8198,AR
164,1160,Mar del Plata,Buenos Aires,BA,2813,AR
165,1161,CABA,Buenos Aires,BA,1517,AR
166,1162,Villa Carlos Paz,Córdoba,CBA,9119,AR
167,1163,La Plata,Buenos Aires,BA,3153,AR
168,1164,Mendoza,Mendoza,MZA,4874,AR
169,1165,Villa Carlos Paz,Córdoba,CBA,8116,AR
170,1166,La Plata,Buenos Aires,BA,9376,AR
171,1167,CABA,Buenos Aires,BA,4250,AR
172,1168,Córdoba,Córdoba,CBA,3436,AR
173,1169,La Plata,Buenos Aires,BA,7984,AR
174,1170,Córdoba,Córdoba,CBA,4791,AR
175,1171,La Plata,Buenos Aires,BA,5985,AR
176,1172,La Plata,Buenos Aires,BA,6240,AR
177,1173,CABA,Buenos Aires,BA,4473,AR
178,1174,Mar del Plata,Buenos Aires,BA,9049,AR
179,1175,CABA,Buenos Aires,BA,6426,AR
180,1176,Villa Carlos Paz,Córdoba,CBA,4903,AR
181,1177,La Plata,Buenos Aires,BA,1672,AR
182,1178,La Plata,Buenos Aires,BA,5939,AR
183,1179,Mendoza,Mendoza,MZA,3094,AR
184,1180,Mar del Plata,Buenos Aires,BA,8347,AR
185,1181,Mendoza,Mendoza,MZA,3735,AR
186,1182,Córdoba,Córdoba,CBA,4116,AR
187,1183,Mar del Plata,Buenos Aires,BA,9344,AR
188,1184,Villa Carlos Paz,Córdoba,CBA,4015,AR
189,1185,CABA,Buenos Aires,BA,9254,AR
190,1186,CABA,Buenos Aires,BA,3803,AR
191,1187,CABA,Buenos Aires,BA,5550,AR
192,1188,CABA,Buenos Aires,BA,1022,AR
193,1189,Villa Carlos Paz,Córdoba,CBA,3189,AR
194,1190,Santa Fe,Santa Fe,SF,6824,AR
195,1191,Villa Carlos Paz,Córdoba,CBA,7258,AR
196,1192,Rafaela,Santa Fe,SF,4614,AR
197,1193,Mar del Plata,Buenos Aires,BA,8109,AR
198,1194,La Plata,Buenos Aires,BA,4031,AR
199,1195,La Plata,Buenos Aires,BA,6081,AR
200,1196,Santa Fe,Santa Fe,SF,2180,AR
201,1197,Mar del Plata,Buenos Aires,BA,1193,AR
202,1198,CABA,Buenos Aires,BA,3165,AR
203,1199,Santa Fe,Santa Fe,SF,1153,AR
204,1200,La Plata,Buenos Aires,BA,8279,AR
205,1201,La Plata,Buenos Aires,BA,9906,AR
206,1202,CABA,Buenos Aires,BA,9381,AR
207,1203,CABA,Buenos Aires,BA,3414,AR
208,1204,Córdoba,Córdoba,CBA,9057,AR
209,1205,Mendoza,Mendoza,MZA,6467,AR
210,1206,CABA,Buenos Aires,BA,8022,AR
211,1207,CABA,Buenos Aires,BA,5702,AR
212,1208,Santa Fe,Santa Fe,SF,2251,AR
213,1209,Rosario,Santa Fe,SF,8318,AR
214,1210,Rosario,Santa Fe,SF,3370,AR
215,1211,CABA,Buenos Aires,BA,9097,AR
216,1212,La Plata,Buenos Aires,BA,5028,AR
217,1213,La Plata,Buenos Aires,BA,7301,AR
218,1214,Villa Carlos Paz,Córdoba,CBA,2429,AR
219,1215,CABA,Buenos Aires,BA,3188,AR
220,1216,La Plata,Buenos Aires,BA,3361,AR
221,1217,Godoy Cruz,Mendoza,MZA,3257,AR
222,1218,San Rafael,Mendoza,MZA,7958,AR
223,1219,CABA,Buenos Aires,BA,1494,AR
224,1220,CABA,Buenos Aires,BA,3452,AR
225,1221,CABA,Buenos Aires,BA,7742,AR
226,1222,Mar del Plata,Buenos Aires,BA,1983,AR
227,1223,Córdoba,Córdoba,CBA,7940,AR
228,1224,Villa Carlos Paz,Córdoba,CBA,7941,AR
229,1225,CABA,Buenos Aires,BA,7560,AR
230,1226,CABA,Buenos Aires,BA,8821,AR
231,1227,Villa Carlos Paz,Córdoba,CBA,7950,AR
232,1228,CABA,Buenos Aires,BA,1459,AR
233,1229,Mar del Plata,Buenos Aires,BA,6064,AR
234,1230,Río Cuarto,Córdoba,CBA,1735,AR
235,1231,Godoy Cruz,Mendoza,MZA,6056,AR
236,1232,Godoy Cruz,Mendoza,MZA,7400,AR
237,1233,San Rafael,Mendoza,MZA,9227,AR
238,1234,La Plata,Buenos Aires,BA,3641,AR
239,1235,Córdoba,Córdoba,CBA,3307,AR
240,1236,San Rafael,Mendoza,MZA,8331,AR
241,1237,La Plata,Buenos Aires,BA,4917,AR
242,1238,San Rafael,Mendoza,MZA,2595,AR
243,1239,La Plata,Buenos Aires,BA,8451,AR
244,1240,La Plata,Buenos Aires,BA,6789,AR
245,1241,Mar del Plata,Buenos Aires,BA,8242,AR
246,1242,San Rafael,Mendoza,MZA,7568,AR
247,1243,Rafaela,Santa Fe,SF,7122,AR
248,1244,Río Cuarto,Córdoba,CBA,1934,AR
249,1245,Río Cuarto,Córdoba,CBA,7157,AR
250,1246,Córdoba,Córdoba,CBA,6716,AR
251,1247,Mar del Plata,Buenos Aires,BA,2775,AR
252,1248,Rosario,Santa Fe,SF,6610,AR
253,1249,Mar del Plata,Buenos Aires,BA,1627,AR
254,1250,La Plata,Buenos Aires,BA,1513,AR
255,1251,La Plata,Buenos Aires,BA,4465,AR
256,1252,San Rafael,Mendoza,MZA,2369,AR
257,1253,La Plata,Buenos Aires,BA,7876,AR
258,1254,La Plata,Buenos Aires,BA,6603,AR
259,1255,La Plata,Buenos Aires,BA,8156,AR
260,1256,San Rafael,Mendoza,MZA,2274,AR
261,1257,Mar del Plata,Buenos Aires,BA,3416,AR
262,1258,Rosario,Santa Fe,SF,8381,AR
263,1259,Río Cuarto,Córdoba,CBA,4074,AR
264,1260,Córdoba,Córdoba,CBA,4436,AR
265,1261,San Rafael,Mendoza,MZA,5947,AR
266,1262,CABA,Buenos Aires,BA,7723,AR
267,1263,Mar del Plata,Buenos Aires,BA,3880,AR
268,1264,CABA,Buenos Aires,BA,7251,AR
269,1265,Rafaela,Santa Fe,SF,2435,AR
270,1266,CABA,Buenos Aires,BA,8276,AR
271,1267,Córdoba,Córdoba,CBA,8448,AR
272,1268,CABA,Buenos Aires,BA,7765,AR
273,1269,La Plata,Buenos Aires,BA,5333,AR
274,1270,Santa Fe,Santa Fe,SF,1254,AR
275,1271,La Plata,Buenos Aires,BA,6490,AR
276,1272,Godoy Cruz,Mendoza,MZA,7444,AR
277,1273,Rafaela,Santa Fe,SF,3846,AR
278,1274,San Rafael,Mendoza,MZA,3069,AR
279,1275,Mar del Plata,Buenos Aires,BA,6282,AR
280,1276,CABA,Buenos Aires,BA,1455,AR
281,1277,Mendoza,Mendoza,MZA,8433,AR
282,1278,Mar del Plata,Buenos Aires,BA,7194,AR
283,1279,Villa Carlos Paz,Córdoba,CBA,2694,AR
284,1280,Mar del Plata,Buenos Aires,BA,5292,AR
285,1281,La Plata,Buenos Aires,BA,9045,AR
286,1282,La Plata,Buenos Aires,BA,7148,AR
287,1283,Villa Carlos Paz,Córdoba,CBA,3927,AR
288,1284,La Plata,Buenos Aires,BA,3595,AR
289,1285,Córdoba,Córdoba,CBA,9486,AR
290,1286,Rosario,Santa Fe,SF,6366,AR
291,1287,Mar del Plata,Buenos Aires,BA,4264,AR
292,1288,Mar del Plata,Buenos Aires,BA,8144,AR
293,1289,Mendoza,Mendoza,MZA,7436,AR
294,1290,Río Cuarto,Córdoba,CBA,8101,AR
295,1291,Mar del Plata,Buenos Aires,BA,7275,AR
296,1292,La Plata,Buenos Aires,BA,3740,AR
297,1293,Godoy Cruz,Mendoza,MZA,7525,AR
298,1294,La Plata,Buenos Aires,BA,2190,AR
299,1295,Villa Carlos Paz,Córdoba,CBA,6219,AR
300,1296,Córdoba,Córdoba,CBA,2085,AR
301,1297,CABA,Buenos Aires,BA,2225,AR
302,1298,Villa Carlos Paz,Córdoba,CBA,1813,AR
303,1299,La Plata,Buenos Aires,BA,3803,AR
304,1300,Córdoba,Córdoba,CBA,1076,AR
305,1301,La Plata,Buenos Aires,BA,6527,AR
306,1302,CABA,Buenos Aires,BA,6196,AR
307,1303,Mar del Plata,Buenos Aires,BA,7444,AR
308,1304,Villa Carlos Paz,Córdoba,CBA,2683,AR
309,1305,CABA,Buenos Aires,BA,4708,AR
310,1306,Mar del Plata,Buenos Aires,BA,5254,AR
311,1307,La Plata,Buenos Aires,BA,5422,AR
312,1308,San Rafael,Mendoza,MZA,3424,AR
313,1309,Río Cuarto,Córdoba,CBA,8830,AR
314,1310,Godoy Cruz,Mendoza,MZA,5853,AR
315,1311,CABA,Buenos Aires,BA,9103,AR
316,1312,Mar del Plata,Buenos Aires,BA,8989,AR
317,1313,Mar del Plata,Buenos Aires,BA,8438,AR
318,1314,Rosario,Santa Fe,SF,8412,AR
319,1315,La Plata,Buenos Aires,BA,3690,AR
320,1316,San Rafael,Mendoza,MZA,2805,AR
321,1317,La Plata,Buenos Aires,BA,9698,AR
322,1318,CABA,Buenos Aires,BA,4474,AR
323,1319,La Plata,Buenos Aires,BA,5466,AR
324,1320,Mar del Plata,Buenos Aires,BA,5816,AR
325,1321,Mar del Plata,Buenos Aires,BA,9497,AR
326,1322,CABA,Buenos Aires,BA,1870,AR
327,1323,Córdoba,Córdoba,CBA,4710,AR
328,1324,CABA,Buenos Aires,BA,9112,AR
329,1325,CABA,Buenos Aires,BA,1050,AR
330,1326,Mar del Plata,Buenos Aires,BA,3789,AR
331,1327,Córdoba,Córdoba,CBA,1208,AR
332,1328,CABA,Buenos Aires,BA,1159,AR
333,1329,San Rafael,Mendoza,MZA,2792,AR
334,1330,Rafaela,Santa Fe,SF,3401,AR
335,1331,Mar del Plata,Buenos Aires,BA,9940,AR
336,1332,Villa Carlos Paz,Córdoba,CBA,5933,AR
337,1333,Rafaela,Santa Fe,SF,9508,AR
338,1334,La Plata,Buenos Aires,BA,9156,AR
339,1335,Mar del Plata,Buenos Aires,BA,4175,AR
340,1336,Villa Carlos Paz,Córdoba,CBA,5346,AR
341,1337,Santa Fe,Santa Fe,SF,4122,AR
342,1338,Río Cuarto,Córdoba,CBA,8455,AR
343,1339,CABA,Buenos Aires,BA,3461,AR
344,1340,San Rafael,Mendoza,MZA,8976,AR
345,1341,La Plata,Buenos Aires,BA,5636,AR
346,1342,La Plata,Buenos Aires,BA,1817,AR
347,1343,La Plata,Buenos Aires,BA,2409,AR
348,1344,Mar del Plata,Buenos Aires,BA,5764,AR
349,1345,La Plata,Buenos Aires,BA,7923,AR
350,1346,Mendoza,Mendoza,MZA,3839,AR
351,1347,La Plata,Buenos Aires,BA,5096,AR
352,1348,CABA,Buenos Aires,BA,8555,AR
353,1349,La Plata,Buenos Aires,BA,6132,AR
354,1350,San Rafael,Mendoza,MZA,8643,AR
355,1351,Godoy Cruz,Mendoza,MZA,2448,AR
356,1352,Villa Carlos Paz,Córdoba,CBA,3085,AR
357,1353,Santa Fe,Santa Fe,SF,1097,AR
358,1354,Rafaela,Santa Fe,SF,5426,AR
359,1355,CABA,Buenos Aires,BA,1997,AR
360,1356,Río Cuarto,Córdoba,CBA,4359,AR
361,1357,Mar del Plata,Buenos Aires,BA,5929,AR
362,1358,Córdoba,Córdoba,CBA,2879,AR
363,1359,Mar del Plata,Buenos Aires,BA,4347,AR
364,1360,Mar del Plata,Buenos Aires,BA,5913,AR
365,1361,CABA,Buenos Aires,BA,3018,AR
366,1362,CABA,Buenos Aires,BA,3797,AR
367,1363,Río Cuarto,Córdoba,CBA,5742,AR
368,1364,Godoy Cruz,Mendoza,MZA,7321,AR
369,1365,La Plata,Buenos Aires,BA,2968,AR
370,1366,Mar del Plata,Buenos Aires,BA,1698,AR
371,1367,Godoy Cruz,Mendoza,MZA,6861,AR
372,1368,Rafaela,Santa Fe,SF,9405,AR
373,1369,CABA,Buenos Aires,BA,8528,AR
374,1370,Mar del Plata,Buenos Aires,BA,7168,AR
375,1371,Córdoba,Córdoba,CBA,3120,AR
376,1372,Río Cuarto,Córdoba,CBA,2107,AR
377,1373,Mar del Plata,Buenos Aires,BA,9182,AR
378,1374,CABA,Buenos Aires,BA,7882,AR
379,1375,La Plata,Buenos Aires,BA,8234,AR
380,1376,Córdoba,Córdoba,CBA,7187,AR
381,1377,San Rafael,Mendoza,MZA,9046,AR
382,1378,Córdoba,Córdoba,CBA,9659,AR
383,1379,CABA,Buenos Aires,BA,1085,AR
384,1380,Rafaela,Santa Fe,SF,9653,AR
385,1381,CABA,Buenos Aires,BA,6840,AR
386,1382,Rosario,Santa Fe,SF,2161,AR
387,1383,Mar del Plata,Buenos Aires,BA,4777,AR
388,1384,Villa Carlos Paz,Córdoba,CBA,7396,AR
389,1385,CABA,Buenos Aires,BA,9482,AR
390,1386,Mar del Plata,Buenos Aires,BA,8716,AR
391,1387,Córdoba,Córdoba,CBA,6481,AR
392,1388,Mar del Plata,Buenos Aires,BA,9086,AR
393,1389,Rafaela,Santa Fe,SF,2159,AR
394,1390,Río Cuarto,Córdoba,CBA,5432,AR
395,1391,La Plata,Buenos Aires,BA,8069,AR
396,1392,CABA,Buenos Aires,BA,9752,AR
397,1393,Río Cuarto,Córdoba,CBA,7342,AR
398,1394,Villa Carlos Paz,Córdoba,CBA,8175,AR
399,1395,Santa Fe,Santa Fe,SF,1949,AR
400,1396,Mar del Plata,Buenos Aires,BA,1244,AR
401,1397,Rosario,Santa Fe,SF,5630,AR
402,1398,Mar del Plata,Buenos Aires,BA,8843,AR
403,1399,Córdoba,Córdoba,CBA,6848,AR
404,1400,La Plata,Buenos Aires,BA,9631,AR
405,1401,Mar del Plata,Buenos Aires,BA,7731,AR
406,1402,CABA,Buenos Aires,BA,4453,AR
407,1403,CABA,Buenos Aires,BA,8434,AR
408,1404,CABA,Buenos Aires,BA,5921,AR
409,1405,Mar del Plata,Buenos Aires,BA,7302,AR
410,1406,CABA,Buenos Aires,BA,9724,AR
411,1407,Córdoba,Córdoba,CBA,5301,AR
412,1408,Santa Fe,Santa Fe,SF,2789,AR
413,1409,Mar del Plata,Buenos Aires,BA,9501,AR
414,1410,La Plata,Buenos Aires,BA,1248,AR
415,1411,Santa Fe,Santa Fe,SF,6530,AR
416,1412,La Plata,Buenos Aires,BA,1202,AR
417,1413,Mar del Plata,Buenos Aires,BA,8581,AR
418,1414,La Plata,Buenos Aires,BA,7694,AR
419,1415,Córdoba,Córdoba,CBA,2049,AR
420,1416,La Plata,Buenos Aires,BA,3858,AR
421,1417,Rafaela,Santa Fe,SF,4018,AR
422,1418,Rafaela,Santa Fe,SF,1996,AR
423,1419,Mendoza,Mendoza,MZA,4845,AR
424,1420,Mar del Plata,Buenos Aires,BA,4882,AR
425,1421,La Plata,Buenos Aires,BA,5638,AR
426,1422,Mar del Plata,Buenos Aires,BA,8711,AR
427,1423,Córdoba,Córdoba,CBA,1418,AR
428,1424,Villa Carlos Paz,Córdoba,CBA,4520,AR
429,1425,Rosario,Santa Fe,SF,2266,AR
430,1426,Río Cuarto,Córdoba,CBA,9646,AR
431,1427,Río Cuarto,Córdoba,CBA,5410,AR
432,1428,Santa Fe,Santa Fe,SF,4782,AR
433,1429,CABA,Buenos Aires,BA,6929,AR
434,1430,Mar del Plata,Buenos Aires,BA,4774,AR
435,1431,Rosario,Santa Fe,SF,7678,AR
436,1432,Villa Carlos Paz,Córdoba,CBA,7692,AR
437,1433,CABA,Buenos Aires,BA,3947,AR
438,1434,CABA,Buenos Aires,BA,2654,AR
439,1435,Santa Fe,Santa Fe,SF,3168,AR
440,1436,Santa Fe,Santa Fe,SF,4955,AR
441,1437,La Plata,Buenos Aires,BA,1741,AR
442,1438,Villa Carlos Paz,Córdoba,CBA,8138,AR
443,1439,Rafaela,Santa Fe,SF,3494,AR
444,1440,Villa Carlos Paz,Córdoba,CBA,3895,AR
445,1441,Villa Carlos Paz,Córdoba,CBA,6588,AR
446,1442,Río Cuarto,Córdoba,CBA,6288,AR
447,1443,CABA,Buenos Aires,BA,8053,AR
448,1444,Mar del Plata,Buenos Aires,BA,3713,AR
449,1445,La Plata,Buenos Aires,BA,5250,AR
450,1446,San Rafael,Mendoza,MZA,9334,AR
451,1447,CABA,Buenos Aires,BA,9001,AR
452,1448,La Plata,Buenos Aires,BA,9534,AR
453,1449,Santa Fe,Santa Fe,SF,8281,AR
454,1450,CABA,Buenos Aires,BA,6795,AR
455,1451,Córdoba,Córdoba,CBA,5523,AR
456,1452,Río Cuarto,Córdoba,CBA,1628,AR
457,1453,Mar del Plata,Buenos Aires,BA,1130,AR
458,1454,La Plata,Buenos Aires,BA,8702,AR
459,1455,CABA,Buenos Aires,BA,2453,AR
460,1456,Rafaela,Santa Fe,SF,9039,AR
461,1457,Río Cuarto,Córdoba,CBA,7230,AR
462,1458,Villa Carlos Paz,Córdoba,CBA,4799,AR
463,1459,Villa Carlos Paz,Córdoba,CBA,5840,AR
464,1460,La Plata,Buenos Aires,BA,7960,AR
465,1461,La Plata,Buenos Aires,BA,3098,AR
466,1462,Santa Fe,Santa Fe,SF,1474,AR
467,1463,CABA,Buenos Aires,BA,5286,AR
468,1464,La Plata,Buenos Aires,BA,5396,AR
469,1465,Villa Carlos Paz,Córdoba,CBA,4625,AR
470,1466,Mar del Plata,Buenos Aires,BA,3117,AR
471,1467,Mar del Plata,Buenos Aires,BA,6778,AR
472,1468,CABA,Buenos Aires,BA,3572,AR
473,1469,Mar del Plata,Buenos Aires,BA,6431,AR
474,1470,Mar del Plata,Buenos Aires,BA,9627,AR
475,1471,La Plata,Buenos Aires,BA,1397,AR
476,1472,Río Cuarto,Córdoba,CBA,7190,AR
477,1473,Mar del Plata,Buenos Aires,BA,9265,AR
478,1474,Mar del Plata,Buenos Aires,BA,7408,AR
479,1475,Santa Fe,Santa Fe,SF,5950,AR
480,1476,CABA,Buenos Aires,BA,7169,AR
481,1477,CABA,Buenos Aires,BA,5659,AR
482,1478,La Plata,Buenos Aires,BA,7106,AR
483,1479,Villa Carlos Paz,Córdoba,CBA,4802,AR
484,1480,Mar del Plata,Buenos Aires,BA,3355,AR
485,1481,CABA,Buenos Aires,BA,2374,AR
486,1482,La Plata,Buenos Aires,BA,1965,AR
487,1483,La Plata,Buenos Aires,BA,7660,AR
488,1484,CABA,Buenos Aires,BA,6128,AR
489,1485,Mar del Plata,Buenos Aires,BA,2721,AR
490,1486,Villa Carlos Paz,Córdoba,CBA,3722,AR
491,1487,CABA,Buenos Aires,BA,9594,AR
492,1488,Mar del Plata,Buenos Aires,BA,2926,AR
493,1489,San Rafael,Mendoza,MZA,3718,AR
494,1490,Mar del Plata,Buenos Aires,BA,9509,AR
495,1491,CABA,Buenos Aires,BA,3690,AR
496,1492,Villa Carlos Paz,Córdoba,CBA,3463,AR
497,1493,CABA,Buenos Aires,BA,2537,AR
498,1494,CABA,Buenos Aires,BA,2093,AR
499,1495,Córdoba,Córdoba,CBA,5498,AR
500,1496,Santa Fe,Santa Fe,SF,7607,AR
501,1497,Río Cuarto,Córdoba,CBA,2687,AR
502,1498,La Plata,Buenos Aires,BA,6409,AR
503,1499,San Rafael,Mendoza,MZA,4798,AR
504,1500,Mar del Plata,Buenos Aires,BA,1004,AR
505,1501,CABA,Buenos Aires,BA,8728,AR
506,1502,CABA,Buenos Aires,BA,7316,AR
507,1503,Mar del Plata,Buenos Aires,BA,3721,AR
508,1504,Villa Carlos Paz,Córdoba,CBA,2970,AR
509,1505,Rafaela,Santa Fe,SF,8636,AR
510,1506,Córdoba,Córdoba,CBA,3932,AR
511,1507,La Plata,Buenos Aires,BA,6381,AR
512,1508,Godoy Cruz,Mendoza,MZA,1549,AR
513,1509,Villa Carlos Paz,Córdoba,CBA,5492,AR
514,1510,Mendoza,Mendoza,MZA,9033,AR
515,1511,Mar del Plata,Buenos Aires,BA,1472,AR
516,1512,Córdoba,Córdoba,CBA,1918,AR
517,1513,Córdoba,Córdoba,CBA,4181,AR
518,1514,Mar del Plata,Buenos Aires,BA,9459,AR
519,1515,Godoy Cruz,Mendoza,MZA,2064,AR
520,1516,Rafaela,Santa Fe,SF,3827,AR
521,1517,Mar del Plata,Buenos Aires,BA,3833,AR
522,1518,Mar del Plata,Buenos Aires,BA,2410,AR
523,1519,CABA,Buenos Aires,BA,6201,AR
524,1520,Rosario,Santa Fe,SF,2331,AR
525,1521,Mar del Plata,Buenos Aires,BA,6087,AR
526,1522,La Plata,Buenos Aires,BA,7782,AR
527,1523,Santa Fe,Santa Fe,SF,8202,AR
528,1524,La Plata,Buenos Aires,BA,3793,AR
529,1525,San Rafael,Mendoza,MZA,8108,AR
530,1526,Río Cuarto,Córdoba,CBA,2486,AR
531,1527,Santa Fe,Santa Fe,SF,2889,AR
532,1528,Córdoba,Córdoba,CBA,7099,AR
533,1529,Mar del Plata,Buenos Aires,BA,6879,AR
534,1530,La Plata,Buenos Aires,BA,4065,AR
535,1531,La Plata,Buenos Aires,BA,8478,AR
536,1532,Villa Carlos Paz,Córdoba,CBA,6535,AR
537,1533,Villa Carlos Paz,Córdoba,CBA,7897,AR
538,1534,Rafaela,Santa Fe,SF,9391,AR
539,1535,San Rafael,Mendoza,MZA,3128,AR
540,1536,Rosario,Santa Fe,SF,8515,AR
541,1537,CABA,Buenos Aires,BA,6038,AR
542,1538,CABA,Buenos Aires,BA,3525,AR
543,1539,Santa Fe,Santa Fe,SF,2636,AR
544,1540,La Plata,Buenos Aires,BA,8593,AR
545,1541,Rosario,Santa Fe,SF,7551,AR
546,1542,Rafaela,Santa Fe,SF,6683,AR
547,1543,Río Cuarto,Córdoba,CBA,4852,AR
548,1544,Mar del Plata,Buenos Aires,BA,2265,AR
549,1545,CABA,Buenos Aires,BA,2521,AR
550,1546,CABA,Buenos Aires,BA,7337,AR
551,1547,La Plata,Buenos Aires,BA,8617,AR
552,1548,Mar del Plata,Buenos Aires,BA,3635,AR
553,1549,Mar del Plata,Buenos Aires,BA,8964,AR
554,1550,CABA,Buenos Aires,BA,8377,AR
555,1551,La Plata,Buenos Aires,BA,3930,AR
556,1552,La Plata,Buenos Aires,BA,5224,AR
557,1553,Mar del Plata,Buenos Aires,BA,5615,AR
558,1554,La Plata,Buenos Aires,BA,5134,AR
559,1555,La Plata,Buenos Aires,BA,5804,AR
560,1556,La Plata,Buenos Aires,BA,2829,AR
561,1557,Río Cuarto,Córdoba,CBA,9765,AR
562,1558,CABA,Buenos Aires,BA,8504,AR
563,1559,San Rafael,Mendoza,MZA,2253,AR
564,1560,CABA,Buenos Aires,BA,7257,AR
565,1561,Mendoza,Mendoza,MZA,7922,AR
566,1562,Mar del Plata,Buenos Aires,BA,8101,AR
567,1563,Rafaela,Santa Fe,SF,1800,AR
568,1564,Córdoba,Córdoba,CBA,5535,AR
569,1565,Río Cuarto,Córdoba,CBA,5467,AR
570,1566,CABA,Buenos Aires,BA,5375,AR
571,1567,Río Cuarto,Córdoba,CBA,1296,AR
572,1568,Mar del Plata,Buenos Aires,BA,7893,AR
573,1569,La Plata,Buenos Aires,BA,6237,AR
574,1570,Rosario,Santa Fe,SF,9720,AR
575,1571,Villa Carlos Paz,Córdoba,CBA,8971,AR
576,1572,Mendoza,Mendoza,MZA,5981,AR
577,1573,Santa Fe,Santa Fe,SF,6761,AR
578,1574,CABA,Buenos Aires,BA,4845,AR
579,1575,Mendoza,Mendoza,MZA,7483,AR
580,1576,CABA,Buenos Aires,BA,7571,AR
581,1577,CABA,Buenos Aires,BA,6950,AR
582,1578,Río Cuarto,Córdoba,CBA,4688,AR
583,1579,La Plata,Buenos Aires,BA,7554,AR
584,1580,La Plata,Buenos Aires,BA,7280,AR
585,1581,Godoy Cruz,Mendoza,MZA,3270,AR
586,1582,San Rafael,Mendoza,MZA,6325,AR
587,1583,Mar del Plata,Buenos Aires,BA,1372,AR
588,1584,Córdoba,Córdoba,CBA,3870,AR
589,1585,Mendoza,Mendoza,MZA,1506,AR
590,1586,Villa Carlos Paz,Córdoba,CBA,4963,AR
591,1587,San Rafael,Mendoza,MZA,5011,AR
592,1588,Córdoba,Córdoba,CBA,9515,AR
593,1589,Rosario,Santa Fe,SF,9751,AR
594,1590,Mar del Plata,Buenos Aires,BA,6953,AR
595,1591,Río Cuarto,Córdoba,CBA,3391,AR
596,1592,Rafaela,Santa Fe,SF,7764,AR
597,1593,CABA,Buenos Aires,BA,6407,AR
598,1594,Mar del Plata,Buenos Aires,BA,5838,AR
599,1595,La Plata,Buenos Aires,BA,3294,AR
600,1596,CABA,Buenos Aires,BA,5771,AR
601,1597,Mendoza,Mendoza,MZA,8206,AR
602,1598,Mar del Plata,Buenos Aires,BA,7295,AR
603,1599,Córdoba,Córdoba,CBA,1197,AR
604,1600,Mar del Plata,Buenos Aires,BA,6639,AR
605,1601,Río Cuarto,Córdoba,CBA,8950,AR
606,1602,Santa Fe,Santa Fe,SF,2060,AR
607,1603,CABA,Buenos Aires,BA,4226,AR
608,1604,Mar del Plata,Buenos Aires,BA,4318,AR
609,1605,Villa Carlos Paz,Córdoba,CBA,5447,AR
610,1606,San Rafael,Mendoza,MZA,9567,AR
611,1607,Mar del Plata,Buenos Aires,BA,4741,AR
612,1608,Mar del Plata,Buenos Aires,BA,4113,AR
613,1609,Mendoza,Mendoza,MZA,4728,AR
614,1610,Río Cuarto,Córdoba,CBA,6224,AR
615,1611,CABA,Buenos Aires,BA,2636,AR
616,1612,Río Cuarto,Córdoba,CBA,8041,AR
617,1613,Villa Carlos Paz,Córdoba,CBA,1008,AR
618,1614,Rafaela,Santa Fe,SF,6384,AR
619,1615,La Plata,Buenos Aires,BA,6589,AR
620,1616,Río Cuarto,Córdoba,CBA,3984,AR
621,1617,Mar del Plata,Buenos Aires,BA,2074,AR
622,1618,Córdoba,Córdoba,CBA,4171,AR
623,1619,Rosario,Santa Fe,SF,9690,AR
624,1620,La Plata,Buenos Aires,BA,6304,AR
625,1621,La Plata,Buenos Aires,BA,6335,AR
626,1622,San Rafael,Mendoza,MZA,4747,AR
627,1623,La Plata,Buenos Aires,BA,6798,AR
628,1624,La Plata,Buenos Aires,BA,7620,AR
629,1625,Godoy Cruz,Mendoza,MZA,4313,AR
630,1626,Villa Carlos Paz,Córdoba,CBA,8004,AR
631,1627,Mar del Plata,Buenos Aires,BA,5488,AR
632,1628,CABA,Buenos Aires,BA,1753,AR
633,1629,Río Cuarto,Córdoba,CBA,1971,AR
634,1630,La Plata,Buenos Aires,BA,5656,AR
635,1631,Mar del Plata,Buenos Aires,BA,3486,AR
636,1632,Río Cuarto,Córdoba,CBA,5017,AR
637,1633,Río Cuarto,Córdoba,CBA,1358,AR
638,1634,Rosario,Santa Fe,SF,4016,AR
639,1635,La Plata,Buenos Aires,BA,5183,AR
640,1636,Mar del Plata,Buenos Aires,BA,1786,AR
641,1637,Mar del Plata,Buenos Aires,BA,1525,AR
642,1638,Santa Fe,Santa Fe,SF,2099,AR
643,1639,Río Cuarto,Córdoba,CBA,8675,AR
644,1640,Rafaela,Santa Fe,SF,3493,AR
645,1641,Mar del Plata,Buenos Aires,BA,1351,AR
646,1642,Córdoba,Córdoba,CBA,6281,AR
647,1643,CABA,Buenos Aires,BA,4282,AR
648,1644,Rafaela,Santa Fe,SF,4377,AR
649,1645,CABA,Buenos Aires,BA,9848,AR
650,1646,Godoy Cruz,Mendoza,MZA,4304,AR
651,1647,La Plata,Buenos Aires,BA,3249,AR
652,1648,La Plata,Buenos Aires,BA,7232,AR
653,1649,La Plata,Buenos Aires,BA,2521,AR
654,1650,Mar del Plata,Buenos Aires,BA,2971,AR
655,1651,Villa Carlos Paz,Córdoba,CBA,2487,AR
656,1652,La Plata,Buenos Aires,BA,1118,AR
657,1653,Santa Fe,Santa Fe,SF,2069,AR
658,1654,San Rafael,Mendoza,MZA,7384,AR
659,1655,La Plata,Buenos Aires,BA,3905,AR
660,1656,Mar del Plata,Buenos Aires,BA,1638,AR
661,1657,Córdoba,Córdoba,CBA,3580,AR
662,1658,Mar del Plata,Buenos Aires,BA,6981,AR
663,1659,Rosario,Santa Fe,SF,7114,AR
664,1660,Córdoba,Córdoba,CBA,1560,AR
665,1661,Mendoza,Mendoza,MZA,3591,AR
666,1662,CABA,Buenos Aires,BA,8793,AR
667,1663,San Rafael,Mendoza,MZA,6102,AR
668,1664,La Plata,Buenos Aires,BA,2579,AR
669,1665,Mar del Plata,Buenos Aires,BA,3336,AR
670,1666,Río Cuarto,Córdoba,CBA,2724,AR
671,1667,CABA,Buenos Aires,BA,9518,AR
672,1668,Villa Carlos Paz,Córdoba,CBA,3379,AR
673,1669,Villa Carlos Paz,Córdoba,CBA,3342,AR
674,1670,Rosario,Santa Fe,SF,8877,AR
675,1671,Rosario,Santa Fe,SF,8425,AR
676,1672,CABA,Buenos Aires,BA,6525,AR
677,1673,La Plata,Buenos Aires,BA,6609,AR
678,1674,La Plata,Buenos Aires,BA,2549,AR
679,1675,Mendoza,Mendoza,MZA,3069,AR
680,1676,La Plata,Buenos Aires,BA,7513,AR
681,1677,Mar del Plata,Buenos Aires,BA,9611,AR
682,1678,Río Cuarto,Córdoba,CBA,9838,AR
683,1679,Río Cuarto,Córdoba,CBA,3713,AR
684,1680,Rafaela,Santa Fe,SF,4312,AR
685,1681,La Plata,Buenos Aires,BA,8807,AR
686,1682,Mar del Plata,Buenos Aires,BA,6105,AR
687,1683,San Rafael,Mendoza,MZA,3298,AR
688,1684,CABA,Buenos Aires,BA,7406,AR
689,1685,La Plata,Buenos Aires,BA,7577,AR
690,1686,Río Cuarto,Córdoba,CBA,5513,AR
691,1687,CABA,Buenos Aires,BA,8718,AR
692,1688,Villa Carlos Paz,Córdoba,CBA,3517,AR
693,1689,Rafaela,Santa Fe,SF,5185,AR
694,1690,Villa Carlos Paz,Córdoba,CBA,5769,AR
695,1691,CABA,Buenos Aires,BA,9102,AR
696,1692,Mar del Plata,Buenos Aires,BA,5123,AR
697,1693,Mar del Plata,Buenos Aires,BA,2656,AR
698,1694,La Plata,Buenos Aires,BA,2703,AR
699,1695,Río Cuarto,Córdoba,CBA,1689,AR
700,1696,Río Cuarto,Córdoba,CBA,4909,AR
701,1697,Río Cuarto,Córdoba,CBA,6690,AR
702,1698,Rafaela,Santa Fe,SF,1420,AR
703,1699,Córdoba,Córdoba,CBA,1464,AR
704,1700,Santa Fe,Santa Fe,SF,5074,AR
705,1701,CABA,Buenos Aires,BA,3631,AR
706,1702,Río Cuarto,Córdoba,CBA,3818,AR
707,1703,Santa Fe,Santa Fe,SF,6186,AR
708,1704,Mar del Plata,Buenos Aires,BA,9146,AR
709,1705,Rosario,Santa Fe,SF,6521,AR
710,1706,Rosario,Santa Fe,SF,4109,AR
711,1707,San Rafael,Mendoza,MZA,7520,AR
712,1708,CABA,Buenos Aires,BA,3388,AR
713,1709,La Plata,Buenos Aires,BA,2346,AR
714,1710,Godoy Cruz,Mendoza,MZA,5485,AR
715,1711,Mar del Plata,Buenos Aires,BA,4538,AR
716,1712,CABA,Buenos Aires,BA,7791,AR
717,1713,Río Cuarto,Córdoba,CBA,7342,AR
718,1714,Villa Carlos Paz,Córdoba,CBA,4845,AR
719,1715,CABA,Buenos Aires,BA,9819,AR
720,1716,Mar del Plata,Buenos Aires,BA,4732,AR
721,1717,Río Cuarto,Córdoba,CBA,1871,AR
722,1718,Villa Carlos Paz,Córdoba,CBA,1362,AR
723,1719,Mar del Plata,Buenos Aires,BA,2044,AR
724,1720,Mar del Plata,Buenos Aires,BA,9041,AR
725,1721,Córdoba,Córdoba,CBA,6076,AR
726,1722,Villa Carlos Paz,Córdoba,CBA,3363,AR
727,1723,San Rafael,Mendoza,MZA,6871,AR
728,1724,Rosario,Santa Fe,SF,4188,AR
729,1725,Mendoza,Mendoza,MZA,2957,AR
730,1726,La Plata,Buenos Aires,BA,7677,AR
731,1727,Córdoba,Córdoba,CBA,6818,AR
732,1728,Villa Carlos Paz,Córdoba,CBA,7576,AR
733,1729,Mar del Plata,Buenos Aires,BA,9583,AR
734,1730,Mar del Plata,Buenos Aires,BA,2564,AR
735,1731,Mar del Plata,Buenos Aires,BA,6017,AR
736,1732,Rafaela,Santa Fe,SF,4088,AR
737,1733,CABA,Buenos Aires,BA,7130,AR
738,1734,Rafaela,Santa Fe,SF,1497,AR
739,1735,Mendoza,Mendoza,MZA,3955,AR
740,1736,CABA,Buenos Aires,BA,6527,AR
741,1737,San Rafael,Mendoza,MZA,6543,AR
742,1738,CABA,Buenos Aires,BA,6870,AR
743,1739,Godoy Cruz,Mendoza,MZA,6251,AR
744,1740,Río Cuarto,Córdoba,CBA,5629,AR
745,1741,CABA,Buenos Aires,BA,8129,AR
746,1742,CABA,Buenos Aires,BA,7370,AR
747,1743,La Plata,Buenos Aires,BA,2461,AR
748,1744,Rafaela,Santa Fe,SF,1785,AR
749,1745,La Plata,Buenos Aires,BA,8107,AR
750,1746,CABA,Buenos Aires,BA,4514,AR
751,1747,CABA,Buenos Aires,BA,4335,AR
752,1748,Mar del Plata,Buenos Aires,BA,2905,AR
753,1749,CABA,Buenos Aires,BA,7091,AR
754,1750,CABA,Buenos Aires,BA,7927,AR
755,1751,Mar del Plata,Buenos Aires,BA,7813,AR
756,1752,CABA,Buenos Aires,BA,7479,AR
757,1753,Villa Carlos Paz,Córdoba,CBA,2155,AR
758,1754,La Plata,Buenos Aires,BA,3742,AR
759,1755,San Rafael,Mendoza,MZA,5664,AR
760,1756,CABA,Buenos Aires,BA,4289,AR
761,1757,CABA,Buenos Aires,BA,4746,AR
762,1758,Rosario,Santa Fe,SF,8142,AR
763,1759,CABA,Buenos Aires,BA,4447,AR
764,1760,CABA,Buenos Aires,BA,6736,AR
765,1761,Mar del Plata,Buenos Aires,BA,5780,AR
766,1762,CABA,Buenos Aires,BA,1414,AR
767,1763,CABA,Buenos Aires,BA,3348,AR
768,1764,Mendoza,Mendoza,MZA,9487,AR
769,1765,Mar del Plata,Buenos Aires,BA,1629,AR
770,1766,San Rafael,Mendoza,MZA,1957,AR
771,1767,Rosario,Santa Fe,SF,1324,AR
772,1768,San Rafael,Mendoza,MZA,8367,AR
773,1769,Río Cuarto,Córdoba,CBA,8850,AR
774,1770,La Plata,Buenos Aires,BA,7364,AR
775,1771,Santa Fe,Santa Fe,SF,1697,AR
776,1772,Mar del Plata,Buenos Aires,BA,4409,AR
777,1773,La Plata,Buenos Aires,BA,7364,AR
778,1774,La Plata,Buenos Aires,BA,5030,AR
779,1775,Río Cuarto,Córdoba,CBA,8591,AR
780,1776,Santa Fe,Santa Fe,SF,7436,AR
781,1777,Mar del Plata,Buenos Aires,BA,1833,AR
782,1778,Mar del Plata,Buenos Aires,BA,3954,AR
783,1779,CABA,Buenos Aires,BA,5478,AR
784,1780,Rafaela,Santa Fe,SF,7738,AR
785,1781,Mar del Plata,Buenos Aires,BA,2590,AR
786,1782,CABA,Buenos Aires,BA,6844,AR
787,1783,Córdoba,Córdoba,CBA,8317,AR
788,1784,CABA,Buenos Aires,BA,3490,AR
789,1785,Mar del Plata,Buenos Aires,BA,5607,AR
790,1786,San Rafael,Mendoza,MZA,3221,AR
791,1787,La Plata,Buenos Aires,BA,8224,AR
792,1788,CABA,Buenos Aires,BA,6566,AR
793,1789,Rosario,Santa Fe,SF,7449,AR
794,1790,Mar del Plata,Buenos Aires,BA,2361,AR
795,1791,Villa Carlos Paz,Córdoba,CBA,3769,AR
796,1792,Rosario,Santa Fe,SF,9021,AR
797,1793,Mendoza,Mendoza,MZA,8355,AR
798,1794,La Plata,Buenos Aires,BA,1514,AR
799,1795,Rafaela,Santa Fe,SF,5959,AR
800,1796,La Plata,Buenos Aires,BA,7146,AR
801,1797,Mar del Plata,Buenos Aires,BA,3168,AR
802,1798,Río Cuarto,Córdoba,CBA,2364,AR
803,1799,Mendoza,Mendoza,MZA,3105,AR
804,1800,CABA,Buenos Aires,BA,2431,AR
805,1801,CABA,Buenos Aires,BA,8549,AR
806,1802,Rosario,Santa Fe,SF,4268,AR
807,1803,Mar del Plata,Buenos Aires,BA,4444,AR
808,1804,Villa Carlos Paz,Córdoba,CBA,8799,AR
809,1805,Villa Carlos Paz,Córdoba,CBA,5719,AR
810,1806,Mar del Plata,Buenos Aires,BA,5313,AR
811,1807,Rafaela,Santa Fe,SF,4083,AR
812,1808,Rosario,Santa Fe,SF,7754,AR
813,1809,Córdoba,Córdoba,CBA,9692,AR
814,1810,Río Cuarto,Córdoba,CBA,2009,AR
815,1811,Mar del Plata,Buenos Aires,BA,8306,AR
816,1812,San Rafael,Mendoza,MZA,2079,AR
817,1813,Villa Carlos Paz,Córdoba,CBA,7069,AR
818,1814,La Plata,Buenos Aires,BA,4737,AR
819,1815,La Plata,Buenos Aires,BA,7606,AR
820,1816,Santa Fe,Santa Fe,SF,7874,AR
821,1817,Santa Fe,Santa Fe,SF,6991,AR
822,1818,Mar del Plata,Buenos Aires,BA,4555,AR
823,1819,La Plata,Buenos Aires,BA,1355,AR
824,1820,La Plata,Buenos Aires,BA,8971,AR
825,1821,CABA,Buenos Aires,BA,2736,AR
826,1822,San Rafael,Mendoza,MZA,4852,AR
827,1823,Mendoza,Mendoza,MZA,3598,AR
828,1824,Río Cuarto,Córdoba,CBA,9677,AR
829,1825,La Plata,Buenos Aires,BA,2034,AR
830,1826,La Plata,Buenos Aires,BA,6120,AR
831,1827,Rafaela,Santa Fe,SF,3082,AR
832,1828,Rafaela,Santa Fe,SF,5081,AR
833,1829,Córdoba,Córdoba,CBA,3430,AR
834,1830,La Plata,Buenos Aires,BA,2096,AR
835,1831,CABA,Buenos Aires,BA,1967,AR
836,1832,Mar del Plata,Buenos Aires,BA,3394,AR
837,1833,Godoy Cruz,Mendoza,MZA,4083,AR
838,1834,CABA,Buenos Aires,BA,5066,AR
839,1835,CABA,Buenos Aires,BA,5851,AR
840,1836,Mar del Plata,Buenos Aires,BA,3418,AR
841,1837,Río Cuarto,Córdoba,CBA,2765,AR
842,1838,CABA,Buenos Aires,BA,3105,AR
843,1839,Mendoza,Mendoza,MZA,7042,AR
844,1840,Mar del Plata,Buenos Aires,BA,6306,AR
845,1841,Mar del Plata,Buenos Aires,BA,1645,AR
846,1842,Mar del Plata,Buenos Aires,BA,3292,AR
847,1843,CABA,Buenos Aires,BA,6540,AR
848,1844,CABA,Buenos Aires,BA,9596,AR
849,1845,Villa Carlos Paz,Córdoba,CBA,8348,AR
850,1846,La Plata,Buenos Aires,BA,1859,AR
851,1847,CABA,Buenos Aires,BA,9201,AR
852,1848,Mar del Plata,Buenos Aires,BA,9064,AR
853,1849,Río Cuarto,Córdoba,CBA,4278,AR
854,1850,Mar del Plata,Buenos Aires,BA,7031,AR
855,1851,Rosario,Santa Fe,SF,5610,AR
856,1852,Río Cuarto,Córdoba,CBA,6480,AR
857,1853,La Plata,Buenos Aires,BA,8399,AR
858,1854,Mar del Plata,Buenos Aires,BA,2846,AR
859,1855,CABA,Buenos Aires,BA,4511,AR
860,1856,CABA,Buenos Aires,BA,9373,AR
861,1857,CABA,Buenos Aires,BA,7366,AR
862,1858,La Plata,Buenos Aires,BA,5675,AR
863,1859,CABA,Buenos Aires,BA,1183,AR
864,1860,Godoy Cruz,Mendoza,MZA,2593,AR
865,1861,Mar del Plata,Buenos Aires,BA,2246,AR
866,1862,CABA,Buenos Aires,BA,3323,AR
867,1863,CABA,Buenos Aires,BA,8807,AR
868,1864,CABA,Buenos Aires,BA,5424,AR
869,1865,Villa Carlos Paz,Córdoba,CBA,4530,AR
870,1866,La Plata,Buenos Aires,BA,8630,AR
871,1867,CABA,Buenos Aires,BA,5601,AR
872,1868,Córdoba,Córdoba,CBA,4081,AR
873,1869,Córdoba,Córdoba,CBA,4793,AR
874,1870,CABA,Buenos Aires,BA,9922,AR
875,1871,La Plata,Buenos Aires,BA,6681,AR
876,1872,La Plata,Buenos Aires,BA,3418,AR
877,1873,Villa Carlos Paz,Córdoba,CBA,3255,AR
878,1874,San Rafael,Mendoza,MZA,1700,AR
879,1875,Mar del Plata,Buenos Aires,BA,3285,AR
880,1876,Santa Fe,Santa Fe,SF,9512,AR
881,1877,Villa Carlos Paz,Córdoba,CBA,6486,AR
882,1878,Mar del Plata,Buenos Aires,BA,4589,AR
883,1879,Río Cuarto,Córdoba,CBA,3551,AR
884,1880,Río Cuarto,Córdoba,CBA,6022,AR
885,1881,Santa Fe,Santa Fe,SF,4129,AR
886,1882,La Plata,Buenos Aires,BA,2098,AR
887,1883,CABA,Buenos Aires,BA,1173,AR
888,1884,La Plata,Buenos Aires,BA,1686,AR
889,1885,Godoy Cruz,Mendoza,MZA,8759,AR
890,1886,Rosario,Santa Fe,SF,9033,AR
891,1887,La Plata,Buenos Aires,BA,2359,AR
892,1888,Río Cuarto,Córdoba,CBA,4954,AR
893,1889,La Plata,Buenos Aires,BA,7727,AR
894,1890,CABA,Buenos Aires,BA,2132,AR
895,1891,La Plata,Buenos Aires,BA,5148,AR
896,1892,Villa Carlos Paz,Córdoba,CBA,1652,AR
897,1893,Villa Carlos Paz,Córdoba,CBA,4262,AR
898,1894,CABA,Buenos Aires,BA,7172,AR
899,1895,CABA,Buenos Aires,BA,4747,AR
900,1896,Rosario,Santa Fe,SF,1387,AR
901,1897,Mar del Plata,Buenos Aires,BA,9904,AR
902,1898,CABA,Buenos Aires,BA,2096,AR
903,1899,Mar del Plata,Buenos Aires,BA,3253,AR
904,1900,CABA,Buenos Aires,BA,8308,AR
905,1901,La Plata,Buenos Aires,BA,7770,AR
906,1902,Córdoba,Córdoba,CBA,7401,AR
907,1903,Mar del Plata,Buenos Aires,BA,9692,AR
908,1904,CABA,Buenos Aires,BA,4091,AR
909,1905,CABA,Buenos Aires,BA,3393,AR
910,1906,Rosario,Santa Fe,SF,3698,AR
911,1907,Villa Carlos Paz,Córdoba,CBA,1977,AR
912,1908,La Plata,Buenos Aires,BA,7402,AR
913,1909,Córdoba,Córdoba,CBA,3576,AR
914,1910,Villa Carlos Paz,Córdoba,CBA,7837,AR
915,1911,Río Cuarto,Córdoba,CBA,5544,AR
916,1912,Mar del Plata,Buenos Aires,BA,6048,AR
917,1913,La Plata,Buenos Aires,BA,8689,AR
918,1914,La Plata,Buenos Aires,BA,5122,AR
919,1915,Godoy Cruz,Mendoza,MZA,6311,AR
920,1916,Villa Carlos Paz,Córdoba,CBA,5563,AR
921,1917,Río Cuarto,Córdoba,CBA,4112,AR
922,1918,Río Cuarto,Córdoba,CBA,2920,AR
923,1919,Córdoba,Córdoba,CBA,9142,AR
924,1920,La Plata,Buenos Aires,BA,3397,AR
925,1921,Villa Carlos Paz,Córdoba,CBA,1053,AR
926,1922,La Plata,Buenos Aires,BA,9374,AR
927,1923,CABA,Buenos Aires,BA,8804,AR
928,1924,CABA,Buenos Aires,BA,1892,AR
929,1925,Santa Fe,Santa Fe,SF,3087,AR
930,1926,San Rafael,Mendoza,MZA,1161,AR
931,1927,Mar del Plata,Buenos Aires,BA,4776,AR
932,1928,Río Cuarto,Córdoba,CBA,3485,AR
933,1929,Villa Carlos Paz,Córdoba,CBA,9875,AR
934,1930,Mendoza,Mendoza,MZA,8966,AR
935,1931,La Plata,Buenos Aires,BA,3843,AR
936,1932,CABA,Buenos Aires,BA,7335,AR
937,1933,CABA,Buenos Aires,BA,8250,AR
938,1934,Villa Carlos Paz,Córdoba,CBA,4360,AR
939,1935,Mar del Plata,Buenos Aires,BA,9315,AR
940,1936,Rafaela,Santa Fe,SF,7187,AR
941,1937,Rosario,Santa Fe,SF,5491,AR
942,1938,Córdoba,Córdoba,CBA,4998,AR
943,1939,CABA,Buenos Aires,BA,7241,AR
944,1940,Mar del Plata,Buenos Aires,BA,5176,AR
945,1941,La Plata,Buenos Aires,BA,4590,AR
946,1942,Córdoba,Córdoba,CBA,4745,AR
947,1943,Córdoba,Córdoba,CBA,5102,AR
948,1944,La Plata,Buenos Aires,BA,8141,AR
949,1945,Rosario,Santa Fe,SF,9528,AR
950,1946,CABA,Buenos Aires,BA,5722,AR
951,1947,La Plata,Buenos Aires,BA,2262,AR
952,1948,Santa Fe,Santa Fe,SF,7044,AR
953,1949,CABA,Buenos Aires,BA,5461,AR
954,1950,Rafaela,Santa Fe,SF,3736,AR
955,1951,CABA,Buenos Aires,BA,8576,AR
956,1952,Mar del Plata,Buenos Aires,BA,1692,AR
957,1953,Mendoza,Mendoza,MZA,7471,AR
958,1954,La Plata,Buenos Aires,BA,7638,AR
959,1955,La Plata,Buenos Aires,BA,1596,AR
960,1956,La Plata,Buenos Aires,BA,7268,AR
961,1957,CABA,Buenos Aires,BA,4531,AR
962,1958,Rosario,Santa Fe,SF,5947,AR
963,1959,CABA,Buenos Aires,BA,7541,AR
964,1960,Villa Carlos Paz,Córdoba,CBA,1841,AR
965,1961,San Rafael,Mendoza,MZA,6743,AR
966,1962,San Rafael,Mendoza,MZA,6812,AR
967,1963,Córdoba,Córdoba,CBA,4169,AR
968,1964,Mendoza,Mendoza,MZA,1981,AR
969,1965,Mar del Plata,Buenos Aires,BA,7609,AR
970,1966,Santa Fe,Santa Fe,SF,7028,AR
971,1967,Rafaela,Santa Fe,SF,9420,AR
972,1968,Río Cuarto,Córdoba,CBA,7191,AR
973,1969,Villa Carlos Paz,Córdoba,CBA,2526,AR
974,1970,CABA,Buenos Aires,BA,3178,AR
975,1971,CABA,Buenos Aires,BA,4450,AR
976,1972,Mendoza,Mendoza,MZA,2082,AR
977,1973,CABA,Buenos Aires,BA,6615,AR
978,1974,Santa Fe,Santa Fe,SF,6349,AR
979,1975,Mar del Plata,Buenos Aires,BA,5018,AR
980,1976,Santa Fe,Santa Fe,SF,9173,AR
981,1977,Mar del Plata,Buenos Aires,BA,4663,AR
982,1978,Rosario,Santa Fe,SF,7760,AR
983,1979,La Plata,Buenos Aires,BA,8883,AR
984,1980,Rosario,Santa Fe,SF,7786,AR
985,1981,Godoy Cruz,Mendoza,MZA,8971,AR
986,1982,Godoy Cruz,Mendoza,MZA,4852,AR
987,1983,CABA,Buenos Aires,BA,7174,AR
988,1984,CABA,Buenos Aires,BA,9071,AR
989,1985,San Rafael,Mendoza,MZA,3909,AR
990,1986,La Plata,Buenos Aires,BA,1662,AR
991,1987,Santa Fe,Santa Fe,SF,1647,AR
992,1988,Rosario,Santa Fe,SF,5379,AR
993,1989,Río Cuarto,Córdoba,CBA,2064,AR
994,1990,Villa Carlos Paz,Córdoba,CBA,9133,AR
995,1991,Córdoba,Córdoba,CBA,8744,AR
996,1992,Mar del Plata,Buenos Aires,BA,7848,AR
997,1993,Santa Fe,Santa Fe,SF,3436,AR
998,1994,CABA,Buenos Aires,BA,8355,AR
999,1995,CABA,Buenos Aires,BA,4919,AR
1000,1996,CABA,Buenos Aires,BA,4436,AR
1001,1997,Villa Carlos Paz,Córdoba,CBA,2082,AR
1002,1998,La Plata,Buenos Aires,BA,7512,AR
1003,1999,La Plata,Buenos Aires,BA,1121,AR
1004,2000,Godoy Cruz,Mendoza,MZA,1688,AR
1005,2001,Mar del Plata,Buenos Aires,BA,7846,AR
1006,2002,Rafaela,Santa Fe,SF,6524,AR
1007,2003,Mar del Plata,Buenos Aires,BA,9273,AR
1008,2004,Mar del Plata,Buenos Aires,BA,8126,AR
1009,2005,Mar del Plata,Buenos Aires,BA,1729,AR
1010,2006,La Plata,Buenos Aires,BA,7836,AR
1011,2007,San Rafael,Mendoza,MZA,8360,AR
1012,2008,Mar del Plata,Buenos Aires,BA,7468,AR
1013,2009,CABA,Buenos Aires,BA,7504,AR
1014,2010,CABA,Buenos Aires,BA,1267,AR
1015,2011,Rafaela,Santa Fe,SF,9136,AR
1016,2012,Mar del Plata,Buenos Aires,BA,6383,AR
1017,2013,CABA,Buenos Aires,BA,6386,AR
1018,2014,Mendoza,Mendoza,MZA,3769,AR
1019,2015,Villa Carlos Paz,Córdoba,CBA,6921,AR
1020,2016,Santa Fe,Santa Fe,SF,2248,AR
1021,2017,Rosario,Santa Fe,SF,2857,AR
1022,2018,Mar del Plata,Buenos Aires,BA,8884,AR
1023,2019,Santa Fe,Santa Fe,SF,4101,AR
1024,2020,San Rafael,Mendoza,MZA,3658,AR
1025,2021,Mar del Plata,Buenos Aires,BA,1488,AR
1026,2022,Santa Fe,Santa Fe,SF,3744,AR
1027,2023,Villa Carlos Paz,Córdoba,CBA,4715,AR
1028,2024,Villa Carlos Paz,Córdoba,CBA,4262,AR
1029,2025,CABA,Buenos Aires,BA,7103,AR
1030,2026,CABA,Buenos Aires,BA,2572,AR
1031,2027,Córdoba,Córdoba,CBA,6582,AR
1032,2028,Córdoba,Córdoba,CBA,5807,AR
1033,2029,Rosario,Santa Fe,SF,7219,AR
1034,2030,La Plata,Buenos Aires,BA,9163,AR
1035,2031,Villa Carlos Paz,Córdoba,CBA,4027,AR
1036,2032,Rafaela,Santa Fe,SF,2857,AR
1037,2033,Godoy Cruz,Mendoza,MZA,2291,AR
1038,2034,La Plata,Buenos Aires,BA,5874,AR
1039,2035,Rosario,Santa Fe,SF,5408,AR
1040,2036,CABA,Buenos Aires,BA,1696,AR
1041,2037,Santa Fe,Santa Fe,SF,5056,AR
1042,2038,CABA,Buenos Aires,BA,8705,AR
1043,2039,Córdoba,Córdoba,CBA,7683,AR
1044,2040,Villa Carlos Paz,Córdoba,CBA,9971,AR
1045,2041,CABA,Buenos Aires,BA,6640,AR
1046,2042,Mar del Plata,Buenos Aires,BA,5080,AR
1047,2043,Villa Carlos Paz,Córdoba,CBA,7644,AR
1048,2044,Río Cuarto,Córdoba,CBA,5076,AR
1049,2045,Córdoba,Córdoba,CBA,7467,AR
1050,2046,Godoy Cruz,Mendoza,MZA,2814,AR
1051,2047,La Plata,Buenos Aires,BA,3019,AR
1052,2048,La Plata,Buenos Aires,BA,8264,AR
1053,2049,Rosario,Santa Fe,SF,4977,AR
1054,2050,La Plata,Buenos Aires,BA,8099,AR
1055,2051,CABA,Buenos Aires,BA,7773,AR
1056,2052,Rosario,Santa Fe,SF,1225,AR
1057,2053,Rafaela,Santa Fe,SF,5967,AR
1058,2054,Mar del Plata,Buenos Aires,BA,3628,AR
1059,2055,CABA,Buenos Aires,BA,7300,AR
1060,2056,San Rafael,Mendoza,MZA,5385,AR
1061,2057,Mar del Plata,Buenos Aires,BA,7614,AR
1062,2058,CABA,Buenos Aires,BA,9682,AR
1063,2059,Río Cuarto,Córdoba,CBA,7876,AR
1064,2060,CABA,Buenos Aires,BA,7960,AR
1065,2061,Villa Carlos Paz,Córdoba,CBA,6847,AR
1066,2062,Mar del Plata,Buenos Aires,BA,6507,AR
1067,2063,CABA,Buenos Aires,BA,8058,AR
1068,2064,CABA,Buenos Aires,BA,7729,AR
1069,2065,La Plata,Buenos Aires,BA,9987,AR
1070,2066,Córdoba,Córdoba,CBA,1599,AR
1071,2067,Mar del Plata,Buenos Aires,BA,4425,AR
1072,2068,CABA,Buenos Aires,BA,1723,AR
1073,2069,Río Cuarto,Córdoba,CBA,9020,AR
1074,2070,Santa Fe,Santa Fe,SF,5549,AR
1075,2071,La Plata,Buenos Aires,BA,1440,AR
1076,2072,San Rafael,Mendoza,MZA,3819,AR
1077,2073,CABA,Buenos Aires,BA,3172,AR
1078,2074,Mar del Plata,Buenos Aires,BA,1515,AR
1079,2075,Río Cuarto,Córdoba,CBA,8074,AR
1080,2076,Córdoba,Córdoba,CBA,7136,AR
1081,2077,Mar del Plata,Buenos Aires,BA,4469,AR
1082,2078,CABA,Buenos Aires,BA,5360,AR
1083,2079,Río Cuarto,Córdoba,CBA,8422,AR
1084,2080,Rafaela,Santa Fe,SF,8357,AR
1085,2081,La Plata,Buenos Aires,BA,1328,AR
1086,2082,La Plata,Buenos Aires,BA,3077,AR
1087,2083,Mar del Plata,Buenos Aires,BA,7465,AR
1088,2084,CABA,Buenos Aires,BA,1831,AR
1089,2085,Rafaela,Santa Fe,SF,6556,AR
1090,2086,La Plata,Buenos Aires,BA,3921,AR
1091,2087,CABA,Buenos Aires,BA,9486,AR
1092,2088,Córdoba,Córdoba,CBA,6273,AR
1093,2089,La Plata,Buenos Aires,BA,1447,AR
1094,2090,Rafaela,Santa Fe,SF,2328,AR
1095,2091,Villa Carlos Paz,Córdoba,CBA,1937,AR
1096,2092,Villa Carlos Paz,Córdoba,CBA,9257,AR
1097,2093,Santa Fe,Santa Fe,SF,9847,AR
1098,2094,Mar del Plata,Buenos Aires,BA,9215,AR
1099,2095,La Plata,Buenos Aires,BA,1430,AR
1100,2096,Córdoba,Córdoba,CBA,6594,AR
1101,2097,Mar del Plata,Buenos Aires,BA,7188,AR
1102,2098,La Plata,Buenos Aires,BA,6269,AR
1103,2099,Villa Carlos Paz,Córdoba,CBA,1686,AR
1104,2100,Río Cuarto,Córdoba,CBA,4938,AR
1105,2101,Río Cuarto,Córdoba,CBA,1278,AR
1106,2102,CABA,Buenos Aires,BA,7417,AR
1107,2103,Rosario,Santa Fe,SF,5286,AR
1108,2104,San Rafael,Mendoza,MZA,5079,AR
1109,2105,Mar del Plata,Buenos Aires,BA,7548,AR
1110,2106,Mar del Plata,Buenos Aires,BA,5835,AR
1111,2107,Mar del Plata,Buenos Aires,BA,1339,AR
1112,2108,Rafaela,Santa Fe,SF,4504,AR
1113,2109,La Plata,Buenos Aires,BA,5777,AR
1114,2110,La Plata,Buenos Aires,BA,4753,AR
1115,2111,Mar del Plata,Buenos Aires,BA,2386,AR
1116,2112,La Plata,Buenos Aires,BA,4700,AR
1117,2113,Mar del Plata,Buenos Aires,BA,6432,AR
1118,2114,Mar del Plata,Buenos Aires,BA,1615,AR
1119,2115,Córdoba,Córdoba,CBA,4423,AR
1120,2116,Mar del Plata,Buenos Aires,BA,7467,AR
1121,2117,Rosario,Santa Fe,SF,9621,AR
1122,2118,Córdoba,Córdoba,CBA,4950,AR
1123,2119,Córdoba,Córdoba,CBA,6292,AR
1124,2120,La Plata,Buenos Aires,BA,9272,AR
1125,2121,Santa Fe,Santa Fe,SF,9592,AR
1126,2122,CABA,Buenos Aires,BA,6481,AR
1127,2123,CABA,Buenos Aires,BA,7181,AR
1128,2124,Mar del Plata,Buenos Aires,BA,2961,AR
1129,2125,San Rafael,Mendoza,MZA,3194,AR
1130,2126,Mar del Plata,Buenos Aires,BA,2783,AR
1131,2127,CABA,Buenos Aires,BA,1432,AR
1132,2128,Santa Fe,Santa Fe,SF,4532,AR
1133,2129,CABA,Buenos Aires,BA,7852,AR
1134,2130,CABA,Buenos Aires,BA,1702,AR
1135,2131,Villa Carlos Paz,Córdoba,CBA,8133,AR
1136,2132,CABA,Buenos Aires,BA,1294,AR
1137,2133,Mendoza,Mendoza,MZA,7518,AR
1138,2134,Rosario,Santa Fe,SF,2190,AR
1139,2135,Mendoza,Mendoza,MZA,6579,AR
1140,2136,La Plata,Buenos Aires,BA,2782,AR
1141,2137,Villa Carlos Paz,Córdoba,CBA,4454,AR
1142,2138,Santa Fe,Santa Fe,SF,1081,AR
1143,2139,Mendoza,Mendoza,MZA,9660,AR
1144,2140,CABA,Buenos Aires,BA,1874,AR
1145,2141,Villa Carlos Paz,Córdoba,CBA,2062,AR
1146,2142,CABA,Buenos Aires,BA,3713,AR
1147,2143,Rafaela,Santa Fe,SF,7158,AR
1148,2144,Rafaela,Santa Fe,SF,2468,AR
1149,2145,Mar del Plata,Buenos Aires,BA,3407,AR
1150,2146,Villa Carlos Paz,Córdoba,CBA,3869,AR
1151,2147,CABA,Buenos Aires,BA,1897,AR
1152,2148,Córdoba,Córdoba,CBA,2928,AR
1153,2149,Rosario,Santa Fe,SF,6070,AR
1154,2150,San Rafael,Mendoza,MZA,6337,AR
1155,2151,Río Cuarto,Córdoba,CBA,5664,AR
1156,2152,Santa Fe,Santa Fe,SF,6592,AR
1157,2153,CABA,Buenos Aires,BA,8113,AR
1158,2154,Mar del Plata,Buenos Aires,BA,7667,AR
1159,2155,Mendoza,Mendoza,MZA,2609,AR
1160,2156,Rafaela,Santa Fe,SF,5127,AR
1161,2157,Santa Fe,Santa Fe,SF,9339,AR
1162,2158,Córdoba,Córdoba,CBA,1016,AR
1163,2159,Río Cuarto,Córdoba,CBA,2025,AR
1164,2160,La Plata,Buenos Aires,BA,4167,AR
1165,2161,Rosario,Santa Fe,SF,5575,AR
1166,2162,Mar del Plata,Buenos Aires,BA,8424,AR
1167,2163,Rafaela,Santa Fe,SF,7736,AR
1168,2164,La Plata,Buenos Aires,BA,1275,AR
1169,2165,Mar del Plata,Buenos Aires,BA,8356,AR
1170,2166,Villa Carlos Paz,Córdoba,CBA,1318,AR
1171,2167,Rafaela,Santa Fe,SF,7299,AR
1172,2168,San Rafael,Mendoza,MZA,7509,AR
1173,2169,Villa Carlos Paz,Córdoba,CBA,8436,AR
1174,2170,CABA,Buenos Aires,BA,4319,AR
1175,2171,Godoy Cruz,Mendoza,MZA,8606,AR
1176,2172,CABA,Buenos Aires,BA,1007,AR
1177,2173,La Plata,Buenos Aires,BA,3168,AR
1178,2174,Mar del Plata,Buenos Aires,BA,4575,AR
1179,2175,Mar del Plata,Buenos Aires,BA,1805,AR
1180,2176,Santa Fe,Santa Fe,SF,9360,AR
1181,2177,Mendoza,Mendoza,MZA,4874,AR
1182,2178,La Plata,Buenos Aires,BA,3322,AR
1183,2179,Villa Carlos Paz,Córdoba,CBA,1229,AR
1184,2180,Villa Carlos Paz,Córdoba,CBA,4168,AR
1185,2181,La Plata,Buenos Aires,BA,9049,AR
1186,2182,La Plata,Buenos Aires,BA,9442,AR
1187,2183,La Plata,Buenos Aires,BA,8366,AR
1188,2184,Mar del Plata,Buenos Aires,BA,7599,AR
1189,2185,Mar del Plata,Buenos Aires,BA,7636,AR
1190,2186,Rosario,Santa Fe,SF,9857,AR
1191,2187,CABA,Buenos Aires,BA,6372,AR
1192,2188,La Plata,Buenos Aires,BA,2718,AR
1193,2189,CABA,Buenos Aires,BA,2191,AR
1194,2190,La Plata,Buenos Aires,BA,4853,AR
1195,2191,Río Cuarto,Córdoba,CBA,3078,AR
1196,2192,Rosario,Santa Fe,SF,9884,AR
1197,2193,San Rafael,Mendoza,MZA,5884,AR
1198,2194,Rafaela,Santa Fe,SF,2376,AR
1199,2195,Mar del Plata,Buenos Aires,BA,8231,AR
1200,2196,CABA,Buenos Aires,BA,7397,AR
1201,2197,Mar del Plata,Buenos Aires,BA,5503,AR
1202,2198,Rafaela,Santa Fe,SF,9108,AR
1203,2199,Mar del Plata,Buenos Aires,BA,9287,AR
1204,2200,Córdoba,Córdoba,CBA,9092,AR
1205,2201,Rafaela,Santa Fe,SF,7530,AR
1206,2202,Córdoba,Córdoba,CBA,1489,AR
1207,2203,Santa Fe,Santa Fe,SF,8481,AR
1208,2204,CABA,Buenos Aires,BA,6613,AR
1209,2205,CABA,Buenos Aires,BA,4213,AR
1210,2206,Mar del Plata,Buenos Aires,BA,3180,AR
1211,2207,Villa Carlos Paz,Córdoba,CBA,6573,AR
1212,2208,CABA,Buenos Aires,BA,8918,AR
1213,2209,Godoy Cruz,Mendoza,MZA,7613,AR
1214,2210,Rosario,Santa Fe,SF,2674,AR
1215,2211,Rafaela,Santa Fe,SF,7049,AR
1216,2212,Mar del Plata,Buenos Aires,BA,6314,AR
1217,2213,Villa Carlos Paz,Córdoba,CBA,4181,AR
1218,2214,Córdoba,Córdoba,CBA,8884,AR
1219,2215,CABA,Buenos Aires,BA,5409,AR
1220,2216,La Plata,Buenos Aires,BA,6328,AR
1221,2217,La Plata,Buenos Aires,BA,3842,AR
1222,2218,Córdoba,Córdoba,CBA,4901,AR
1223,2219,La Plata,Buenos Aires,BA,3452,AR
1224,2220,CABA,Buenos Aires,BA,7273,AR
1225,2221,Mendoza,Mendoza,MZA,3156,AR
1226,2222,La Plata,Buenos Aires,BA,7589,AR
1227,2223,Santa Fe,Santa Fe,SF,6315,AR
1228,2224,La Plata,Buenos Aires,BA,3745,AR
1229,2225,La Plata,Buenos Aires,BA,9869,AR
1230,2226,Villa Carlos Paz,Córdoba,CBA,3912,AR
1231,2227,Mar del Plata,Buenos Aires,BA,6444,AR
1232,2228,CABA,Buenos Aires,BA,7103,AR
1233,2229,Córdoba,Córdoba,CBA,6340,AR
1234,2230,CABA,Buenos Aires,BA,9548,AR
1235,2231,Villa Carlos Paz,Córdoba,CBA,5651,AR
1236,2232,Mar del Plata,Buenos Aires,BA,9038,AR
1237,2233,Mar del Plata,Buenos Aires,BA,5795,AR
1238,2234,CABA,Buenos Aires,BA,7042,AR
1239,2235,CABA,Buenos Aires,BA,3190,AR
1240,2236,Rosario,Santa Fe,SF,5994,AR
1241,2237,Mar del Plata,Buenos Aires,BA,7805,AR
1242,2238,CABA,Buenos Aires,BA,9724,AR
1243,2239,Santa Fe,Santa Fe,SF,3899,AR
1244,2240,Santa Fe,Santa Fe,SF,5352,AR
1245,2241,CABA,Buenos Aires,BA,2478,AR
1246,2242,Rafaela,Santa Fe,SF,2675,AR
1247,2243,CABA,Buenos Aires,BA,3876,AR
1248,2244,CABA,Buenos Aires,BA,4049,AR
1249,2245,CABA,Buenos Aires,BA,7749,AR
1250,2246,San Rafael,Mendoza,MZA,5967,AR
1251,2247,Córdoba,Córdoba,CBA,5006,AR
1252,2248,Mar del Plata,Buenos Aires,BA,9013,AR
1253,2249,Villa Carlos Paz,Córdoba,CBA,5049,AR
1254,2250,Villa Carlos Paz,Córdoba,CBA,3956,AR
1255,2251,Río Cuarto,Córdoba,CBA,8211,AR
1256,2252,La Plata,Buenos Aires,BA,9634,AR
1257,2253,Córdoba,Córdoba,CBA,9502,AR
1258,2254,CABA,Buenos Aires,BA,1889,AR
1259,2255,CABA,Buenos Aires,BA,8628,AR
1260,2256,Mar del Plata,Buenos Aires,BA,7098,AR
1261,2257,CABA,Buenos Aires,BA,4309,AR
1262,2258,La Plata,Buenos Aires,BA,6254,AR
1263,2259,La Plata,Buenos Aires,BA,1374,AR
1264,2260,Córdoba,Córdoba,CBA,2515,AR
1265,2261,La Plata,Buenos Aires,BA,1080,AR
1266,2262,Mendoza,Mendoza,MZA,2522,AR
1267,2263,CABA,Buenos Aires,BA,4395,AR
1268,2264,Mar del Plata,Buenos Aires,BA,1876,AR
1269,2265,Río Cuarto,Córdoba,CBA,7597,AR
1270,2266,CABA,Buenos Aires,BA,8315,AR
1271,2267,Río Cuarto,Córdoba,CBA,4507,AR
1272,2268,CABA,Buenos Aires,BA,9784,AR
1273,2269,Villa Carlos Paz,Córdoba,CBA,5621,AR
1274,2270,La Plata,Buenos Aires,BA,9598,AR
1275,2271,Mendoza,Mendoza,MZA,3459,AR
1276,2272,CABA,Buenos Aires,BA,6733,AR
1277,2273,Rosario,Santa Fe,SF,3100,AR
1278,2274,Rosario,Santa Fe,SF,5513,AR
1279,2275,La Plata,Buenos Aires,BA,7346,AR
1280,2276,Rosario,Santa Fe,SF,3558,AR
1281,2277,La Plata,Buenos Aires,BA,3653,AR
1282,2278,La Plata,Buenos Aires,BA,8259,AR
1283,2279,Mar del Plata,Buenos Aires,BA,3072,AR
1284,2280,CABA,Buenos Aires,BA,1124,AR
1285,2281,Villa Carlos Paz,Córdoba,CBA,1276,AR
1286,2282,Godoy Cruz,Mendoza,MZA,7038,AR
1287,2283,Santa Fe,Santa Fe,SF,7094,AR
1288,2284,CABA,Buenos Aires,BA,3242,AR
1289,2285,CABA,Buenos Aires,BA,2941,AR
1290,2286,CABA,Buenos Aires,BA,2644,AR
1291,2287,CABA,Buenos Aires,BA,9919,AR
1292,2288,Mar del Plata,Buenos Aires,BA,1499,AR
1293,2289,San Rafael,Mendoza,MZA,9329,AR
1294,2290,CABA,Buenos Aires,BA,6441,AR
1295,2291,Godoy Cruz,Mendoza,MZA,5919,AR
1296,2292,Rosario,Santa Fe,SF,1285,AR
1297,2293,La Plata,Buenos Aires,BA,8320,AR
1298,2294,Río Cuarto,Córdoba,CBA,2974,AR
1299,2295,CABA,Buenos Aires,BA,8200,AR
1300,2296,Santa Fe,Santa Fe,SF,2049,AR
1301,2297,CABA,Buenos Aires,BA,5358,AR
1302,2298,CABA,Buenos Aires,BA,2111,AR
1303,2299,Mar del Plata,Buenos Aires,BA,5133,AR
1304,2300,Mar del Plata,Buenos Aires,BA,5416,AR
1305,2301,Mar del Plata,Buenos Aires,BA,5186,AR
1306,2302,Mar del Plata,Buenos Aires,BA,7471,AR
1307,2303,San Rafael,Mendoza,MZA,8589,AR
1308,2304,Villa Carlos Paz,Córdoba,CBA,2672,AR
1309,2305,Mendoza,Mendoza,MZA,1804,AR
1310,2306,La Plata,Buenos Aires,BA,8158,AR
1311,2307,Mar del Plata,Buenos Aires,BA,2866,AR
1312,2308,Rosario,Santa Fe,SF,1431,AR
1313,2309,Mar del Plata,Buenos Aires,BA,2458,AR
1314,2310,CABA,Buenos Aires,BA,2557,AR
1315,2311,Mendoza,Mendoza,MZA,3401,AR
1316,2312,La Plata,Buenos Aires,BA,9326,AR
1317,2313,Rosario,Santa Fe,SF,9767,AR
1318,2314,CABA,Buenos Aires,BA,8214,AR
1319,2315,CABA,Buenos Aires,BA,5251,AR
1320,2316,La Plata,Buenos Aires,BA,3946,AR
1321,2317,CABA,Buenos Aires,BA,2376,AR
1322,2318,La Plata,Buenos Aires,BA,9268,AR
1323,2319,La Plata,Buenos Aires,BA,5376,AR
1324,2320,Córdoba,Córdoba,CBA,2843,AR
1325,2321,La Plata,Buenos Aires,BA,8987,AR
1326,2322,Río Cuarto,Córdoba,CBA,7183,AR
1327,2323,La Plata,Buenos Aires,BA,3977,AR
1328,2324,Río Cuarto,Córdoba,CBA,7165,AR
1329,2325,Mar del Plata,Buenos Aires,BA,5352,AR
1330,2326,CABA,Buenos Aires,BA,6538,AR
1331,2327,CABA,Buenos Aires,BA,5509,AR
1332,2328,CABA,Buenos Aires,BA,9759,AR
1333,2329,Mar del Plata,Buenos Aires,BA,3252,AR
1334,2330,CABA,Buenos Aires,BA,7961,AR
1335,2331,Córdoba,Córdoba,CBA,2850,AR
1336,2332,Mar del Plata,Buenos Aires,BA,2768,AR
1337,2333,Mar del Plata,Buenos Aires,BA,5073,AR
1338,2334,Godoy Cruz,Mendoza,MZA,6446,AR
1339,2335,Godoy Cruz,Mendoza,MZA,5295,AR
1340,2336,Villa Carlos Paz,Córdoba,CBA,5737,AR
1341,2337,Mar del Plata,Buenos Aires,BA,8933,AR
1342,2338,Rosario,Santa Fe,SF,9957,AR
1343,2339,San Rafael,Mendoza,MZA,2587,AR
1344,2340,La Plata,Buenos Aires,BA,6348,AR
1345,2341,San Rafael,Mendoza,MZA,9821,AR
1346,2342,Río Cuarto,Córdoba,CBA,6105,AR
1347,2343,La Plata,Buenos Aires,BA,6137,AR
1348,2344,Mar del Plata,Buenos Aires,BA,1959,AR
1349,2345,Mendoza,Mendoza,MZA,2857,AR
1350,2346,La Plata,Buenos Aires,BA,4393,AR
1351,2347,La Plata,Buenos Aires,BA,6368,AR
1352,2348,Villa Carlos Paz,Córdoba,CBA,5933,AR
1353,2349,Mar del Plata,Buenos Aires,BA,7165,AR
1354,2350,Villa Carlos Paz,Córdoba,CBA,9151,AR
1355,2351,La Plata,Buenos Aires,BA,6156,AR
1356,2352,Santa Fe,Santa Fe,SF,8382,AR
1357,2353,Rosario,Santa Fe,SF,7965,AR
1358,2354,La Plata,Buenos Aires,BA,4019,AR
1359,2355,La Plata,Buenos Aires,BA,6685,AR
1360,2356,Mendoza,Mendoza,MZA,3865,AR
1361,2357,La Plata,Buenos Aires,BA,6089,AR
1362,2358,La Plata,Buenos Aires,BA,2295,AR
1363,2359,CABA,Buenos Aires,BA,9739,AR
1364,2360,Córdoba,Córdoba,CBA,8775,AR
1365,2361,Godoy Cruz,Mendoza,MZA,2296,AR
1366,2362,Villa Carlos Paz,Córdoba,CBA,3210,AR
1367,2363,Rosario,Santa Fe,SF,3697,AR
1368,2364,La Plata,Buenos Aires,BA,4735,AR
1369,2365,Mar del Plata,Buenos Aires,BA,6740,AR
1370,2366,La Plata,Buenos Aires,BA,3021,AR
1371,2367,Córdoba,Córdoba,CBA,5396,AR
1372,2368,La Plata,Buenos Aires,BA,5672,AR
1373,2369,CABA,Buenos Aires,BA,4171,AR
1374,2370,Godoy Cruz,Mendoza,MZA,2390,AR
1375,2371,La Plata,Buenos Aires,BA,3725,AR
1376,2372,CABA,Buenos Aires,BA,2192,AR
1377,2373,CABA,Buenos Aires,BA,5045,AR
1378,2374,Mar del Plata,Buenos Aires,BA,6324,AR
1379,2375,CABA,Buenos Aires,BA,4760,AR
1380,2376,Mar del Plata,Buenos Aires,BA,8217,AR
1381,2377,Mar del Plata,Buenos Aires,BA,5568,AR
1382,2378,Mar del Plata,Buenos Aires,BA,1876,AR
1383,2379,Mar del Plata,Buenos Aires,BA,4562,AR
1384,2380,Río Cuarto,Córdoba,CBA,4947,AR
1385,2381,La Plata,Buenos Aires,BA,9828,AR
1386,2382,Rafaela,Santa Fe,SF,1998,AR
1387,2383,Godoy Cruz,Mendoza,MZA,8853,AR
1388,2384,La Plata,Buenos Aires,BA,1596,AR
1389,2385,Rafaela,Santa Fe,SF,3867,AR
1390,2386,CABA,Buenos Aires,BA,3666,AR
1391,2387,Mar del Plata,Buenos Aires,BA,1492,AR
1392,2388,Mendoza,Mendoza,MZA,4474,AR
1393,2389,CABA,Buenos Aires,BA,3879,AR
1394,2390,Mar del Plata,Buenos Aires,BA,7216,AR
1395,2391,CABA,Buenos Aires,BA,7328,AR
1396,2392,CABA,Buenos Aires,BA,2522,AR
1397,2393,Mar del Plata,Buenos Aires,BA,4997,AR
1398,2394,Córdoba,Córdoba,CBA,4194,AR
1399,2395,Mar del Plata,Buenos Aires,BA,1059,AR
1400,2396,Córdoba,Córdoba,CBA,7063,AR
1401,2397,San Rafael,Mendoza,MZA,6429,AR
1402,2398,Mendoza,Mendoza,MZA,7915,AR
1403,2399,CABA,Buenos Aires,BA,2479,AR
1404,2400,Mendoza,Mendoza,MZA,7534,AR
1405,2401,Santa Fe,Santa Fe,SF,7017,AR
1406,2402,Santa Fe,Santa Fe,SF,3307,AR
1407,2403,Mar del Plata,Buenos Aires,BA,7363,AR
1408,2404,Rafaela,Santa Fe,SF,8741,AR
1409,2405,San Rafael,Mendoza,MZA,1501,AR
1410,2406,Santa Fe,Santa Fe,SF,8446,AR
1411,2407,Mar del Plata,Buenos Aires,BA,3174,AR
1412,2408,Santa Fe,Santa Fe,SF,7228,AR
1413,2409,CABA,Buenos Aires,BA,3280,AR
1414,2410,Santa Fe,Santa Fe,SF,8545,AR
1415,2411,Mar del Plata,Buenos Aires,BA,8999,AR
1416,2412,CABA,Buenos Aires,BA,5592,AR
1417,2413,Río Cuarto,Córdoba,CBA,3900,AR
1418,2414,La Plata,Buenos Aires,BA,8360,AR
1419,2415,Santa Fe,Santa Fe,SF,6678,AR
1420,2416,CABA,Buenos Aires,BA,1047,AR
1421,2417,La Plata,Buenos Aires,BA,1815,AR
1422,2418,Córdoba,Córdoba,CBA,8526,AR
1423,2419,CABA,Buenos Aires,BA,6375,AR
1424,2420,CABA,Buenos Aires,BA,3636,AR
1425,2421,Córdoba,Córdoba,CBA,7381,AR
1426,2422,Godoy Cruz,Mendoza,MZA,6757,AR
1427,2423,Córdoba,Córdoba,CBA,1016,AR
1428,2424,Rosario,Santa Fe,SF,2324,AR
1429,2425,Córdoba,Córdoba,CBA,4270,AR
1430,2426,CABA,Buenos Aires,BA,1075,AR
1431,2427,Mar del Plata,Buenos Aires,BA,6361,AR
1432,2428,Mar del Plata,Buenos Aires,BA,7769,AR
1433,2429,Villa Carlos Paz,Córdoba,CBA,5571,AR
1434,2430,Santa Fe,Santa Fe,SF,8768,AR
1435,2431,Rafaela,Santa Fe,SF,1581,AR
1436,2432,CABA,Buenos Aires,BA,4633,AR
1437,2433,La Plata,Buenos Aires,BA,5194,AR
1438,2434,Rosario,Santa Fe,SF,7645,AR
1439,2435,Godoy Cruz,Mendoza,MZA,4174,AR
1440,2436,Mar del Plata,Buenos Aires,BA,9964,AR
1441,2437,Godoy Cruz,Mendoza,MZA,7650,AR
1442,2438,La Plata,Buenos Aires,BA,5533,AR
1443,2439,La Plata,Buenos Aires,BA,7505,AR
1444,2440,CABA,Buenos Aires,BA,6317,AR
1445,2441,Mar del Plata,Buenos Aires,BA,4826,AR
1446,2442,Mendoza,Mendoza,MZA,1312,AR
1447,2443,La Plata,Buenos Aires,BA,3902,AR
1448,2444,Villa Carlos Paz,Córdoba,CBA,2362,AR
1449,2445,Mendoza,Mendoza,MZA,6854,AR
1450,2446,La Plata,Buenos Aires,BA,6525,AR
1451,2447,Rosario,Santa Fe,SF,8211,AR
1452,2448,La Plata,Buenos Aires,BA,4133,AR
1453,2449,Mar del Plata,Buenos Aires,BA,1459,AR
1454,2450,Córdoba,Córdoba,CBA,4542,AR
1455,2451,Rosario,Santa Fe,SF,1049,AR
1456,2452,CABA,Buenos Aires,BA,2055,AR
1457,2453,Mar del Plata,Buenos Aires,BA,3855,AR
1458,2454,CABA,Buenos Aires,BA,3400,AR
1459,2455,CABA,Buenos Aires,BA,1213,AR
1460,2456,La Plata,Buenos Aires,BA,8196,AR
1461,2457,Mar del Plata,Buenos Aires,BA,3053,AR
1462,2458,Río Cuarto,Córdoba,CBA,4686,AR
1463,2459,La Plata,Buenos Aires,BA,6375,AR
1464,2460,Mar del Plata,Buenos Aires,BA,4481,AR
1465,2461,CABA,Buenos Aires,BA,8526,AR
1466,2462,Mar del Plata,Buenos Aires,BA,4585,AR
1467,2463,CABA,Buenos Aires,BA,1652,AR
1468,2464,Rosario,Santa Fe,SF,9362,AR
1469,2465,CABA,Buenos Aires,BA,8275,AR
1470,2466,Rafaela,Santa Fe,SF,8479,AR
1471,2467,Rafaela,Santa Fe,SF,4048,AR
1472,2468,Mar del Plata,Buenos Aires,BA,7475,AR
1473,2469,CABA,Buenos Aires,BA,3317,AR
1474,2470,Mar del Plata,Buenos Aires,BA,8591,AR
1475,2471,Córdoba,Córdoba,CBA,6640,AR
1476,2472,Mar del Plata,Buenos Aires,BA,3756,AR
1477,2473,Río Cuarto,Córdoba,CBA,9556,AR
1478,2474,Río Cuarto,Córdoba,CBA,2743,AR
1479,2475,CABA,Buenos Aires,BA,6127,AR
1480,2476,Villa Carlos Paz,Córdoba,CBA,7254,AR
1481,2477,Mar del Plata,Buenos Aires,BA,9765,AR
1482,2478,La Plata,Buenos Aires,BA,3824,AR
1483,2479,La Plata,Buenos Aires,BA,3754,AR
1484,2480,CABA,Buenos Aires,BA,9792,AR
1485,2481,Córdoba,Córdoba,CBA,5128,AR
1486,2482,La Plata,Buenos Aires,BA,9599,AR
1487,2483,La Plata,Buenos Aires,BA,1167,AR
1488,2484,Río Cuarto,Córdoba,CBA,1830,AR
1489,2485,San Rafael,Mendoza,MZA,8191,AR
1490,2486,CABA,Buenos Aires,BA,1678,AR
1491,2487,La Plata,Buenos Aires,BA,7485,AR
1492,2488,CABA,Buenos Aires,BA,8208,AR
1493,2489,La Plata,Buenos Aires,BA,3163,AR
1494,2490,Río Cuarto,Córdoba,CBA,2212,AR
1495,2491,Mar del Plata,Buenos Aires,BA,2955,AR
1496,2492,Mar del Plata,Buenos Aires,BA,7420,AR
1497,2493,CABA,Buenos Aires,BA,1229,AR
1498,2494,La Plata,Buenos Aires,BA,8544,AR
1499,2495,Mar del Plata,Buenos Aires,BA,6931,AR
1500,2496,Mar del Plata,Buenos Aires,BA,8224,AR
1501,2497,CABA,Buenos Aires,BA,7829,AR
1502,2498,Mar del Plata,Buenos Aires,BA,4109,AR
1503,2499,Santa Fe,Santa Fe,SF,5841,AR
1504,2500,La Plata,Buenos Aires,BA,5367,AR
1505,2501,Mar del Plata,Buenos Aires,BA,2607,AR
1506,2502,CABA,Buenos Aires,BA,5319,AR
1507,2503,La Plata,Buenos Aires,BA,8551,AR
1508,2504,Rafaela,Santa Fe,SF,4684,AR
1509,2505,CABA,Buenos Aires,BA,2289,AR
1510,2506,Rafaela,Santa Fe,SF,5375,AR
1511,2507,Rafaela,Santa Fe,SF,9181,AR
1512,2508,Santa Fe,Santa Fe,SF,6496,AR
1513,2509,CABA,Buenos Aires,BA,5437,AR
1514,2510,Mar del Plata,Buenos Aires,BA,8059,AR
1515,2511,Mendoza,Mendoza,MZA,7061,AR
1516,2512,CABA,Buenos Aires,BA,9323,AR
1517,2513,Rosario,Santa Fe,SF,7081,AR
1518,2514,La Plata,Buenos Aires,BA,8425,AR
1519,2515,La Plata,Buenos Aires,BA,7304,AR
1520,2516,Godoy Cruz,Mendoza,MZA,5060,AR
1521,2517,Mendoza,Mendoza,MZA,1914,AR
1522,2518,Córdoba,Córdoba,CBA,1491,AR
1523,2519,Río Cuarto,Córdoba,CBA,3736,AR
1524,2520,Mendoza,Mendoza,MZA,2513,AR
1525,2521,CABA,Buenos Aires,BA,3887,AR
1526,2522,Rafaela,Santa Fe,SF,1796,AR
1527,2523,Mar del Plata,Buenos Aires,BA,9667,AR
1528,2524,Rafaela,Santa Fe,SF,8421,AR
1529,2525,Villa Carlos Paz,Córdoba,CBA,8668,AR
1530,2526,CABA,Buenos Aires,BA,3498,AR
1531,2527,Mendoza,Mendoza,MZA,1595,AR
1532,2528,Godoy Cruz,Mendoza,MZA,6065,AR
1533,2529,Mar del Plata,Buenos Aires,BA,5933,AR
1534,2530,San Rafael,Mendoza,MZA,9099,AR
1535,2531,Mendoza,Mendoza,MZA,6751,AR
1536,2532,La Plata,Buenos Aires,BA,8940,AR
1537,2533,Mar del Plata,Buenos Aires,BA,4844,AR
1538,2534,Mar del Plata,Buenos Aires,BA,9555,AR
1539,2535,La Plata,Buenos Aires,BA,6800,AR
1540,2536,La Plata,Buenos Aires,BA,1569,AR
1541,2537,CABA,Buenos Aires,BA,7374,AR
1542,2538,Rosario,Santa Fe,SF,1632,AR
1543,2539,CABA,Buenos Aires,BA,4641,AR
1544,2540,Río Cuarto,Córdoba,CBA,8122,AR
1545,2541,La Plata,Buenos Aires,BA,8251,AR
1546,2542,CABA,Buenos Aires,BA,3644,AR
1547,2543,CABA,Buenos Aires,BA,6670,AR
1548,2544,San Rafael,Mendoza,MZA,3926,AR
1549,2545,La Plata,Buenos Aires,BA,7088,AR
1550,2546,Mendoza,Mendoza,MZA,9709,AR
1551,2547,Mar del Plata,Buenos Aires,BA,1103,AR
1552,2548,Córdoba,Córdoba,CBA,3432,AR
1553,2549,Rosario,Santa Fe,SF,1939,AR
1554,2550,Rafaela,Santa Fe,SF,6986,AR
1555,2551,Mar del Plata,Buenos Aires,BA,6217,AR
1556,2552,Córdoba,Córdoba,CBA,5385,AR
1557,2553,Mar del Plata,Buenos Aires,BA,1277,AR
1558,2554,Villa Carlos Paz,Córdoba,CBA,8386,AR
1559,2555,CABA,Buenos Aires,BA,1297,AR
1560,2556,CABA,Buenos Aires,BA,2574,AR
1561,2557,Córdoba,Córdoba,CBA,4991,AR
1562,2558,San Rafael,Mendoza,MZA,7651,AR
1563,2559,Río Cuarto,Córdoba,CBA,7985,AR
1564,2560,Rosario,Santa Fe,SF,8173,AR
1565,2561,Córdoba,Córdoba,CBA,9924,AR
1566,2562,Mar del Plata,Buenos Aires,BA,4326,AR
1567,2563,Río Cuarto,Córdoba,CBA,1505,AR
1568,2564,Río Cuarto,Córdoba,CBA,3371,AR
1569,2565,Mar del Plata,Buenos Aires,BA,8967,AR
1570,2566,La Plata,Buenos Aires,BA,8863,AR
1571,2567,Córdoba,Córdoba,CBA,7482,AR
1572,2568,Mar del Plata,Buenos Aires,BA,8337,AR
1573,2569,Mendoza,Mendoza,MZA,7989,AR
1574,2570,La Plata,Buenos Aires,BA,6783,AR
1575,2571,Villa Carlos Paz,Córdoba,CBA,5462,AR
1576,2572,CABA,Buenos Aires,BA,6867,AR
1577,2573,Villa Carlos Paz,Córdoba,CBA,7077,AR
1578,2574,Córdoba,Córdoba,CBA,9667,AR
1579,2575,Mar del Plata,Buenos Aires,BA,2283,AR
1580,2576,Río Cuarto,Córdoba,CBA,6712,AR
1581,2577,La Plata,Buenos Aires,BA,5786,AR
1582,2578,La Plata,Buenos Aires,BA,7480,AR
1583,2579,Rosario,Santa Fe,SF,5670,AR
1584,2580,Villa Carlos Paz,Córdoba,CBA,3393,AR
1585,2581,La Plata,Buenos Aires,BA,4580,AR
1586,2582,Río Cuarto,Córdoba,CBA,3583,AR
1587,2583,San Rafael,Mendoza,MZA,2886,AR
1588,2584,Santa Fe,Santa Fe,SF,4157,AR
1589,2585,Villa Carlos Paz,Córdoba,CBA,3058,AR
1590,2586,CABA,Buenos Aires,BA,5987,AR
1591,2587,Mendoza,Mendoza,MZA,3317,AR
1592,2588,CABA,Buenos Aires,BA,7446,AR
1593,2589,Mar del Plata,Buenos Aires,BA,8722,AR
1594,2590,Villa Carlos Paz,Córdoba,CBA,2126,AR
1595,2591,Río Cuarto,Córdoba,CBA,7497,AR
1596,2592,CABA,Buenos Aires,BA,1787,AR
1597,2593,CABA,Buenos Aires,BA,1548,AR
1598,2594,La Plata,Buenos Aires,BA,4406,AR
1599,2595,CABA,Buenos Aires,BA,9264,AR
1600,2596,Rafaela,Santa Fe,SF,3307,AR
1601,2597,Mar del Plata,Buenos Aires,BA,8983,AR
1602,2598,Rosario,Santa Fe,SF,5949,AR
1603,2599,Rosario,Santa Fe,SF,1768,AR
1604,2600,Mar del Plata,Buenos Aires,BA,6543,AR
1605,2601,La Plata,Buenos Aires,BA,9524,AR
1606,2602,Córdoba,Córdoba,CBA,6409,AR
1607,2603,Córdoba,Córdoba,CBA,1359,AR
1608,2604,La Plata,Buenos Aires,BA,8008,AR
1609,2605,CABA,Buenos Aires,BA,6691,AR
1610,2606,Mar del Plata,Buenos Aires,BA,4450,AR
1611,2607,CABA,Buenos Aires,BA,8989,AR
1612,2608,CABA,Buenos Aires,BA,3081,AR
1613,2609,CABA,Buenos Aires,BA,8441,AR
1614,2610,San Rafael,Mendoza,MZA,1958,AR
1615,2611,Rafaela,Santa Fe,SF,2664,AR
1616,2612,Río Cuarto,Córdoba,CBA,2734,AR
1617,2613,Mendoza,Mendoza,MZA,9795,AR
1618,2614,Mar del Plata,Buenos Aires,BA,9286,AR
1619,2615,La Plata,Buenos Aires,BA,7312,AR
1620,2616,Santa Fe,Santa Fe,SF,5053,AR
1621,2617,CABA,Buenos Aires,BA,2633,AR
1622,2618,CABA,Buenos Aires,BA,4861,AR
1623,2619,San Rafael,Mendoza,MZA,2211,AR
1624,2620,Santa Fe,Santa Fe,SF,3474,AR
1625,2621,Mar del Plata,Buenos Aires,BA,6215,AR
1626,2622,CABA,Buenos Aires,BA,5170,AR
1627,2623,La Plata,Buenos Aires,BA,5739,AR
1628,2624,La Plata,Buenos Aires,BA,5270,AR
1629,2625,Rosario,Santa Fe,SF,9840,AR
1630,2626,La Plata,Buenos Aires,BA,5992,AR
1631,2627,Santa Fe,Santa Fe,SF,1192,AR
1632,2628,CABA,Buenos Aires,BA,9314,AR
1633,2629,La Plata,Buenos Aires,BA,5216,AR
1634,2630,Mar del Plata,Buenos Aires,BA,7784,AR
1635,2631,La Plata,Buenos Aires,BA,3621,AR
1636,2632,Córdoba,Córdoba,CBA,9892,AR
1637,2633,Mar del Plata,Buenos Aires,BA,3583,AR
1638,2634,Córdoba,Córdoba,CBA,1688,AR
1639,2635,Villa Carlos Paz,Córdoba,CBA,5003,AR
1640,2636,Córdoba,Córdoba,CBA,3947,AR
1641,2637,CABA,Buenos Aires,BA,6564,AR
1642,2638,Mar del Plata,Buenos Aires,BA,1714,AR
1643,2639,Córdoba,Córdoba,CBA,3896,AR
1644,2640,CABA,Buenos Aires,BA,9378,AR
1645,2641,Río Cuarto,Córdoba,CBA,9778,AR
1646,2642,Godoy Cruz,Mendoza,MZA,9697,AR
1647,2643,Mar del Plata,Buenos Aires,BA,3188,AR
1648,2644,La Plata,Buenos Aires,BA,8245,AR
1649,2645,La Plata,Buenos Aires,BA,7581,AR
1650,2646,Godoy Cruz,Mendoza,MZA,3118,AR
1651,2647,CABA,Buenos Aires,BA,3372,AR
1652,2648,CABA,Buenos Aires,BA,1745,AR
1653,2649,La Plata,Buenos Aires,BA,8956,AR
1654,2650,San Rafael,Mendoza,MZA,3513,AR
1655,2651,Río Cuarto,Córdoba,CBA,3635,AR
1656,2652,Córdoba,Córdoba,CBA,8077,AR
1657,2653,Mar del Plata,Buenos Aires,BA,1088,AR
1658,2654,San Rafael,Mendoza,MZA,9912,AR
1659,2655,CABA,Buenos Aires,BA,6351,AR
1660,2656,Mar del Plata,Buenos Aires,BA,6820,AR
1661,2657,Villa Carlos Paz,Córdoba,CBA,1977,AR
1662,2658,Mar del Plata,Buenos Aires,BA,4998,AR
1663,2659,Mar del Plata,Buenos Aires,BA,4339,AR
1664,2660,Santa Fe,Santa Fe,SF,9885,AR
1665,2661,La Plata,Buenos Aires,BA,2780,AR
1666,2662,Mendoza,Mendoza,MZA,4295,AR
1667,2663,Córdoba,Córdoba,CBA,6723,AR
1668,2664,Mar del Plata,Buenos Aires,BA,1324,AR
1669,2665,Godoy Cruz,Mendoza,MZA,7922,AR
1670,2666,Rosario,Santa Fe,SF,5364,AR
1671,2667,Rafaela,Santa Fe,SF,7713,AR
1672,2668,Mar del Plata,Buenos Aires,BA,9736,AR
1673,2669,La Plata,Buenos Aires,BA,1272,AR
1674,2670,Villa Carlos Paz,Córdoba,CBA,3798,AR
1675,2671,Córdoba,Córdoba,CBA,6047,AR
1676,2672,Córdoba,Córdoba,CBA,8129,AR
1677,2673,Rafaela,Santa Fe,SF,8291,AR
1678,2674,Córdoba,Córdoba,CBA,2031,AR
1679,2675,Villa Carlos Paz,Córdoba,CBA,8492,AR
1680,2676,Villa Carlos Paz,Córdoba,CBA,7645,AR
1681,2677,Mar del Plata,Buenos Aires,BA,2843,AR
1682,2678,La Plata,Buenos Aires,BA,4379,AR
1683,2679,Río Cuarto,Córdoba,CBA,9744,AR
1684,2680,La Plata,Buenos Aires,BA,1162,AR
1685,2681,Mendoza,Mendoza,MZA,8515,AR
1686,2682,La Plata,Buenos Aires,BA,9918,AR
1687,2683,La Plata,Buenos Aires,BA,1008,AR
1688,2684,Rafaela,Santa Fe,SF,6404,AR
1689,2685,Mar del Plata,Buenos Aires,BA,5291,AR
1690,2686,Villa Carlos Paz,Córdoba,CBA,7071,AR
1691,2687,CABA,Buenos Aires,BA,7607,AR
1692,2688,Río Cuarto,Córdoba,CBA,6856,AR
1693,2689,Mar del Plata,Buenos Aires,BA,9869,AR
1694,2690,Mar del Plata,Buenos Aires,BA,2938,AR
1695,2691,La Plata,Buenos Aires,BA,8007,AR
1696,2692,Rosario,Santa Fe,SF,5964,AR
1697,2693,Mar del Plata,Buenos Aires,BA,6618,AR
1698,2694,Villa Carlos Paz,Córdoba,CBA,7190,AR
1699,2695,Rosario,Santa Fe,SF,8826,AR
1700,2696,La Plata,Buenos Aires,BA,1129,AR
1701,2697,Mar del Plata,Buenos Aires,BA,9174,AR
1702,2698,La Plata,Buenos Aires,BA,7100,AR
1703,2699,Villa Carlos Paz,Córdoba,CBA,6120,AR
1704,2700,CABA,Buenos Aires,BA,4574,AR
1705,2701,Mar del Plata,Buenos Aires,BA,7461,AR
1706,2702,Córdoba,Córdoba,CBA,3345,AR
1707,2703,La Plata,Buenos Aires,BA,6677,AR
1708,2704,Mar del Plata,Buenos Aires,BA,3964,AR
1709,2705,La Plata,Buenos Aires,BA,7653,AR
1710,2706,Godoy Cruz,Mendoza,MZA,8350,AR
1711,2707,CABA,Buenos Aires,BA,6054,AR
1712,2708,La Plata,Buenos Aires,BA,6998,AR
1713,2709,CABA,Buenos Aires,BA,2837,AR
1714,2710,Mar del Plata,Buenos Aires,BA,4267,AR
1715,2711,Mar del Plata,Buenos Aires,BA,9000,AR
1716,2712,CABA,Buenos Aires,BA,7902,AR
1717,2713,Rosario,Santa Fe,SF,7997,AR
1718,2714,Mar del Plata,Buenos Aires,BA,6777,AR
1719,2715,La Plata,Buenos Aires,BA,4013,AR
1720,2716,Villa Carlos Paz,Córdoba,CBA,7694,AR
1721,2717,Rosario,Santa Fe,SF,9386,AR
1722,2718,Mar del Plata,Buenos Aires,BA,4080,AR
1723,2719,La Plata,Buenos Aires,BA,8253,AR
1724,2720,San Rafael,Mendoza,MZA,4677,AR
1725,2721,Rosario,Santa Fe,SF,7161,AR
1726,2722,La Plata,Buenos Aires,BA,1605,AR
1727,2723,Mar del Plata,Buenos Aires,BA,1277,AR
1728,2724,San Rafael,Mendoza,MZA,9852,AR
1729,2725,Villa Carlos Paz,Córdoba,CBA,7387,AR
1730,2726,Río Cuarto,Córdoba,CBA,7073,AR
1731,2727,La Plata,Buenos Aires,BA,9518,AR
1732,2728,San Rafael,Mendoza,MZA,3350,AR
1733,2729,Mar del Plata,Buenos Aires,BA,3255,AR
1734,2730,CABA,Buenos Aires,BA,1235,AR
1735,2731,Rafaela,Santa Fe,SF,5356,AR
1736,2732,CABA,Buenos Aires,BA,2359,AR
1737,2733,Río Cuarto,Córdoba,CBA,8117,AR
1738,2734,CABA,Buenos Aires,BA,9827,AR
1739,2735,La Plata,Buenos Aires,BA,2726,AR
1740,2736,CABA,Buenos Aires,BA,7929,AR
1741,2737,La Plata,Buenos Aires,BA,9267,AR
1742,2738,Rafaela,Santa Fe,SF,4197,AR
1743,2739,Córdoba,Córdoba,CBA,2307,AR
1744,2740,Mar del Plata,Buenos Aires,BA,3202,AR
1745,2741,CABA,Buenos Aires,BA,9701,AR
1746,2742,Rosario,Santa Fe,SF,5643,AR
1747,2743,CABA,Buenos Aires,BA,4384,AR
1748,2744,La Plata,Buenos Aires,BA,7587,AR
1749,2745,Mendoza,Mendoza,MZA,5019,AR
1750,2746,Mar del Plata,Buenos Aires,BA,9921,AR
1751,2747,Godoy Cruz,Mendoza,MZA,8378,AR
1752,2748,La Plata,Buenos Aires,BA,4046,AR
1753,2749,CABA,Buenos Aires,BA,7437,AR
1754,2750,Río Cuarto,Córdoba,CBA,8486,AR
1755,2751,Rafaela,Santa Fe,SF,7715,AR
1756,2752,CABA,Buenos Aires,BA,7188,AR
1757,2753,Mar del Plata,Buenos Aires,BA,8566,AR
1758,2754,Córdoba,Córdoba,CBA,7710,AR
1759,2755,La Plata,Buenos Aires,BA,3217,AR
1760,2756,Mendoza,Mendoza,MZA,4416,AR
1761,2757,Mar del Plata,Buenos Aires,BA,5433,AR
1762,2758,Mar del Plata,Buenos Aires,BA,1354,AR
1763,2759,Córdoba,Córdoba,CBA,1058,AR
1764,2760,Mar del Plata,Buenos Aires,BA,5417,AR
1765,2761,Santa Fe,Santa Fe,SF,9808,AR
1766,2762,La Plata,Buenos Aires,BA,1348,AR
1767,2763,Rafaela,Santa Fe,SF,1575,AR
1768,2764,CABA,Buenos Aires,BA,9310,AR
1769,2765,La Plata,Buenos Aires,BA,9388,AR
1770,2766,Córdoba,Córdoba,CBA,1228,AR
1771,2767,Mar del Plata,Buenos Aires,BA,6719,AR
1772,2768,Mar del Plata,Buenos Aires,BA,7486,AR
1773,2769,CABA,Buenos Aires,BA,4811,AR
1774,2770,Río Cuarto,Córdoba,CBA,1119,AR
1775,2771,Rosario,Santa Fe,SF,5458,AR
1776,2772,Córdoba,Córdoba,CBA,1974,AR
1777,2773,Villa Carlos Paz,Córdoba,CBA,5539,AR
1778,2774,Mendoza,Mendoza,MZA,3474,AR
1779,2775,San Rafael,Mendoza,MZA,7114,AR
1780,2776,Godoy Cruz,Mendoza,MZA,5342,AR
1781,2777,CABA,Buenos Aires,BA,1580,AR
1782,2778,Mar del Plata,Buenos Aires,BA,4524,AR
1783,2779,CABA,Buenos Aires,BA,1918,AR
1784,2780,Rosario,Santa Fe,SF,7784,AR
1785,2781,La Plata,Buenos Aires,BA,1163,AR
1786,2782,Mar del Plata,Buenos Aires,BA,9108,AR
1787,2783,Mar del Plata,Buenos Aires,BA,8560,AR
1788,2784,CABA,Buenos Aires,BA,2788,AR
1789,2785,La Plata,Buenos Aires,BA,2238,AR
1790,2786,CABA,Buenos Aires,BA,5576,AR
1791,2787,Santa Fe,Santa Fe,SF,8765,AR
1792,2788,La Plata,Buenos Aires,BA,4695,AR
1793,2789,CABA,Buenos Aires,BA,7509,AR
1794,2790,CABA,Buenos Aires,BA,3325,AR
1795,2791,Villa Carlos Paz,Córdoba,CBA,1370,AR
1796,2792,Villa Carlos Paz,Córdoba,CBA,3138,AR
1797,2793,Mar del Plata,Buenos Aires,BA,3194,AR
1798,2794,San Rafael,Mendoza,MZA,2834,AR
1799,2795,CABA,Buenos Aires,BA,6237,AR
1800,2796,Córdoba,Córdoba,CBA,5678,AR
1801,2797,Santa Fe,Santa Fe,SF,3079,AR
1802,2798,CABA,Buenos Aires,BA,6111,AR
1803,2799,Mar del Plata,Buenos Aires,BA,2794,AR
1804,2800,Mar del Plata,Buenos Aires,BA,5927,AR
1805,2801,Mar del Plata,Buenos Aires,BA,4233,AR
1806,2802,Godoy Cruz,Mendoza,MZA,5430,AR
1807,2803,Mendoza,Mendoza,MZA,9647,AR
1808,2804,La Plata,Buenos Aires,BA,3755,AR
1809,2805,Mendoza,Mendoza,MZA,1238,AR
1810,2806,Mendoza,Mendoza,MZA,1337,AR
1811,2807,La Plata,Buenos Aires,BA,8429,AR
1812,2808,Río Cuarto,Córdoba,CBA,2987,AR
1813,2809,CABA,Buenos Aires,BA,3494,AR
1814,2810,La Plata,Buenos Aires,BA,1732,AR
1815,2811,Mar del Plata,Buenos Aires,BA,9972,AR
1816,2812,La Plata,Buenos Aires,BA,1377,AR
1817,2813,CABA,Buenos Aires,BA,5002,AR
1818,2814,CABA,Buenos Aires,BA,7051,AR
1819,2815,CABA,Buenos Aires,BA,4098,AR
1820,2816,Rafaela,Santa Fe,SF,6307,AR
1821,2817,La Plata,Buenos Aires,BA,5102,AR
1822,2818,Río Cuarto,Córdoba,CBA,3429,AR
1823,2819,Mar del Plata,Buenos Aires,BA,3281,AR
1824,2820,San Rafael,Mendoza,MZA,9410,AR
1825,2821,Villa Carlos Paz,Córdoba,CBA,1551,AR
1826,2822,CABA,Buenos Aires,BA,3227,AR
1827,2823,La Plata,Buenos Aires,BA,4641,AR
1828,2824,Mendoza,Mendoza,MZA,2551,AR
1829,2825,San Rafael,Mendoza,MZA,7859,AR
1830,2826,Río Cuarto,Córdoba,CBA,5699,AR
1831,2827,CABA,Buenos Aires,BA,4589,AR
1832,2828,La Plata,Buenos Aires,BA,4969,AR
1833,2829,CABA,Buenos Aires,BA,4285,AR
1834,2830,Río Cuarto,Córdoba,CBA,3049,AR
1835,2831,Villa Carlos Paz,Córdoba,CBA,9155,AR
1836,2832,La Plata,Buenos Aires,BA,7255,AR
1837,2833,Godoy Cruz,Mendoza,MZA,4584,AR
1838,2834,CABA,Buenos Aires,BA,4876,AR
1839,2835,Mar del Plata,Buenos Aires,BA,3439,AR
1840,2836,Mar del Plata,Buenos Aires,BA,9761,AR
1841,2837,La Plata,Buenos Aires,BA,8517,AR
1842,2838,CABA,Buenos Aires,BA,6752,AR
1843,2839,Mendoza,Mendoza,MZA,7697,AR
1844,2840,La Plata,Buenos Aires,BA,3615,AR
1845,2841,Villa Carlos Paz,Córdoba,CBA,9360,AR
1846,2842,La Plata,Buenos Aires,BA,6131,AR
1847,2843,Santa Fe,Santa Fe,SF,7199,AR
1848,2844,CABA,Buenos Aires,BA,5141,AR
1849,2845,La Plata,Buenos Aires,BA,5528,AR
1850,2846,Córdoba,Córdoba,CBA,4204,AR
1851,2847,Río Cuarto,Córdoba,CBA,8029,AR
1852,2848,La Plata,Buenos Aires,BA,2061,AR
1853,2849,Mar del Plata,Buenos Aires,BA,7638,AR
1854,2850,Rosario,Santa Fe,SF,3977,AR
1855,2851,La Plata,Buenos Aires,BA,2347,AR
1856,2852,CABA,Buenos Aires,BA,6094,AR
1857,2853,CABA,Buenos Aires,BA,1866,AR
1858,2854,CABA,Buenos Aires,BA,1810,AR
1859,2855,La Plata,Buenos Aires,BA,8779,AR
1860,2856,Mar del Plata,Buenos Aires,BA,7798,AR
1861,2857,Rosario,Santa Fe,SF,9312,AR
1862,2858,Mar del Plata,Buenos Aires,BA,6974,AR
1863,2859,Córdoba,Córdoba,CBA,6532,AR
1864,2860,CABA,Buenos Aires,BA,9562,AR
1865,2861,La Plata,Buenos Aires,BA,8666,AR
1866,2862,Mendoza,Mendoza,MZA,8700,AR
1867,2863,CABA,Buenos Aires,BA,5117,AR
1868,2864,CABA,Buenos Aires,BA,4714,AR
1869,2865,La Plata,Buenos Aires,BA,5698,AR
1870,2866,Mar del Plata,Buenos Aires,BA,9200,AR
1871,2867,Mar del Plata,Buenos Aires,BA,3211,AR
1872,2868,Rosario,Santa Fe,SF,7298,AR
1873,2869,Villa Carlos Paz,Córdoba,CBA,1326,AR
1874,2870,Rafaela,Santa Fe,SF,5028,AR
1875,2871,Córdoba,Córdoba,CBA,7661,AR
1876,2872,Santa Fe,Santa Fe,SF,4564,AR
1877,2873,Mar del Plata,Buenos Aires,BA,4471,AR
1878,2874,Córdoba,Córdoba,CBA,9247,AR
1879,2875,CABA,Buenos Aires,BA,2222,AR
1880,2876,CABA,Buenos Aires,BA,2167,AR
1881,2877,La Plata,Buenos Aires,BA,7623,AR
1882,2878,Mar del Plata,Buenos Aires,BA,2531,AR
1883,2879,CABA,Buenos Aires,BA,3547,AR
1884,2880,Mar del Plata,Buenos Aires,BA,5043,AR
1885,2881,Mar del Plata,Buenos Aires,BA,8357,AR
1886,2882,CABA,Buenos Aires,BA,9155,AR
1887,2883,La Plata,Buenos Aires,BA,8567,AR
1888,2884,La Plata,Buenos Aires,BA,8129,AR
1889,2885,Santa Fe,Santa Fe,SF,6867,AR
1890,2886,CABA,Buenos Aires,BA,3007,AR
1891,2887,La Plata,Buenos Aires,BA,8883,AR
1892,2888,La Plata,Buenos Aires,BA,4042,AR
1893,2889,CABA,Buenos Aires,BA,3966,AR
1894,2890,Mar del Plata,Buenos Aires,BA,9652,AR
1895,2891,Godoy Cruz,Mendoza,MZA,1748,AR
1896,2892,La Plata,Buenos Aires,BA,4389,AR
1897,2893,CABA,Buenos Aires,BA,8796,AR
1898,2894,Villa Carlos Paz,Córdoba,CBA,9256,AR
1899,2895,Villa Carlos Paz,Córdoba,CBA,4829,AR
1900,2896,La Plata,Buenos Aires,BA,6682,AR
1901,2897,Río Cuarto,Córdoba,CBA,2373,AR
1902,2898,Villa Carlos Paz,Córdoba,CBA,4143,AR
1903,2899,CABA,Buenos Aires,BA,9188,AR
1904,2900,CABA,Buenos Aires,BA,4952,AR
1905,2901,CABA,Buenos Aires,BA,8461,AR
1906,2902,Mar del Plata,Buenos Aires,BA,8899,AR
1907,2903,CABA,Buenos Aires,BA,7978,AR
1908,2904,Mendoza,Mendoza,MZA,3582,AR
1909,2905,La Plata,Buenos Aires,BA,1530,AR
1910,2906,CABA,Buenos Aires,BA,3935,AR
1911,2907,CABA,Buenos Aires,BA,2567,AR
1912,2908,La Plata,Buenos Aires,BA,7919,AR
1913,2909,CABA,Buenos Aires,BA,2317,AR
1914,2910,Godoy Cruz,Mendoza,MZA,1539,AR
1915,2911,Córdoba,Córdoba,CBA,5158,AR
1916,2912,CABA,Buenos Aires,BA,8267,AR
1917,2913,San Rafael,Mendoza,MZA,7515,AR
1918,2914,CABA,Buenos Aires,BA,2781,AR
1919,2915,Córdoba,Córdoba,CBA,9081,AR
1920,2916,CABA,Buenos Aires,BA,4640,AR
1921,2917,Villa Carlos Paz,Córdoba,CBA,8052,AR
1922,2918,Mar del Plata,Buenos Aires,BA,5976,AR
1923,2919,San Rafael,Mendoza,MZA,1383,AR
1924,2920,Río Cuarto,Córdoba,CBA,7859,AR
1925,2921,Godoy Cruz,Mendoza,MZA,2692,AR
1926,2922,Mendoza,Mendoza,MZA,2273,AR
1927,2923,Santa Fe,Santa Fe,SF,5244,AR
1928,2924,Córdoba,Córdoba,CBA,6709,AR
1929,2925,CABA,Buenos Aires,BA,2101,AR
1930,2926,La Plata,Buenos Aires,BA,4706,AR
1931,2927,Mar del Plata,Buenos Aires,BA,4410,AR
1932,2928,Rosario,Santa Fe,SF,7457,AR
1933,2929,Córdoba,Córdoba,CBA,9820,AR
1934,2930,La Plata,Buenos Aires,BA,8279,AR
1935,2931,Santa Fe,Santa Fe,SF,1924,AR
1936,2932,La Plata,Buenos Aires,BA,8533,AR
1937,2933,Villa Carlos Paz,Córdoba,CBA,3986,AR
1938,2934,Río Cuarto,Córdoba,CBA,3169,AR
1939,2935,CABA,Buenos Aires,BA,4803,AR
1940,2936,La Plata,Buenos Aires,BA,9334,AR
1941,2937,CABA,Buenos Aires,BA,2973,AR
1942,2938,Rosario,Santa Fe,SF,9733,AR
1943,2939,CABA,Buenos Aires,BA,2734,AR
1944,2940,CABA,Buenos Aires,BA,2541,AR
1945,2941,CABA,Buenos Aires,BA,5907,AR
1946,2942,Córdoba,Córdoba,CBA,3288,AR
1947,2943,CABA,Buenos Aires,BA,3151,AR
1948,2944,San Rafael,Mendoza,MZA,6264,AR
1949,2945,Rafaela,Santa Fe,SF,9892,AR
1950,2946,La Plata,Buenos Aires,BA,4423,AR
1951,2947,Rafaela,Santa Fe,SF,2560,AR
1952,2948,Rosario,Santa Fe,SF,8099,AR
1953,2949,Mar del Plata,Buenos Aires,BA,9639,AR
1954,2950,Mar del Plata,Buenos Aires,BA,8828,AR
1955,2951,CABA,Buenos Aires,BA,7519,AR
1956,2952,Mar del Plata,Buenos Aires,BA,6224,AR
1957,2953,Mar del Plata,Buenos Aires,BA,3828,AR
1958,2954,Rosario,Santa Fe,SF,7647,AR
1959,2955,Santa Fe,Santa Fe,SF,4091,AR
1960,2956,Rafaela,Santa Fe,SF,5025,AR
1961,2957,Mar del Plata,Buenos Aires,BA,1220,AR
1962,2958,Mar del Plata,Buenos Aires,BA,7529,AR
1963,2959,La Plata,Buenos Aires,BA,4181,AR
1964,2960,La Plata,Buenos Aires,BA,2226,AR
1965,2961,Córdoba,Córdoba,CBA,4289,AR
1966,2962,Córdoba,Córdoba,CBA,2422,AR
1967,2963,CABA,Buenos Aires,BA,8559,AR
1968,2964,Villa Carlos Paz,Córdoba,CBA,7848,AR
1969,2965,La Plata,Buenos Aires,BA,9613,AR
1970,2966,Mar del Plata,Buenos Aires,BA,4274,AR
1971,2967,La Plata,Buenos Aires,BA,2823,AR
1972,2968,Mendoza,Mendoza,MZA,5638,AR
1973,2969,Godoy Cruz,Mendoza,MZA,7374,AR
1974,2970,La Plata,Buenos Aires,BA,3927,AR
1975,2971,La Plata,Buenos Aires,BA,1518,AR
1976,2972,Rosario,Santa Fe,SF,1737,AR
1977,2973,Rosario,Santa Fe,SF,9382,AR
1978,2974,CABA,Buenos Aires,BA,3825,AR
1979,2975,Córdoba,Córdoba,CBA,8295,AR
1980,2976,La Plata,Buenos Aires,BA,5401,AR
1981,2977,La Plata,Buenos Aires,BA,8350,AR
1982,2978,La Plata,Buenos Aires,BA,7201,AR
1983,2979,Mar del Plata,Buenos Aires,BA,3833,AR
1984,2980,Mar del Plata,Buenos Aires,BA,1052,AR
1985,2981,La Plata,Buenos Aires,BA,3857,AR
1986,2982,La Plata,Buenos Aires,BA,1532,AR
1987,2983,CABA,Buenos Aires,BA,5992,AR
1988,2984,Rafaela,Santa Fe,SF,4639,AR
1989,2985,Mar del Plata,Buenos Aires,BA,1839,AR
1990,2986,Córdoba,Córdoba,CBA,7809,AR
1991,2987,Santa Fe,Santa Fe,SF,7621,AR
1992,2988,Mendoza,Mendoza,MZA,9510,AR
1993,2989,Rafaela,Santa Fe,SF,3443,AR
1994,2990,Mar del Plata,Buenos Aires,BA,9470,AR
1995,2991,Mar del Plata,Buenos Aires,BA,1334,AR
1996,2992,Godoy Cruz,Mendoza,MZA,1598,AR
1997,2993,Villa Carlos Paz,Córdoba,CBA,4461,AR
1998,2994,Mar del Plata,Buenos Aires,BA,7628,AR
1999,2995,Córdoba,Córdoba,CBA,7891,AR
2000,2996,Santa Fe,Santa Fe,SF,1264,AR
2001,2997,Mar del Plata,Buenos Aires,BA,9231,AR
2002,2998,Córdoba,Córdoba,CBA,4348,AR
2003,2999,Córdoba,Córdoba,CBA,7550,AR
2004,3000,Villa Carlos Paz,Córdoba,CBA,3261,AR
2005,3001,Rafaela,Santa Fe,SF,2273,AR
2006,3002,Rafaela,Santa Fe,SF,4374,AR
2007,3003,Rosario,Santa Fe,SF,8775,AR
2008,3004,San Rafael,Mendoza,MZA,9790,AR
2009,3005,Mar del Plata,Buenos Aires,BA,4343,AR
2010,3006,La Plata,Buenos Aires,BA,5299,AR
2011,3007,La Plata,Buenos Aires,BA,2427,AR
2012,3008,Godoy Cruz,Mendoza,MZA,5624,AR
2013,3009,Rafaela,Santa Fe,SF,3943,AR
2014,3010,Río Cuarto,Córdoba,CBA,5234,AR
2015,3011,La Plata,Buenos Aires,BA,5019,AR
2016,3012,Río Cuarto,Córdoba,CBA,7787,AR
2017,3013,CABA,Buenos Aires,BA,4633,AR
2018,3014,Mar del Plata,Buenos Aires,BA,7219,AR
2019,3015,Rafaela,Santa Fe,SF,6383,AR
2020,3016,La Plata,Buenos Aires,BA,3557,AR
2021,3017,Córdoba,Córdoba,CBA,9407,AR
2022,3018,Mar del Plata,Buenos Aires,BA,3461,AR
2023,3019,La Plata,Buenos Aires,BA,5901,AR
2024,3020,CABA,Buenos Aires,BA,4012,AR
2025,3021,Córdoba,Córdoba,CBA,7930,AR
2026,3022,Villa Carlos Paz,Córdoba,CBA,7421,AR
2027,3023,CABA,Buenos Aires,BA,2966,AR
2028,3024,CABA,Buenos Aires,BA,5597,AR
2029,3025,Mar del Plata,Buenos Aires,BA,5146,AR
2030,3026,San Rafael,Mendoza,MZA,1179,AR
2031,3027,Rafaela,Santa Fe,SF,4521,AR
2032,3028,Río Cuarto,Córdoba,CBA,6967,AR
2033,3029,Mar del Plata,Buenos Aires,BA,1963,AR
2034,3030,Río Cuarto,Córdoba,CBA,4969,AR
2035,3031,Mar del Plata,Buenos Aires,BA,4642,AR
2036,3032,CABA,Buenos Aires,BA,1266,AR
2037,3033,Rafaela,Santa Fe,SF,2947,AR
2038,3034,Rafaela,Santa Fe,SF,5529,AR
2039,3035,CABA,Buenos Aires,BA,7244,AR
2040,3036,Rafaela,Santa Fe,SF,3119,AR
2041,3037,Río Cuarto,Córdoba,CBA,1827,AR
2042,3038,Mar del Plata,Buenos Aires,BA,3110,AR
2043,3039,La Plata,Buenos Aires,BA,3898,AR
2044,3040,Santa Fe,Santa Fe,SF,9981,AR
2045,3041,Mar del Plata,Buenos Aires,BA,9117,AR
2046,3042,Villa Carlos Paz,Córdoba,CBA,5047,AR
2047,3043,CABA,Buenos Aires,BA,2567,AR
2048,3044,Mar del Plata,Buenos Aires,BA,3065,AR
2049,3045,CABA,Buenos Aires,BA,8641,AR
2050,3046,Mar del Plata,Buenos Aires,BA,1553,AR
2051,3047,Río Cuarto,Córdoba,CBA,1273,AR
2052,3048,Mar del Plata,Buenos Aires,BA,3169,AR
2053,3049,Río Cuarto,Córdoba,CBA,5868,AR
2054,3050,Río Cuarto,Córdoba,CBA,3479,AR
2055,3051,CABA,Buenos Aires,BA,7989,AR
2056,3052,Córdoba,Córdoba,CBA,3049,AR
2057,3053,Mendoza,Mendoza,MZA,1070,AR
2058,3054,La Plata,Buenos Aires,BA,7692,AR
2059,3055,Mar del Plata,Buenos Aires,BA,3505,AR
2060,3056,Rosario,Santa Fe,SF,5220,AR
2061,3057,Villa Carlos Paz,Córdoba,CBA,8899,AR
2062,3058,Rosario,Santa Fe,SF,9124,AR
2063,3059,Córdoba,Córdoba,CBA,7865,AR
2064,3060,Rafaela,Santa Fe,SF,2162,AR
2065,3061,CABA,Buenos Aires,BA,5886,AR
2066,3062,Santa Fe,Santa Fe,SF,5438,AR
2067,3063,La Plata,Buenos Aires,BA,6164,AR
2068,3064,Mendoza,Mendoza,MZA,2168,AR
2069,3065,Río Cuarto,Córdoba,CBA,4914,AR
2070,3066,Rafaela,Santa Fe,SF,7283,AR
2071,3067,Mendoza,Mendoza,MZA,9337,AR
2072,3068,Mar del Plata,Buenos Aires,BA,6258,AR
2073,3069,Mar del Plata,Buenos Aires,BA,2916,AR
2074,3070,La Plata,Buenos Aires,BA,1185,AR
2075,3071,Rosario,Santa Fe,SF,9840,AR
2076,3072,Mendoza,Mendoza,MZA,3919,AR
2077,3073,Rosario,Santa Fe,SF,3626,AR
2078,3074,La Plata,Buenos Aires,BA,1344,AR
2079,3075,CABA,Buenos Aires,BA,6536,AR
2080,3076,Godoy Cruz,Mendoza,MZA,4337,AR
2081,3077,La Plata,Buenos Aires,BA,8674,AR
2082,3078,CABA,Buenos Aires,BA,8985,AR
2083,3079,Mar del Plata,Buenos Aires,BA,1672,AR
2084,3080,Río Cuarto,Córdoba,CBA,4643,AR
2085,3081,Mar del Plata,Buenos Aires,BA,2576,AR
2086,3082,Mar del Plata,Buenos Aires,BA,3670,AR
2087,3083,Mar del Plata,Buenos Aires,BA,1529,AR
2088,3084,San Rafael,Mendoza,MZA,4700,AR
2089,3085,Villa Carlos Paz,Córdoba,CBA,5854,AR
2090,3086,Córdoba,Córdoba,CBA,4222,AR
2091,3087,CABA,Buenos Aires,BA,6553,AR
2092,3088,Villa Carlos Paz,Córdoba,CBA,7675,AR
2093,3089,Mar del Plata,Buenos Aires,BA,4802,AR
2094,3090,La Plata,Buenos Aires,BA,1269,AR
2095,3091,Mar del Plata,Buenos Aires,BA,9469,AR
2096,3092,CABA,Buenos Aires,BA,7484,AR
2097,3093,CABA,Buenos Aires,BA,8027,AR
2098,3094,Rafaela,Santa Fe,SF,4544,AR
2099,3095,Córdoba,Córdoba,CBA,3345,AR
2100,3096,Mar del Plata,Buenos Aires,BA,8537,AR
2101,3097,Río Cuarto,Córdoba,CBA,4058,AR
2102,3098,Mar del Plata,Buenos Aires,BA,8593,AR
2103,3099,Godoy Cruz,Mendoza,MZA,5478,AR
2104,3100,La Plata,Buenos Aires,BA,6396,AR
2105,3101,CABA,Buenos Aires,BA,9978,AR
2106,3102,La Plata,Buenos Aires,BA,6409,AR
2107,3103,Mendoza,Mendoza,MZA,3447,AR
2108,3104,La Plata,Buenos Aires,BA,7224,AR
2109,3105,La Plata,Buenos Aires,BA,9876,AR
2110,3106,CABA,Buenos Aires,BA,7907,AR
2111,3107,CABA,Buenos Aires,BA,1445,AR
2112,3108,CABA,Buenos Aires,BA,2477,AR
2113,3109,CABA,Buenos Aires,BA,9627,AR
2114,3110,Villa Carlos Paz,Córdoba,CBA,2229,AR
2115,3111,La Plata,Buenos Aires,BA,1927,AR
2116,3112,San Rafael,Mendoza,MZA,8660,AR
2117,3113,La Plata,Buenos Aires,BA,9596,AR
2118,3114,Mar del Plata,Buenos Aires,BA,8039,AR
2119,3115,CABA,Buenos Aires,BA,9108,AR
2120,3116,Río Cuarto,Córdoba,CBA,7131,AR
2121,3117,CABA,Buenos Aires,BA,8766,AR
2122,3118,CABA,Buenos Aires,BA,3686,AR
2123,3119,Villa Carlos Paz,Córdoba,CBA,3353,AR
2124,3120,Mar del Plata,Buenos Aires,BA,5736,AR
2125,3121,Mar del Plata,Buenos Aires,BA,7468,AR
2126,3122,Mar del Plata,Buenos Aires,BA,8756,AR
2127,3123,Río Cuarto,Córdoba,CBA,3305,AR
2128,3124,Mar del Plata,Buenos Aires,BA,5118,AR
2129,3125,Mar del Plata,Buenos Aires,BA,5806,AR
2130,3126,La Plata,Buenos Aires,BA,1148,AR
2131,3127,La Plata,Buenos Aires,BA,3078,AR
2132,3128,La Plata,Buenos Aires,BA,4305,AR
2133,3129,Mendoza,Mendoza,MZA,5658,AR
2134,3130,CABA,Buenos Aires,BA,3101,AR
2135,3131,La Plata,Buenos Aires,BA,9294,AR
2136,3132,Godoy Cruz,Mendoza,MZA,8257,AR
2137,3133,La Plata,Buenos Aires,BA,6489,AR
2138,3134,Mar del Plata,Buenos Aires,BA,2389,AR
2139,3135,Río Cuarto,Córdoba,CBA,9127,AR
2140,3136,Mar del Plata,Buenos Aires,BA,8012,AR
2141,3137,La Plata,Buenos Aires,BA,1225,AR
2142,3138,La Plata,Buenos Aires,BA,7611,AR
2143,3139,San Rafael,Mendoza,MZA,5378,AR
2144,3140,Río Cuarto,Córdoba,CBA,8936,AR
2145,3141,Río Cuarto,Córdoba,CBA,1563,AR
2146,3142,Rosario,Santa Fe,SF,3341,AR
2147,3143,Santa Fe,Santa Fe,SF,4644,AR
2148,3144,Rosario,Santa Fe,SF,2709,AR
2149,3145,Río Cuarto,Córdoba,CBA,1066,AR
2150,3146,La Plata,Buenos Aires,BA,3252,AR
2151,3147,Rafaela,Santa Fe,SF,3647,AR
2152,3148,La Plata,Buenos Aires,BA,9411,AR
2153,3149,CABA,Buenos Aires,BA,1947,AR
2154,3150,Villa Carlos Paz,Córdoba,CBA,7298,AR
2155,3151,Mendoza,Mendoza,MZA,7566,AR
2156,3152,Mar del Plata,Buenos Aires,BA,1401,AR
2157,3153,Mar del Plata,Buenos Aires,BA,4158,AR
2158,3154,CABA,Buenos Aires,BA,2955,AR
2159,3155,Rosario,Santa Fe,SF,7294,AR
2160,3156,CABA,Buenos Aires,BA,8366,AR
2161,3157,La Plata,Buenos Aires,BA,6283,AR
2162,3158,Santa Fe,Santa Fe,SF,5174,AR
2163,3159,CABA,Buenos Aires,BA,6530,AR
2164,3160,Santa Fe,Santa Fe,SF,6855,AR
2165,3161,La Plata,Buenos Aires,BA,3869,AR
2166,3162,Santa Fe,Santa Fe,SF,5851,AR
2167,3163,CABA,Buenos Aires,BA,1278,AR
2168,3164,Santa Fe,Santa Fe,SF,8415,AR
2169,3165,Godoy Cruz,Mendoza,MZA,5387,AR
2170,3166,San Rafael,Mendoza,MZA,6452,AR
2171,3167,Mar del Plata,Buenos Aires,BA,2133,AR
2172,3168,Mar del Plata,Buenos Aires,BA,8792,AR
2173,3169,Rafaela,Santa Fe,SF,3504,AR
2174,3170,CABA,Buenos Aires,BA,9628,AR
2175,3171,CABA,Buenos Aires,BA,9063,AR
2176,3172,Mendoza,Mendoza,MZA,5115,AR
2177,3173,Rafaela,Santa Fe,SF,1017,AR
2178,3174,Villa Carlos Paz,Córdoba,CBA,4821,AR
2179,3175,Mar del Plata,Buenos Aires,BA,1287,AR
2180,3176,La Plata,Buenos Aires,BA,8209,AR
2181,3177,Mar del Plata,Buenos Aires,BA,2862,AR
2182,3178,La Plata,Buenos Aires,BA,4300,AR
2183,3179,Mar del Plata,Buenos Aires,BA,9426,AR
2184,3180,La Plata,Buenos Aires,BA,3757,AR
2185,3181,Mar del Plata,Buenos Aires,BA,5586,AR
2186,3182,La Plata,Buenos Aires,BA,8265,AR
2187,3183,Villa Carlos Paz,Córdoba,CBA,2416,AR
2188,3184,Mar del Plata,Buenos Aires,BA,5831,AR
2189,3185,Santa Fe,Santa Fe,SF,9990,AR
2190,3186,Mendoza,Mendoza,MZA,4605,AR
2191,3187,Mar del Plata,Buenos Aires,BA,3805,AR
2192,3188,Mar del Plata,Buenos Aires,BA,6183,AR
2193,3189,Rafaela,Santa Fe,SF,1911,AR
2194,3190,La Plata,Buenos Aires,BA,2156,AR
2195,3191,La Plata,Buenos Aires,BA,9923,AR
2196,3192,Córdoba,Córdoba,CBA,9424,AR
2197,3193,CABA,Buenos Aires,BA,5956,AR
2198,3194,Mar del Plata,Buenos Aires,BA,9282,AR
2199,3195,Villa Carlos Paz,Córdoba,CBA,3548,AR
2200,3196,Villa Carlos Paz,Córdoba,CBA,2782,AR
2201,3197,Mar del Plata,Buenos Aires,BA,2445,AR
2202,3198,Rafaela,Santa Fe,SF,2610,AR
2203,3199,Rosario,Santa Fe,SF,1600,AR
2204,3200,Mar del Plata,Buenos Aires,BA,3358,AR
2205,3201,Córdoba,Córdoba,CBA,5977,AR
2206,3202,Mendoza,Mendoza,MZA,6372,AR
2207,3203,La Plata,Buenos Aires,BA,6543,AR
2208,3204,Córdoba,Córdoba,CBA,3798,AR
2209,3205,La Plata,Buenos Aires,BA,8208,AR
2210,3206,Mar del Plata,Buenos Aires,BA,9463,AR
2211,3207,Villa Carlos Paz,Córdoba,CBA,9341,AR
2212,3208,CABA,Buenos Aires,BA,1842,AR
2213,3209,Rosario,Santa Fe,SF,9777,AR
2214,3210,Mar del Plata,Buenos Aires,BA,1613,AR
2215,3211,Santa Fe,Santa Fe,SF,4803,AR
2216,3212,Rafaela,Santa Fe,SF,5315,AR
2217,3213,San Rafael,Mendoza,MZA,8000,AR
2218,3214,Rosario,Santa Fe,SF,8860,AR
2219,3215,Rafaela,Santa Fe,SF,6997,AR
2220,3216,Córdoba,Córdoba,CBA,8195,AR
2221,3217,La Plata,Buenos Aires,BA,3239,AR
2222,3218,Santa Fe,Santa Fe,SF,3681,AR
2223,3219,La Plata,Buenos Aires,BA,2130,AR
2224,3220,Mar del Plata,Buenos Aires,BA,7374,AR
2225,3221,Mendoza,Mendoza,MZA,5171,AR
2226,3222,CABA,Buenos Aires,BA,9925,AR
2227,3223,Río Cuarto,Córdoba,CBA,7958,AR
2228,3224,La Plata,Buenos Aires,BA,9415,AR
2229,3225,Mar del Plata,Buenos Aires,BA,4734,AR
2230,3226,Rafaela,Santa Fe,SF,5180,AR
2231,3227,La Plata,Buenos Aires,BA,3054,AR
2232,3228,Mar del Plata,Buenos Aires,BA,7959,AR
2233,3229,San Rafael,Mendoza,MZA,4066,AR
2234,3230,Córdoba,Córdoba,CBA,3017,AR
2235,3231,Godoy Cruz,Mendoza,MZA,6135,AR
2236,3232,Godoy Cruz,Mendoza,MZA,3189,AR
2237,3233,Mar del Plata,Buenos Aires,BA,8171,AR
2238,3234,Villa Carlos Paz,Córdoba,CBA,2536,AR
2239,3235,Rafaela,Santa Fe,SF,5523,AR
2240,3236,La Plata,Buenos Aires,BA,5019,AR
2241,3237,La Plata,Buenos Aires,BA,3295,AR
2242,3238,Rosario,Santa Fe,SF,3101,AR
2243,3239,Mar del Plata,Buenos Aires,BA,6486,AR
2244,3240,Córdoba,Córdoba,CBA,7154,AR
2245,3241,Santa Fe,Santa Fe,SF,9971,AR
2246,3242,CABA,Buenos Aires,BA,5441,AR
2247,3243,Godoy Cruz,Mendoza,MZA,3958,AR
2248,3244,Mendoza,Mendoza,MZA,4951,AR
2249,3245,La Plata,Buenos Aires,BA,7124,AR
2250,3246,CABA,Buenos Aires,BA,5271,AR
2251,3247,La Plata,Buenos Aires,BA,3195,AR
2252,3248,Mar del Plata,Buenos Aires,BA,9119,AR
2253,3249,Mar del Plata,Buenos Aires,BA,9225,AR
2254,3250,Mar del Plata,Buenos Aires,BA,6112,AR
2255,3251,Villa Carlos Paz,Córdoba,CBA,8096,AR
2256,3252,CABA,Buenos Aires,BA,9991,AR
2257,3253,Mar del Plata,Buenos Aires,BA,7934,AR
2258,3254,La Plata,Buenos Aires,BA,3339,AR
2259,3255,Rafaela,Santa Fe,SF,7099,AR
2260,3256,Mar del Plata,Buenos Aires,BA,1864,AR
2261,3257,CABA,Buenos Aires,BA,1309,AR
2262,3258,Mendoza,Mendoza,MZA,2570,AR
2263,3259,Rosario,Santa Fe,SF,2689,AR
2264,3260,La Plata,Buenos Aires,BA,2563,AR
2265,3261,CABA,Buenos Aires,BA,3109,AR
2266,3262,Santa Fe,Santa Fe,SF,3137,AR
2267,3263,Córdoba,Córdoba,CBA,2566,AR
2268,3264,Rosario,Santa Fe,SF,4425,AR
2269,3265,Córdoba,Córdoba,CBA,3974,AR
2270,3266,CABA,Buenos Aires,BA,6497,AR
2271,3267,Villa Carlos Paz,Córdoba,CBA,9201,AR
2272,3268,La Plata,Buenos Aires,BA,3838,AR
2273,3269,Villa Carlos Paz,Córdoba,CBA,1893,AR
2274,3270,La Plata,Buenos Aires,BA,6906,AR
2275,3271,Córdoba,Córdoba,CBA,3909,AR
2276,3272,Godoy Cruz,Mendoza,MZA,5382,AR
2277,3273,Santa Fe,Santa Fe,SF,7824,AR
2278,3274,La Plata,Buenos Aires,BA,7624,AR
2279,3275,La Plata,Buenos Aires,BA,4822,AR
2280,3276,Mar del Plata,Buenos Aires,BA,5093,AR
2281,3277,Mar del Plata,Buenos Aires,BA,5879,AR
2282,3278,CABA,Buenos Aires,BA,4219,AR
2283,3279,Godoy Cruz,Mendoza,MZA,7730,AR
2284,3280,Mar del Plata,Buenos Aires,BA,7765,AR
2285,3281,Mar del Plata,Buenos Aires,BA,4872,AR
2286,3282,Rosario,Santa Fe,SF,9193,AR
2287,3283,Mar del Plata,Buenos Aires,BA,1478,AR
2288,3284,CABA,Buenos Aires,BA,8725,AR
2289,3285,Rosario,Santa Fe,SF,8896,AR
2290,3286,Mendoza,Mendoza,MZA,4407,AR
2291,3287,CABA,Buenos Aires,BA,8242,AR
2292,3288,Mar del Plata,Buenos Aires,BA,7366,AR
2293,3289,La Plata,Buenos Aires,BA,8536,AR
2294,3290,Río Cuarto,Córdoba,CBA,4526,AR
2295,3291,Santa Fe,Santa Fe,SF,3974,AR
2296,3292,Villa Carlos Paz,Córdoba,CBA,7717,AR
2297,3293,Mendoza,Mendoza,MZA,4579,AR
2298,3294,CABA,Buenos Aires,BA,3782,AR
2299,3295,Rafaela,Santa Fe,SF,5458,AR
2300,3296,Rosario,Santa Fe,SF,5454,AR
2301,3297,Mar del Plata,Buenos Aires,BA,5483,AR
2302,3298,Santa Fe,Santa Fe,SF,2451,AR
2303,3299,Godoy Cruz,Mendoza,MZA,2210,AR
2304,3300,Mendoza,Mendoza,MZA,2360,AR
2305,3301,La Plata,Buenos Aires,BA,7832,AR
2306,3302,Mar del Plata,Buenos Aires,BA,5037,AR
2307,3303,CABA,Buenos Aires,BA,5953,AR
2308,3304,CABA,Buenos Aires,BA,2223,AR
2309,3305,La Plata,Buenos Aires,BA,2633,AR
2310,3306,Godoy Cruz,Mendoza,MZA,2620,AR
2311,3307,Rosario,Santa Fe,SF,6069,AR
2312,3308,Godoy Cruz,Mendoza,MZA,9532,AR
2313,3309,Rosario,Santa Fe,SF,9742,AR
2314,3310,Santa Fe,Santa Fe,SF,4491,AR
2315,3311,Mar del Plata,Buenos Aires,BA,8023,AR
2316,3312,Córdoba,Córdoba,CBA,5942,AR
2317,3313,Villa Carlos Paz,Córdoba,CBA,5087,AR
2318,3314,La Plata,Buenos Aires,BA,2350,AR
2319,3315,CABA,Buenos Aires,BA,4039,AR
2320,3316,Mar del Plata,Buenos Aires,BA,6294,AR
2321,3317,Santa Fe,Santa Fe,SF,6952,AR
2322,3318,CABA,Buenos Aires,BA,9529,AR
2323,3319,Godoy Cruz,Mendoza,MZA,9301,AR
2324,3320,Mendoza,Mendoza,MZA,8089,AR
2325,3321,Mar del Plata,Buenos Aires,BA,9271,AR
2326,3322,Rosario,Santa Fe,SF,8465,AR
2327,3323,CABA,Buenos Aires,BA,5243,AR
2328,3324,Santa Fe,Santa Fe,SF,5817,AR
2329,3325,CABA,Buenos Aires,BA,3949,AR
2330,3326,Mar del Plata,Buenos Aires,BA,1056,AR
2331,3327,Mar del Plata,Buenos Aires,BA,8960,AR
2332,3328,CABA,Buenos Aires,BA,9216,AR
2333,3329,Mar del Plata,Buenos Aires,BA,3426,AR
2334,3330,CABA,Buenos Aires,BA,8717,AR
2335,3331,Rafaela,Santa Fe,SF,1523,AR
2336,3332,CABA,Buenos Aires,BA,4738,AR
2337,3333,Rosario,Santa Fe,SF,6151,AR
2338,3334,La Plata,Buenos Aires,BA,1125,AR
2339,3335,Mar del Plata,Buenos Aires,BA,8608,AR
2340,3336,CABA,Buenos Aires,BA,5916,AR
2341,3337,Río Cuarto,Córdoba,CBA,6454,AR
2342,3338,Rafaela,Santa Fe,SF,8692,AR
2343,3339,La Plata,Buenos Aires,BA,1596,AR
2344,3340,Mar del Plata,Buenos Aires,BA,7316,AR
2345,3341,Santa Fe,Santa Fe,SF,4724,AR
2346,3342,Córdoba,Córdoba,CBA,5105,AR
2347,3343,Santa Fe,Santa Fe,SF,6438,AR
2348,3344,La Plata,Buenos Aires,BA,1341,AR
2349,3345,Rosario,Santa Fe,SF,8043,AR
2350,3346,Villa Carlos Paz,Córdoba,CBA,1242,AR
2351,3347,CABA,Buenos Aires,BA,4941,AR
2352,3348,La Plata,Buenos Aires,BA,7538,AR
2353,3349,La Plata,Buenos Aires,BA,5896,AR
2354,3350,La Plata,Buenos Aires,BA,4185,AR
2355,3351,Río Cuarto,Córdoba,CBA,5845,AR
2356,3352,La Plata,Buenos Aires,BA,4017,AR
2357,3353,Villa Carlos Paz,Córdoba,CBA,1522,AR
2358,3354,Mar del Plata,Buenos Aires,BA,6603,AR
2359,3355,Godoy Cruz,Mendoza,MZA,6166,AR
2360,3356,Mar del Plata,Buenos Aires,BA,7206,AR
2361,3357,CABA,Buenos Aires,BA,4488,AR
2362,3358,Río Cuarto,Córdoba,CBA,6879,AR
2363,3359,Mendoza,Mendoza,MZA,9607,AR
2364,3360,La Plata,Buenos Aires,BA,7427,AR
2365,3361,San Rafael,Mendoza,MZA,2625,AR
2366,3362,CABA,Buenos Aires,BA,5948,AR
2367,3363,Mar del Plata,Buenos Aires,BA,3885,AR
2368,3364,CABA,Buenos Aires,BA,3067,AR
2369,3365,Rosario,Santa Fe,SF,9193,AR
2370,3366,La Plata,Buenos Aires,BA,7848,AR
2371,3367,Córdoba,Córdoba,CBA,4467,AR
2372,3368,Villa Carlos Paz,Córdoba,CBA,1033,AR
2373,3369,Córdoba,Córdoba,CBA,2629,AR
2374,3370,La Plata,Buenos Aires,BA,9064,AR
2375,3371,La Plata,Buenos Aires,BA,8364,AR
2376,3372,La Plata,Buenos Aires,BA,4839,AR
2377,3373,San Rafael,Mendoza,MZA,5667,AR
2378,3374,La Plata,Buenos Aires,BA,2937,AR
2379,3375,Godoy Cruz,Mendoza,MZA,2315,AR
2380,3376,Godoy Cruz,Mendoza,MZA,1957,AR
2381,3377,La Plata,Buenos Aires,BA,3623,AR
2382,3378,Mar del Plata,Buenos Aires,BA,7664,AR
2383,3379,Rafaela,Santa Fe,SF,2134,AR
2384,3380,Mar del Plata,Buenos Aires,BA,7330,AR
2385,3381,Córdoba,Córdoba,CBA,4250,AR
2386,3382,La Plata,Buenos Aires,BA,7202,AR
2387,3383,Río Cuarto,Córdoba,CBA,9158,AR
2388,3384,CABA,Buenos Aires,BA,1656,AR
2389,3385,Mendoza,Mendoza,MZA,4986,AR
2390,3386,La Plata,Buenos Aires,BA,7225,AR
2391,3387,La Plata,Buenos Aires,BA,9042,AR
2392,3388,Mar del Plata,Buenos Aires,BA,6584,AR
2393,3389,Mendoza,Mendoza,MZA,1496,AR
2394,3390,Rosario,Santa Fe,SF,8062,AR
2395,3391,Rosario,Santa Fe,SF,3999,AR
2396,3392,La Plata,Buenos Aires,BA,7426,AR
2397,3393,Godoy Cruz,Mendoza,MZA,9377,AR
2398,3394,Córdoba,Córdoba,CBA,7022,AR
2399,3395,La Plata,Buenos Aires,BA,3123,AR
2400,3396,Mar del Plata,Buenos Aires,BA,7909,AR
2401,3397,Santa Fe,Santa Fe,SF,6235,AR
2402,3398,Río Cuarto,Córdoba,CBA,3268,AR
2403,3399,CABA,Buenos Aires,BA,1071,AR
2404,3400,CABA,Buenos Aires,BA,5700,AR
2405,3401,San Rafael,Mendoza,MZA,2904,AR
2406,3402,Mar del Plata,Buenos Aires,BA,4771,AR
2407,3403,La Plata,Buenos Aires,BA,4981,AR
2408,3404,Mar del Plata,Buenos Aires,BA,6188,AR
2409,3405,Villa Carlos Paz,Córdoba,CBA,1192,AR
2410,3406,Mar del Plata,Buenos Aires,BA,4284,AR
2411,3407,CABA,Buenos Aires,BA,9247,AR
2412,3408,La Plata,Buenos Aires,BA,7928,AR
2413,3409,Villa Carlos Paz,Córdoba,CBA,9171,AR
2414,3410,Villa Carlos Paz,Córdoba,CBA,5686,AR
2415,3411,Rafaela,Santa Fe,SF,7869,AR
2416,3412,Córdoba,Córdoba,CBA,7055,AR
2417,3413,Mendoza,Mendoza,MZA,2268,AR
2418,3414,Santa Fe,Santa Fe,SF,9693,AR
2419,3415,CABA,Buenos Aires,BA,5683,AR
2420,3416,Córdoba,Córdoba,CBA,2046,AR
2421,3417,Mar del Plata,Buenos Aires,BA,6409,AR
2422,3418,Mar del Plata,Buenos Aires,BA,8820,AR
2423,3419,La Plata,Buenos Aires,BA,1196,AR
2424,3420,San Rafael,Mendoza,MZA,2802,AR
2425,3421,Santa Fe,Santa Fe,SF,1609,AR
2426,3422,Rafaela,Santa Fe,SF,8925,AR
2427,3423,CABA,Buenos Aires,BA,9476,AR
2428,3424,Mar del Plata,Buenos Aires,BA,6836,AR
2429,3425,CABA,Buenos Aires,BA,1682,AR
2430,3426,Santa Fe,Santa Fe,SF,5187,AR
2431,3427,Córdoba,Córdoba,CBA,8204,AR
2432,3428,CABA,Buenos Aires,BA,5625,AR
2433,3429,Mar del Plata,Buenos Aires,BA,6491,AR
2434,3430,Mar del Plata,Buenos Aires,BA,8008,AR
2435,3431,CABA,Buenos Aires,BA,9444,AR
2436,3432,La Plata,Buenos Aires,BA,4636,AR
2437,3433,Mar del Plata,Buenos Aires,BA,3696,AR
2438,3434,Mar del Plata,Buenos Aires,BA,4908,AR
2439,3435,Santa Fe,Santa Fe,SF,3049,AR
2440,3436,Córdoba,Córdoba,CBA,8784,AR
2441,3437,Mar del Plata,Buenos Aires,BA,3297,AR
2442,3438,Mar del Plata,Buenos Aires,BA,4250,AR
2443,3439,Rosario,Santa Fe,SF,2199,AR
2444,3440,Rafaela,Santa Fe,SF,5755,AR
2445,3441,Mar del Plata,Buenos Aires,BA,8324,AR
2446,3442,Mar del Plata,Buenos Aires,BA,2774,AR
2447,3443,Mar del Plata,Buenos Aires,BA,8458,AR
2448,3444,Mar del Plata,Buenos Aires,BA,9585,AR
2449,3445,La Plata,Buenos Aires,BA,3495,AR
2450,3446,Godoy Cruz,Mendoza,MZA,4215,AR
2451,3447,Río Cuarto,Córdoba,CBA,5233,AR
2452,3448,San Rafael,Mendoza,MZA,5661,AR
2453,3449,Villa Carlos Paz,Córdoba,CBA,2872,AR
2454,3450,Godoy Cruz,Mendoza,MZA,1718,AR
2455,3451,CABA,Buenos Aires,BA,3204,AR
2456,3452,Mar del Plata,Buenos Aires,BA,6509,AR
2457,3453,Rosario,Santa Fe,SF,6868,AR
2458,3454,Rafaela,Santa Fe,SF,8733,AR
2459,3455,Santa Fe,Santa Fe,SF,7346,AR
2460,3456,Córdoba,Córdoba,CBA,9107,AR
2461,3457,Santa Fe,Santa Fe,SF,6085,AR
2462,3458,La Plata,Buenos Aires,BA,3105,AR
2463,3459,CABA,Buenos Aires,BA,1813,AR
2464,3460,Mar del Plata,Buenos Aires,BA,1394,AR
2465,3461,Santa Fe,Santa Fe,SF,7564,AR
2466,3462,Río Cuarto,Córdoba,CBA,4556,AR
2467,3463,Córdoba,Córdoba,CBA,1617,AR
2468,3464,Mar del Plata,Buenos Aires,BA,9536,AR
2469,3465,Villa Carlos Paz,Córdoba,CBA,6503,AR
2470,3466,Mar del Plata,Buenos Aires,BA,4770,AR
2471,3467,San Rafael,Mendoza,MZA,7958,AR
2472,3468,La Plata,Buenos Aires,BA,9386,AR
2473,3469,CABA,Buenos Aires,BA,5965,AR
2474,3470,Santa Fe,Santa Fe,SF,2206,AR
2475,3471,La Plata,Buenos Aires,BA,1137,AR
2476,3472,CABA,Buenos Aires,BA,3285,AR
2477,3473,Córdoba,Córdoba,CBA,4813,AR
2478,3474,San Rafael,Mendoza,MZA,7644,AR
2479,3475,Mar del Plata,Buenos Aires,BA,7522,AR
2480,3476,Río Cuarto,Córdoba,CBA,9925,AR
2481,3477,San Rafael,Mendoza,MZA,3645,AR
2482,3478,Mendoza,Mendoza,MZA,8082,AR
2483,3479,Mar del Plata,Buenos Aires,BA,8332,AR
2484,3480,La Plata,Buenos Aires,BA,8598,AR
2485,3481,Córdoba,Córdoba,CBA,3221,AR
2486,3482,La Plata,Buenos Aires,BA,6287,AR
2487,3483,CABA,Buenos Aires,BA,9719,AR
2488,3484,CABA,Buenos Aires,BA,7349,AR
2489,3485,Mar del Plata,Buenos Aires,BA,6775,AR
2490,3486,CABA,Buenos Aires,BA,2870,AR
2491,3487,CABA,Buenos Aires,BA,1071,AR
2492,3488,Mar del Plata,Buenos Aires,BA,6727,AR
2493,3489,San Rafael,Mendoza,MZA,4214,AR
2494,3490,Mar del Plata,Buenos Aires,BA,2045,AR
2495,3491,Mar del Plata,Buenos Aires,BA,1376,AR
2496,3492,Río Cuarto,Córdoba,CBA,4720,AR
2497,3493,CABA,Buenos Aires,BA,7298,AR
2498,3494,Rosario,Santa Fe,SF,3229,AR
2499,3495,Santa Fe,Santa Fe,SF,6955,AR
2500,3496,Mar del Plata,Buenos Aires,BA,9107,AR
2501,3497,Santa Fe,Santa Fe,SF,7684,AR
2502,3498,Mar del Plata,Buenos Aires,BA,6929,AR
2503,3499,La Plata,Buenos Aires,BA,5598,AR
2504,3500,Río Cuarto,Córdoba,CBA,9423,AR
2505,3501,Villa Carlos Paz,Córdoba,CBA,6786,AR
2506,3502,San Rafael,Mendoza,MZA,8113,AR
2507,3503,Rafaela,Santa Fe,SF,8548,AR
2508,3504,La Plata,Buenos Aires,BA,4992,AR
2509,3505,Rafaela,Santa Fe,SF,5125,AR
2510,3506,Mar del Plata,Buenos Aires,BA,9774,AR
2511,3507,Mar del Plata,Buenos Aires,BA,1522,AR
2512,3508,La Plata,Buenos Aires,BA,1837,AR
2513,3509,CABA,Buenos Aires,BA,8658,AR
2514,3510,Mar del Plata,Buenos Aires,BA,5417,AR
2515,3511,Río Cuarto,Córdoba,CBA,2039,AR
2516,3512,Mar del Plata,Buenos Aires,BA,3173,AR
2517,3513,La Plata,Buenos Aires,BA,6106,AR
2518,3514,CABA,Buenos Aires,BA,4809,AR
2519,3515,Rafaela,Santa Fe,SF,2829,AR
2520,3516,La Plata,Buenos Aires,BA,7571,AR
2521,3517,La Plata,Buenos Aires,BA,7230,AR
2522,3518,Santa Fe,Santa Fe,SF,9124,AR
2523,3519,Mar del Plata,Buenos Aires,BA,2314,AR
2524,3520,Villa Carlos Paz,Córdoba,CBA,4803,AR
2525,3521,La Plata,Buenos Aires,BA,4603,AR
2526,3522,Villa Carlos Paz,Córdoba,CBA,7811,AR
2527,3523,La Plata,Buenos Aires,BA,2423,AR
2528,3524,Santa Fe,Santa Fe,SF,7969,AR
2529,3525,Rosario,Santa Fe,SF,9613,AR
2530,3526,Mar del Plata,Buenos Aires,BA,1970,AR
2531,3527,Córdoba,Córdoba,CBA,4848,AR
2532,3528,Godoy Cruz,Mendoza,MZA,1532,AR
2533,3529,Río Cuarto,Córdoba,CBA,8220,AR
2534,3530,Córdoba,Córdoba,CBA,9700,AR
2535,3531,CABA,Buenos Aires,BA,5780,AR
2536,3532,La Plata,Buenos Aires,BA,7000,AR
2537,3533,Rosario,Santa Fe,SF,2754,AR
2538,3534,La Plata,Buenos Aires,BA,8644,AR
2539,3535,Córdoba,Córdoba,CBA,1397,AR
2540,3536,Córdoba,Córdoba,CBA,5901,AR
2541,3537,Mar del Plata,Buenos Aires,BA,3568,AR
2542,3538,Mar del Plata,Buenos Aires,BA,3409,AR
2543,3539,Godoy Cruz,Mendoza,MZA,2052,AR
2544,3540,CABA,Buenos Aires,BA,2366,AR
2545,3541,Villa Carlos Paz,Córdoba,CBA,2604,AR
2546,3542,Mar del Plata,Buenos Aires,BA,8544,AR
2547,3543,Rosario,Santa Fe,SF,8984,AR
2548,3544,La Plata,Buenos Aires,BA,7113,AR
2549,3545,La Plata,Buenos Aires,BA,1096,AR
2550,3546,Santa Fe,Santa Fe,SF,1560,AR
2551,3547,Villa Carlos Paz,Córdoba,CBA,9241,AR
2552,3548,La Plata,Buenos Aires,BA,5459,AR
2553,3549,Río Cuarto,Córdoba,CBA,6701,AR
2554,3550,Río Cuarto,Córdoba,CBA,1731,AR
2555,3551,Rafaela,Santa Fe,SF,1794,AR
2556,3552,CABA,Buenos Aires,BA,9937,AR
2557,3553,CABA,Buenos Aires,BA,6925,AR
2558,3554,Mar del Plata,Buenos Aires,BA,7336,AR
2559,3555,Mar del Plata,Buenos Aires,BA,4892,AR
2560,3556,Río Cuarto,Córdoba,CBA,5022,AR
2561,3557,Villa Carlos Paz,Córdoba,CBA,8964,AR
2562,3558,CABA,Buenos Aires,BA,2323,AR
2563,3559,Córdoba,Córdoba,CBA,2870,AR
2564,3560,Mar del Plata,Buenos Aires,BA,2707,AR
2565,3561,CABA,Buenos Aires,BA,2318,AR
2566,3562,Santa Fe,Santa Fe,SF,8743,AR
2567,3563,Villa Carlos Paz,Córdoba,CBA,8430,AR
2568,3564,CABA,Buenos Aires,BA,9208,AR
2569,3565,CABA,Buenos Aires,BA,7566,AR
2570,3566,La Plata,Buenos Aires,BA,1413,AR
2571,3567,CABA,Buenos Aires,BA,5693,AR
2572,3568,CABA,Buenos Aires,BA,7238,AR
2573,3569,La Plata,Buenos Aires,BA,4355,AR
2574,3570,Mar del Plata,Buenos Aires,BA,2585,AR
2575,3571,Mar del Plata,Buenos Aires,BA,9378,AR
2576,3572,La Plata,Buenos Aires,BA,7810,AR
2577,3573,La Plata,Buenos Aires,BA,9364,AR
2578,3574,Mendoza,Mendoza,MZA,1048,AR
2579,3575,CABA,Buenos Aires,BA,7579,AR
2580,3576,Córdoba,Córdoba,CBA,2861,AR
2581,3577,CABA,Buenos Aires,BA,5590,AR
2582,3578,La Plata,Buenos Aires,BA,2543,AR
2583,3579,CABA,Buenos Aires,BA,8861,AR
2584,3580,CABA,Buenos Aires,BA,7561,AR
2585,3581,Santa Fe,Santa Fe,SF,8816,AR
2586,3582,Villa Carlos Paz,Córdoba,CBA,3208,AR
2587,3583,CABA,Buenos Aires,BA,7840,AR
2588,3584,CABA,Buenos Aires,BA,1154,AR
2589,3585,CABA,Buenos Aires,BA,7683,AR
2590,3586,Rosario,Santa Fe,SF,8350,AR
2591,3587,Villa Carlos Paz,Córdoba,CBA,7725,AR
2592,3588,Mar del Plata,Buenos Aires,BA,9610,AR
2593,3589,CABA,Buenos Aires,BA,9185,AR
2594,3590,La Plata,Buenos Aires,BA,2882,AR
2595,3591,Mar del Plata,Buenos Aires,BA,2259,AR
2596,3592,Río Cuarto,Córdoba,CBA,1743,AR
2597,3593,Córdoba,Córdoba,CBA,6853,AR
2598,3594,La Plata,Buenos Aires,BA,4840,AR
2599,3595,Rosario,Santa Fe,SF,3525,AR
2600,3596,Godoy Cruz,Mendoza,MZA,4018,AR
2601,3597,Córdoba,Córdoba,CBA,2741,AR
2602,3598,Villa Carlos Paz,Córdoba,CBA,4821,AR
2603,3599,CABA,Buenos Aires,BA,6215,AR
2604,3600,La Plata,Buenos Aires,BA,1142,AR
2605,3601,Río Cuarto,Córdoba,CBA,6011,AR
2606,3602,Rafaela,Santa Fe,SF,1526,AR
2607,3603,San Rafael,Mendoza,MZA,8551,AR
2608,3604,Córdoba,Córdoba,CBA,7561,AR
2609,3605,CABA,Buenos Aires,BA,8025,AR
2610,3606,Mar del Plata,Buenos Aires,BA,5812,AR
2611,3607,Córdoba,Córdoba,CBA,3797,AR
2612,3608,Mar del Plata,Buenos Aires,BA,7746,AR
2613,3609,CABA,Buenos Aires,BA,2542,AR
2614,3610,La Plata,Buenos Aires,BA,5435,AR
2615,3611,Río Cuarto,Córdoba,CBA,5008,AR
2616,3612,Mar del Plata,Buenos Aires,BA,2488,AR
2617,3613,Río Cuarto,Córdoba,CBA,7824,AR
2618,3614,Mar del Plata,Buenos Aires,BA,6759,AR
2619,3615,Río Cuarto,Córdoba,CBA,6241,AR
2620,3616,Rosario,Santa Fe,SF,9332,AR
2621,3617,CABA,Buenos Aires,BA,6215,AR
2622,3618,La Plata,Buenos Aires,BA,1577,AR
2623,3619,La Plata,Buenos Aires,BA,3838,AR
2624,3620,Córdoba,Córdoba,CBA,5096,AR
2625,3621,Rafaela,Santa Fe,SF,4776,AR
2626,3622,Mar del Plata,Buenos Aires,BA,7957,AR
2627,3623,CABA,Buenos Aires,BA,5913,AR
2628,3624,CABA,Buenos Aires,BA,7077,AR
2629,3625,San Rafael,Mendoza,MZA,1610,AR
2630,3626,La Plata,Buenos Aires,BA,3893,AR
2631,3627,Mendoza,Mendoza,MZA,8368,AR
2632,3628,CABA,Buenos Aires,BA,5456,AR
2633,3629,Rosario,Santa Fe,SF,5642,AR
2634,3630,Mar del Plata,Buenos Aires,BA,1734,AR
2635,3631,Mar del Plata,Buenos Aires,BA,6574,AR
2636,3632,Mar del Plata,Buenos Aires,BA,7585,AR
2637,3633,La Plata,Buenos Aires,BA,8487,AR
2638,3634,CABA,Buenos Aires,BA,8098,AR
2639,3635,La Plata,Buenos Aires,BA,4520,AR
2640,3636,Mar del Plata,Buenos Aires,BA,8871,AR
2641,3637,Mar del Plata,Buenos Aires,BA,2254,AR
2642,3638,Villa Carlos Paz,Córdoba,CBA,9051,AR
2643,3639,Mar del Plata,Buenos Aires,BA,7028,AR
2644,3640,Villa Carlos Paz,Córdoba,CBA,6490,AR
2645,3641,Mar del Plata,Buenos Aires,BA,6093,AR
2646,3642,Mar del Plata,Buenos Aires,BA,2181,AR
2647,3643,Rafaela,Santa Fe,SF,3037,AR
2648,3644,Mendoza,Mendoza,MZA,9829,AR
2649,3645,Santa Fe,Santa Fe,SF,5929,AR
2650,3646,Mendoza,Mendoza,MZA,5005,AR
2651,3647,Rosario,Santa Fe,SF,4616,AR
2652,3648,Córdoba,Córdoba,CBA,9999,AR
2653,3649,Córdoba,Córdoba,CBA,3415,AR
2654,3650,Mar del Plata,Buenos Aires,BA,7345,AR
2655,3651,CABA,Buenos Aires,BA,5157,AR
2656,3652,Córdoba,Córdoba,CBA,5007,AR
2657,3653,CABA,Buenos Aires,BA,8204,AR
2658,3654,Mar del Plata,Buenos Aires,BA,8315,AR
2659,3655,La Plata,Buenos Aires,BA,7774,AR
2660,3656,La Plata,Buenos Aires,BA,9346,AR
2661,3657,San Rafael,Mendoza,MZA,7133,AR
2662,3658,Río Cuarto,Córdoba,CBA,3266,AR
2663,3659,Santa Fe,Santa Fe,SF,8802,AR
2664,3660,Mar del Plata,Buenos Aires,BA,3462,AR
2665,3661,Godoy Cruz,Mendoza,MZA,6048,AR
2666,3662,La Plata,Buenos Aires,BA,4402,AR
2667,3663,Mar del Plata,Buenos Aires,BA,5550,AR
2668,3664,Santa Fe,Santa Fe,SF,4967,AR
2669,3665,Villa Carlos Paz,Córdoba,CBA,6987,AR
2670,3666,CABA,Buenos Aires,BA,8042,AR
2671,3667,Río Cuarto,Córdoba,CBA,1473,AR
2672,3668,Mar del Plata,Buenos Aires,BA,7904,AR
2673,3669,Mar del Plata,Buenos Aires,BA,6150,AR
2674,3670,CABA,Buenos Aires,BA,5533,AR
2675,3671,La Plata,Buenos Aires,BA,2523,AR
2676,3672,Río Cuarto,Córdoba,CBA,5598,AR
2677,3673,Villa Carlos Paz,Córdoba,CBA,9971,AR
2678,3674,Córdoba,Córdoba,CBA,7621,AR
2679,3675,San Rafael,Mendoza,MZA,5525,AR
2680,3676,Río Cuarto,Córdoba,CBA,4046,AR
2681,3677,La Plata,Buenos Aires,BA,4964,AR
2682,3678,CABA,Buenos Aires,BA,2101,AR
2683,3679,Rafaela,Santa Fe,SF,8938,AR
2684,3680,CABA,Buenos Aires,BA,5150,AR
2685,3681,Río Cuarto,Córdoba,CBA,5902,AR
2686,3682,Rosario,Santa Fe,SF,5620,AR
2687,3683,Mar del Plata,Buenos Aires,BA,4697,AR
2688,3684,San Rafael,Mendoza,MZA,8849,AR
2689,3685,CABA,Buenos Aires,BA,1141,AR
2690,3686,La Plata,Buenos Aires,BA,9757,AR
2691,3687,Mar del Plata,Buenos Aires,BA,2948,AR
2692,3688,Villa Carlos Paz,Córdoba,CBA,9560,AR
2693,3689,Río Cuarto,Córdoba,CBA,6411,AR
2694,3690,Rosario,Santa Fe,SF,4524,AR
2695,3691,CABA,Buenos Aires,BA,9974,AR
2696,3692,Córdoba,Córdoba,CBA,4097,AR
2697,3693,Mar del Plata,Buenos Aires,BA,7061,AR
2698,3694,Córdoba,Córdoba,CBA,3840,AR
2699,3695,CABA,Buenos Aires,BA,2427,AR
2700,3696,Córdoba,Córdoba,CBA,6838,AR
2701,3697,CABA,Buenos Aires,BA,4109,AR
2702,3698,Santa Fe,Santa Fe,SF,2635,AR
2703,3699,Río Cuarto,Córdoba,CBA,6125,AR
2704,3700,Mar del Plata,Buenos Aires,BA,6333,AR
2705,3701,Mar del Plata,Buenos Aires,BA,3316,AR
2706,3702,San Rafael,Mendoza,MZA,7831,AR
2707,3703,Río Cuarto,Córdoba,CBA,7265,AR
2708,3704,Córdoba,Córdoba,CBA,3622,AR
2709,3705,Mar del Plata,Buenos Aires,BA,7838,AR
2710,3706,Mendoza,Mendoza,MZA,7588,AR
2711,3707,Villa Carlos Paz,Córdoba,CBA,9668,AR
2712,3708,Villa Carlos Paz,Córdoba,CBA,1182,AR
2713,3709,Córdoba,Córdoba,CBA,8468,AR
2714,3710,Córdoba,Córdoba,CBA,5379,AR
2715,3711,La Plata,Buenos Aires,BA,3000,AR
2716,3712,Córdoba,Córdoba,CBA,6426,AR
2717,3713,Rafaela,Santa Fe,SF,1261,AR
2718,3714,Mar del Plata,Buenos Aires,BA,1209,AR
2719,3715,Santa Fe,Santa Fe,SF,6588,AR
2720,3716,Córdoba,Córdoba,CBA,8137,AR
2721,3717,Godoy Cruz,Mendoza,MZA,6394,AR
2722,3718,CABA,Buenos Aires,BA,9697,AR
2723,3719,Godoy Cruz,Mendoza,MZA,2213,AR
2724,3720,CABA,Buenos Aires,BA,1377,AR
2725,3721,San Rafael,Mendoza,MZA,5578,AR
2726,3722,Santa Fe,Santa Fe,SF,4511,AR
2727,3723,La Plata,Buenos Aires,BA,9536,AR
2728,3724,Río Cuarto,Córdoba,CBA,6046,AR
2729,3725,Córdoba,Córdoba,CBA,6925,AR
2730,3726,CABA,Buenos Aires,BA,2523,AR
2731,3727,Mar del Plata,Buenos Aires,BA,3065,AR
2732,3728,Mar del Plata,Buenos Aires,BA,9662,AR
2733,3729,Santa Fe,Santa Fe,SF,3732,AR
2734,3730,Rafaela,Santa Fe,SF,9610,AR
2735,3731,Córdoba,Córdoba,CBA,5021,AR
2736,3732,La Plata,Buenos Aires,BA,9768,AR
2737,3733,Villa Carlos Paz,Córdoba,CBA,9231,AR
2738,3734,Villa Carlos Paz,Córdoba,CBA,8858,AR
2739,3735,Río Cuarto,Córdoba,CBA,3401,AR
2740,3736,Mar del Plata,Buenos Aires,BA,6646,AR
2741,3737,Córdoba,Córdoba,CBA,5498,AR
2742,3738,Villa Carlos Paz,Córdoba,CBA,9627,AR
2743,3739,Córdoba,Córdoba,CBA,2930,AR
2744,3740,La Plata,Buenos Aires,BA,6826,AR
2745,3741,La Plata,Buenos Aires,BA,8218,AR
2746,3742,Córdoba,Córdoba,CBA,6750,AR
2747,3743,Rosario,Santa Fe,SF,2406,AR
2748,3744,Río Cuarto,Córdoba,CBA,3068,AR
2749,3745,Mar del Plata,Buenos Aires,BA,8857,AR
2750,3746,CABA,Buenos Aires,BA,8141,AR
2751,3747,San Rafael,Mendoza,MZA,4342,AR
2752,3748,San Rafael,Mendoza,MZA,8186,AR
2753,3749,Mar del Plata,Buenos Aires,BA,2709,AR
2754,3750,La Plata,Buenos Aires,BA,3527,AR
2755,3751,La Plata,Buenos Aires,BA,3257,AR
2756,3752,Mar del Plata,Buenos Aires,BA,5897,AR
2757,3753,Mar del Plata,Buenos Aires,BA,7697,AR
2758,3754,Río Cuarto,Córdoba,CBA,3796,AR
2759,3755,Santa Fe,Santa Fe,SF,5028,AR
2760,3756,Villa Carlos Paz,Córdoba,CBA,2463,AR
2761,3757,La Plata,Buenos Aires,BA,7515,AR
2762,3758,Villa Carlos Paz,Córdoba,CBA,8304,AR
2763,3759,Córdoba,Córdoba,CBA,9271,AR
2764,3760,La Plata,Buenos Aires,BA,5897,AR
2765,3761,Rafaela,Santa Fe,SF,8036,AR
2766,3762,Córdoba,Córdoba,CBA,8796,AR
2767,3763,La Plata,Buenos Aires,BA,8887,AR
2768,3764,La Plata,Buenos Aires,BA,6012,AR
2769,3765,Godoy Cruz,Mendoza,MZA,2668,AR
2770,3766,Rafaela,Santa Fe,SF,5352,AR
2771,3767,Mar del Plata,Buenos Aires,BA,4448,AR
2772,3768,Villa Carlos Paz,Córdoba,CBA,2798,AR
2773,3769,San Rafael,Mendoza,MZA,5714,AR
2774,3770,CABA,Buenos Aires,BA,3187,AR
2775,3771,La Plata,Buenos Aires,BA,5170,AR
2776,3772,La Plata,Buenos Aires,BA,9748,AR
2777,3773,Santa Fe,Santa Fe,SF,3484,AR
2778,3774,Rafaela,Santa Fe,SF,6636,AR
2779,3775,Villa Carlos Paz,Córdoba,CBA,7697,AR
2780,3776,Mar del Plata,Buenos Aires,BA,4168,AR
2781,3777,CABA,Buenos Aires,BA,1298,AR
2782,3778,La Plata,Buenos Aires,BA,5169,AR
2783,3779,Villa Carlos Paz,Córdoba,CBA,6232,AR
2784,3780,San Rafael,Mendoza,MZA,7593,AR
2785,3781,CABA,Buenos Aires,BA,1316,AR
2786,3782,Mar del Plata,Buenos Aires,BA,8181,AR
2787,3783,Godoy Cruz,Mendoza,MZA,9009,AR
2788,3784,Mar del Plata,Buenos Aires,BA,2603,AR
2789,3785,Mendoza,Mendoza,MZA,7950,AR
2790,3786,CABA,Buenos Aires,BA,4934,AR
2791,3787,Santa Fe,Santa Fe,SF,9012,AR
2792,3788,CABA,Buenos Aires,BA,2398,AR
2793,3789,La Plata,Buenos Aires,BA,2219,AR
2794,3790,Mar del Plata,Buenos Aires,BA,6075,AR
2795,3791,Mar del Plata,Buenos Aires,BA,8235,AR
2796,3792,Godoy Cruz,Mendoza,MZA,1844,AR
2797,3793,Córdoba,Córdoba,CBA,3512,AR
2798,3794,Rafaela,Santa Fe,SF,4887,AR
2799,3795,Santa Fe,Santa Fe,SF,8031,AR
2800,3796,CABA,Buenos Aires,BA,5322,AR
2801,3797,CABA,Buenos Aires,BA,9954,AR
2802,3798,Rafaela,Santa Fe,SF,5327,AR
2803,3799,La Plata,Buenos Aires,BA,5590,AR
2804,3800,Mendoza,Mendoza,MZA,2398,AR
2805,3801,La Plata,Buenos Aires,BA,3365,AR
2806,3802,Mar del Plata,Buenos Aires,BA,8283,AR
2807,3803,CABA,Buenos Aires,BA,5262,AR
2808,3804,Córdoba,Córdoba,CBA,4249,AR
2809,3805,CABA,Buenos Aires,BA,3768,AR
2810,3806,La Plata,Buenos Aires,BA,7469,AR
2811,3807,La Plata,Buenos Aires,BA,7910,AR
2812,3808,Mar del Plata,Buenos Aires,BA,7114,AR
2813,3809,Mar del Plata,Buenos Aires,BA,4039,AR
2814,3810,CABA,Buenos Aires,BA,1808,AR
2815,3811,La Plata,Buenos Aires,BA,3651,AR
2816,3812,Rafaela,Santa Fe,SF,8655,AR
2817,3813,Mar del Plata,Buenos Aires,BA,4779,AR
2818,3814,La Plata,Buenos Aires,BA,1253,AR
2819,3815,La Plata,Buenos Aires,BA,1869,AR
2820,3816,Río Cuarto,Córdoba,CBA,4077,AR
2821,3817,Mendoza,Mendoza,MZA,8575,AR
2822,3818,La Plata,Buenos Aires,BA,7520,AR
2823,3819,Santa Fe,Santa Fe,SF,3854,AR
2824,3820,Mar del Plata,Buenos Aires,BA,7010,AR
2825,3821,CABA,Buenos Aires,BA,9933,AR
2826,3822,Santa Fe,Santa Fe,SF,1069,AR
2827,3823,CABA,Buenos Aires,BA,6538,AR
2828,3824,CABA,Buenos Aires,BA,2335,AR
2829,3825,CABA,Buenos Aires,BA,2421,AR
2830,3826,Mar del Plata,Buenos Aires,BA,4613,AR
2831,3827,Rafaela,Santa Fe,SF,2334,AR
2832,3828,Córdoba,Córdoba,CBA,1933,AR
2833,3829,La Plata,Buenos Aires,BA,7425,AR
2834,3830,CABA,Buenos Aires,BA,4916,AR
2835,3831,La Plata,Buenos Aires,BA,8495,AR
2836,3832,Santa Fe,Santa Fe,SF,4677,AR
2837,3833,Mar del Plata,Buenos Aires,BA,2311,AR
2838,3834,Rosario,Santa Fe,SF,7884,AR
2839,3835,La Plata,Buenos Aires,BA,5951,AR
2840,3836,Mar del Plata,Buenos Aires,BA,4558,AR
2841,3837,La Plata,Buenos Aires,BA,3657,AR
2842,3838,Mar del Plata,Buenos Aires,BA,8820,AR
2843,3839,Rosario,Santa Fe,SF,7425,AR
2844,3840,Santa Fe,Santa Fe,SF,7853,AR
2845,3841,Mar del Plata,Buenos Aires,BA,7347,AR
2846,3842,La Plata,Buenos Aires,BA,1170,AR
2847,3843,Mar del Plata,Buenos Aires,BA,1186,AR
2848,3844,Mar del Plata,Buenos Aires,BA,2108,AR
2849,3845,La Plata,Buenos Aires,BA,8220,AR
2850,3846,La Plata,Buenos Aires,BA,7656,AR
2851,3847,La Plata,Buenos Aires,BA,2142,AR
2852,3848,La Plata,Buenos Aires,BA,7872,AR
2853,3849,CABA,Buenos Aires,BA,5709,AR
2854,3850,CABA,Buenos Aires,BA,4764,AR
2855,3851,CABA,Buenos Aires,BA,5236,AR
2856,3852,Córdoba,Córdoba,CBA,4124,AR
2857,3853,La Plata,Buenos Aires,BA,2480,AR
2858,3854,CABA,Buenos Aires,BA,7267,AR
2859,3855,Mar del Plata,Buenos Aires,BA,6581,AR
2860,3856,Mar del Plata,Buenos Aires,BA,6932,AR
2861,3857,Mendoza,Mendoza,MZA,8275,AR
2862,3858,Santa Fe,Santa Fe,SF,8858,AR
2863,3859,Santa Fe,Santa Fe,SF,9918,AR
2864,3860,CABA,Buenos Aires,BA,3765,AR
2865,3861,CABA,Buenos Aires,BA,7574,AR
2866,3862,San Rafael,Mendoza,MZA,9593,AR
2867,3863,Mar del Plata,Buenos Aires,BA,5122,AR
2868,3864,Rafaela,Santa Fe,SF,8764,AR
2869,3865,CABA,Buenos Aires,BA,3994,AR
2870,3866,Córdoba,Córdoba,CBA,2287,AR
2871,3867,La Plata,Buenos Aires,BA,3458,AR
2872,3868,CABA,Buenos Aires,BA,6912,AR
2873,3869,La Plata,Buenos Aires,BA,3252,AR
2874,3870,La Plata,Buenos Aires,BA,6235,AR
2875,3871,Santa Fe,Santa Fe,SF,5142,AR
2876,3872,CABA,Buenos Aires,BA,8885,AR
2877,3873,Godoy Cruz,Mendoza,MZA,4304,AR
2878,3874,Villa Carlos Paz,Córdoba,CBA,4541,AR
2879,3875,Mar del Plata,Buenos Aires,BA,5253,AR
2880,3876,Mar del Plata,Buenos Aires,BA,8953,AR
2881,3877,Mar del Plata,Buenos Aires,BA,8541,AR
2882,3878,CABA,Buenos Aires,BA,8919,AR
2883,3879,CABA,Buenos Aires,BA,1757,AR
2884,3880,Rosario,Santa Fe,SF,3069,AR
2885,3881,CABA,Buenos Aires,BA,4239,AR
2886,3882,Río Cuarto,Córdoba,CBA,9774,AR
2887,3883,Mendoza,Mendoza,MZA,2364,AR
2888,3884,Córdoba,Córdoba,CBA,2813,AR
2889,3885,Godoy Cruz,Mendoza,MZA,3596,AR
2890,3886,Mar del Plata,Buenos Aires,BA,2148,AR
2891,3887,Mar del Plata,Buenos Aires,BA,8114,AR
2892,3888,La Plata,Buenos Aires,BA,4236,AR
2893,3889,Rafaela,Santa Fe,SF,7166,AR
2894,3890,La Plata,Buenos Aires,BA,9495,AR
2895,3891,Rafaela,Santa Fe,SF,9748,AR
2896,3892,Córdoba,Córdoba,CBA,1828,AR
2897,3893,Río Cuarto,Córdoba,CBA,7864,AR
2898,3894,La Plata,Buenos Aires,BA,7643,AR
2899,3895,Río Cuarto,Córdoba,CBA,3519,AR
2900,3896,Mar del Plata,Buenos Aires,BA,5397,AR
2901,3897,San Rafael,Mendoza,MZA,2781,AR
2902,3898,Rosario,Santa Fe,SF,5237,AR
2903,3899,Godoy Cruz,Mendoza,MZA,2077,AR
2904,3900,Mar del Plata,Buenos Aires,BA,8346,AR
2905,3901,Mar del Plata,Buenos Aires,BA,7836,AR
2906,3902,Godoy Cruz,Mendoza,MZA,1325,AR
2907,3903,CABA,Buenos Aires,BA,7597,AR
2908,3904,Mar del Plata,Buenos Aires,BA,1621,AR
2909,3905,La Plata,Buenos Aires,BA,5933,AR
2910,3906,La Plata,Buenos Aires,BA,6211,AR
2911,3907,Córdoba,Córdoba,CBA,3047,AR
2912,3908,Río Cuarto,Córdoba,CBA,8092,AR
2913,3909,Godoy Cruz,Mendoza,MZA,6009,AR
2914,3910,Villa Carlos Paz,Córdoba,CBA,4473,AR
2915,3911,Rafaela,Santa Fe,SF,4644,AR
2916,3912,CABA,Buenos Aires,BA,1322,AR
2917,3913,La Plata,Buenos Aires,BA,1826,AR
2918,3914,Godoy Cruz,Mendoza,MZA,5802,AR
2919,3915,Mendoza,Mendoza,MZA,8514,AR
2920,3916,CABA,Buenos Aires,BA,7549,AR
2921,3917,CABA,Buenos Aires,BA,2470,AR
2922,3918,Godoy Cruz,Mendoza,MZA,1857,AR
2923,3919,Mar del Plata,Buenos Aires,BA,2166,AR
2924,3920,Córdoba,Córdoba,CBA,6255,AR
2925,3921,CABA,Buenos Aires,BA,5087,AR
2926,3922,Godoy Cruz,Mendoza,MZA,5160,AR
2927,3923,Villa Carlos Paz,Córdoba,CBA,6145,AR
2928,3924,CABA,Buenos Aires,BA,9436,AR
2929,3925,Godoy Cruz,Mendoza,MZA,7725,AR
2930,3926,Rosario,Santa Fe,SF,4890,AR
2931,3927,CABA,Buenos Aires,BA,1680,AR
2932,3928,La Plata,Buenos Aires,BA,9207,AR
2933,3929,Villa Carlos Paz,Córdoba,CBA,6014,AR
2934,3930,Río Cuarto,Córdoba,CBA,1621,AR
2935,3931,La Plata,Buenos Aires,BA,4547,AR
2936,3932,Mar del Plata,Buenos Aires,BA,9813,AR
2937,3933,La Plata,Buenos Aires,BA,7678,AR
2938,3934,Mar del Plata,Buenos Aires,BA,7888,AR
2939,3935,San Rafael,Mendoza,MZA,6473,AR
2940,3936,Rafaela,Santa Fe,SF,9585,AR
2941,3937,CABA,Buenos Aires,BA,5757,AR
2942,3938,CABA,Buenos Aires,BA,5632,AR
2943,3939,CABA,Buenos Aires,BA,7559,AR
2944,3940,San Rafael,Mendoza,MZA,2691,AR
2945,3941,La Plata,Buenos Aires,BA,8560,AR
2946,3942,La Plata,Buenos Aires,BA,7208,AR
2947,3943,La Plata,Buenos Aires,BA,9051,AR
2948,3944,La Plata,Buenos Aires,BA,6987,AR
2949,3945,La Plata,Buenos Aires,BA,8190,AR
2950,3946,Córdoba,Córdoba,CBA,6726,AR
2951,3947,Santa Fe,Santa Fe,SF,8695,AR
2952,3948,CABA,Buenos Aires,BA,7201,AR
2953,3949,Villa Carlos Paz,Córdoba,CBA,2765,AR
2954,3950,La Plata,Buenos Aires,BA,5302,AR
2955,3951,La Plata,Buenos Aires,BA,1947,AR
2956,3952,CABA,Buenos Aires,BA,4420,AR
2957,3953,La Plata,Buenos Aires,BA,3213,AR
2958,3954,La Plata,Buenos Aires,BA,5075,AR
2959,3955,Mar del Plata,Buenos Aires,BA,5768,AR
2960,3956,Mar del Plata,Buenos Aires,BA,9056,AR
2961,3957,Mar del Plata,Buenos Aires,BA,5447,AR
2962,3958,Rosario,Santa Fe,SF,6885,AR
2963,3959,La Plata,Buenos Aires,BA,8411,AR
2964,3960,Córdoba,Córdoba,CBA,1612,AR
2965,3961,La Plata,Buenos Aires,BA,8399,AR
2966,3962,CABA,Buenos Aires,BA,5299,AR
2967,3963,San Rafael,Mendoza,MZA,2137,AR
2968,3964,CABA,Buenos Aires,BA,3082,AR
2969,3965,La Plata,Buenos Aires,BA,7252,AR
2970,3966,La Plata,Buenos Aires,BA,5617,AR
2971,3967,CABA,Buenos Aires,BA,5113,AR
2972,3968,La Plata,Buenos Aires,BA,8561,AR
2973,3969,La Plata,Buenos Aires,BA,2800,AR
2974,3970,CABA,Buenos Aires,BA,5318,AR
2975,3971,Córdoba,Córdoba,CBA,2397,AR
2976,3972,CABA,Buenos Aires,BA,2670,AR
2977,3973,Villa Carlos Paz,Córdoba,CBA,7704,AR
2978,3974,Córdoba,Córdoba,CBA,5289,AR
2979,3975,CABA,Buenos Aires,BA,2696,AR
2980,3976,La Plata,Buenos Aires,BA,3565,AR
2981,3977,Villa Carlos Paz,Córdoba,CBA,6108,AR
2982,3978,La Plata,Buenos Aires,BA,1782,AR
2983,3979,La Plata,Buenos Aires,BA,2133,AR
2984,3980,La Plata,Buenos Aires,BA,8762,AR
2985,3981,Mendoza,Mendoza,MZA,5403,AR
2986,3982,La Plata,Buenos Aires,BA,5350,AR
2987,3983,Río Cuarto,Córdoba,CBA,5045,AR
2988,3984,Villa Carlos Paz,Córdoba,CBA,5922,AR
2989,3985,La Plata,Buenos Aires,BA,8387,AR
2990,3986,CABA,Buenos Aires,BA,7497,AR
2991,3987,CABA,Buenos Aires,BA,6444,AR
2992,3988,CABA,Buenos Aires,BA,1613,AR
2993,3989,Mendoza,Mendoza,MZA,9536,AR
2994,3990,La Plata,Buenos Aires,BA,9335,AR
2995,3991,La Plata,Buenos Aires,BA,2745,AR
2996,3992,Godoy Cruz,Mendoza,MZA,8967,AR
2997,3993,Villa Carlos Paz,Córdoba,CBA,4309,AR
2998,3994,CABA,Buenos Aires,BA,7932,AR
2999,3995,Godoy Cruz,Mendoza,MZA,5695,AR
3000,3996,La Plata,Buenos Aires,BA,5576,AR
3001,3997,Mar del Plata,Buenos Aires,BA,6610,AR
3002,3998,Mendoza,Mendoza,MZA,4458,AR
3003,3999,CABA,Buenos Aires,BA,7303,AR
3004,4000,Mendoza,Mendoza,MZA,8477,AR
3005,4001,La Plata,Buenos Aires,BA,3535,AR
3006,4002,Mar del Plata,Buenos Aires,BA,9618,AR
3007,4003,Rafaela,Santa Fe,SF,7357,AR
3008,4004,CABA,Buenos Aires,BA,5480,AR
3009,4005,Santa Fe,Santa Fe,SF,8052,AR
3010,4006,Mar del Plata,Buenos Aires,BA,8577,AR
3011,4007,Mar del Plata,Buenos Aires,BA,1401,AR
3012,4008,Río Cuarto,Córdoba,CBA,5308,AR
3013,4009,CABA,Buenos Aires,BA,1255,AR
3014,4010,San Rafael,Mendoza,MZA,4781,AR
3015,4011,CABA,Buenos Aires,BA,7513,AR
3016,4012,CABA,Buenos Aires,BA,1390,AR
3017,4013,CABA,Buenos Aires,BA,2820,AR
3018,4014,La Plata,Buenos Aires,BA,8531,AR
3019,4015,Villa Carlos Paz,Córdoba,CBA,4784,AR
3020,4016,Mar del Plata,Buenos Aires,BA,9697,AR
3021,4017,Villa Carlos Paz,Córdoba,CBA,8832,AR
3022,4018,CABA,Buenos Aires,BA,9670,AR
3023,4019,La Plata,Buenos Aires,BA,6193,AR
3024,4020,CABA,Buenos Aires,BA,3288,AR
3025,4021,CABA,Buenos Aires,BA,2991,AR
3026,4022,Mar del Plata,Buenos Aires,BA,7774,AR
3027,4023,Rafaela,Santa Fe,SF,9302,AR
3028,4024,Mar del Plata,Buenos Aires,BA,8576,AR
3029,4025,CABA,Buenos Aires,BA,4737,AR
3030,4026,Mendoza,Mendoza,MZA,8441,AR
3031,4027,Mar del Plata,Buenos Aires,BA,6257,AR
3032,4028,Godoy Cruz,Mendoza,MZA,5229,AR
3033,4029,Villa Carlos Paz,Córdoba,CBA,9882,AR
3034,4030,CABA,Buenos Aires,BA,1759,AR
3035,4031,Mar del Plata,Buenos Aires,BA,8846,AR
3036,4032,Santa Fe,Santa Fe,SF,7367,AR
3037,4033,Rafaela,Santa Fe,SF,6838,AR
3038,4034,Córdoba,Córdoba,CBA,3757,AR
3039,4035,Mar del Plata,Buenos Aires,BA,4544,AR
3040,4036,Mar del Plata,Buenos Aires,BA,3870,AR
3041,4037,Mar del Plata,Buenos Aires,BA,4725,AR
3042,4038,San Rafael,Mendoza,MZA,6174,AR
3043,4039,Mar del Plata,Buenos Aires,BA,5414,AR
3044,4040,La Plata,Buenos Aires,BA,4578,AR
3045,4041,La Plata,Buenos Aires,BA,2705,AR
3046,4042,Mar del Plata,Buenos Aires,BA,4407,AR
3047,4043,Rafaela,Santa Fe,SF,1525,AR
3048,4044,Río Cuarto,Córdoba,CBA,9376,AR
3049,4045,CABA,Buenos Aires,BA,2363,AR
3050,4046,Córdoba,Córdoba,CBA,3446,AR
3051,4047,CABA,Buenos Aires,BA,1368,AR
3052,4048,Mar del Plata,Buenos Aires,BA,8157,AR
3053,4049,Mar del Plata,Buenos Aires,BA,6345,AR
3054,4050,Mar del Plata,Buenos Aires,BA,1319,AR
3055,4051,Mendoza,Mendoza,MZA,9810,AR
3056,4052,Córdoba,Córdoba,CBA,1210,AR
3057,4053,La Plata,Buenos Aires,BA,1627,AR
3058,4054,Río Cuarto,Córdoba,CBA,5451,AR
3059,4055,Rafaela,Santa Fe,SF,4353,AR
3060,4056,San Rafael,Mendoza,MZA,7808,AR
3061,4057,La Plata,Buenos Aires,BA,6006,AR
3062,4058,CABA,Buenos Aires,BA,2053,AR
3063,4059,La Plata,Buenos Aires,BA,1070,AR
3064,4060,Villa Carlos Paz,Córdoba,CBA,2635,AR
3065,4061,Córdoba,Córdoba,CBA,7764,AR
3066,4062,Mar del Plata,Buenos Aires,BA,6876,AR
3067,4063,CABA,Buenos Aires,BA,2617,AR
3068,4064,CABA,Buenos Aires,BA,3664,AR
3069,4065,Río Cuarto,Córdoba,CBA,8471,AR
3070,4066,Córdoba,Córdoba,CBA,6014,AR
3071,4067,Mendoza,Mendoza,MZA,6965,AR
3072,4068,Rosario,Santa Fe,SF,6232,AR
3073,4069,Córdoba,Córdoba,CBA,7584,AR
3074,4070,La Plata,Buenos Aires,BA,4898,AR
3075,4071,La Plata,Buenos Aires,BA,2928,AR
3076,4072,La Plata,Buenos Aires,BA,7028,AR
3077,4073,Godoy Cruz,Mendoza,MZA,6340,AR
3078,4074,Villa Carlos Paz,Córdoba,CBA,2752,AR
3079,4075,Rafaela,Santa Fe,SF,6428,AR
3080,4076,CABA,Buenos Aires,BA,2437,AR
3081,4077,Mar del Plata,Buenos Aires,BA,1638,AR
3082,4078,Rafaela,Santa Fe,SF,4300,AR
3083,4079,Río Cuarto,Córdoba,CBA,5461,AR
3084,4080,Mar del Plata,Buenos Aires,BA,1115,AR
3085,4081,CABA,Buenos Aires,BA,3074,AR
3086,4082,La Plata,Buenos Aires,BA,9533,AR
3087,4083,Río Cuarto,Córdoba,CBA,9390,AR
3088,4084,CABA,Buenos Aires,BA,7486,AR
3089,4085,Mar del Plata,Buenos Aires,BA,4886,AR
3090,4086,Río Cuarto,Córdoba,CBA,5533,AR
3091,4087,Mar del Plata,Buenos Aires,BA,1708,AR
3092,4088,CABA,Buenos Aires,BA,5666,AR
3093,4089,La Plata,Buenos Aires,BA,1507,AR
3094,4090,Mar del Plata,Buenos Aires,BA,1887,AR
3095,4091,Rafaela,Santa Fe,SF,8380,AR
3096,4092,Rafaela,Santa Fe,SF,7199,AR
3097,4093,CABA,Buenos Aires,BA,4449,AR
3098,4094,San Rafael,Mendoza,MZA,7355,AR
3099,4095,Rafaela,Santa Fe,SF,1042,AR
3100,4096,CABA,Buenos Aires,BA,4125,AR
3101,4097,Río Cuarto,Córdoba,CBA,4098,AR
3102,4098,Río Cuarto,Córdoba,CBA,1708,AR
3103,4099,CABA,Buenos Aires,BA,8513,AR
3104,4100,Mar del Plata,Buenos Aires,BA,3553,AR
3105,4101,Córdoba,Córdoba,CBA,5388,AR
3106,4102,La Plata,Buenos Aires,BA,4981,AR
3107,4103,La Plata,Buenos Aires,BA,1670,AR
3108,4104,La Plata,Buenos Aires,BA,5349,AR
3109,4105,Villa Carlos Paz,Córdoba,CBA,5084,AR
3110,4106,Mendoza,Mendoza,MZA,7856,AR
3111,4107,Mar del Plata,Buenos Aires,BA,3448,AR
3112,4108,Río Cuarto,Córdoba,CBA,5641,AR
3113,4109,Villa Carlos Paz,Córdoba,CBA,7078,AR
3114,4110,La Plata,Buenos Aires,BA,7682,AR
3115,4111,Villa Carlos Paz,Córdoba,CBA,9829,AR
3116,4112,Mendoza,Mendoza,MZA,7716,AR
3117,4113,Río Cuarto,Córdoba,CBA,1579,AR
3118,4114,Mar del Plata,Buenos Aires,BA,3328,AR
3119,4115,Rafaela,Santa Fe,SF,3452,AR
3120,4116,Villa Carlos Paz,Córdoba,CBA,2706,AR
3121,4117,Rosario,Santa Fe,SF,2099,AR
3122,4118,Córdoba,Córdoba,CBA,5142,AR
3123,4119,Villa Carlos Paz,Córdoba,CBA,2876,AR
3124,4120,CABA,Buenos Aires,BA,4788,AR
3125,4121,Córdoba,Córdoba,CBA,2842,AR
3126,4122,Rosario,Santa Fe,SF,3839,AR
3127,4123,CABA,Buenos Aires,BA,8590,AR
3128,4124,Córdoba,Córdoba,CBA,6310,AR
3129,4125,Río Cuarto,Córdoba,CBA,2018,AR
3130,4126,CABA,Buenos Aires,BA,2296,AR
3131,4127,Mar del Plata,Buenos Aires,BA,7815,AR
3132,4128,Mar del Plata,Buenos Aires,BA,9045,AR
3133,4129,Mar del Plata,Buenos Aires,BA,5346,AR
3134,4130,Mar del Plata,Buenos Aires,BA,8553,AR
3135,4131,La Plata,Buenos Aires,BA,1230,AR
3136,4132,Mar del Plata,Buenos Aires,BA,8840,AR
3137,4133,CABA,Buenos Aires,BA,3509,AR
3138,4134,La Plata,Buenos Aires,BA,9399,AR
3139,4135,Rafaela,Santa Fe,SF,5213,AR
3140,4136,CABA,Buenos Aires,BA,9453,AR
3141,4137,La Plata,Buenos Aires,BA,4297,AR
3142,4138,Río Cuarto,Córdoba,CBA,7024,AR
3143,4139,Mar del Plata,Buenos Aires,BA,5300,AR
3144,4140,Villa Carlos Paz,Córdoba,CBA,2363,AR
3145,4141,Rosario,Santa Fe,SF,1323,AR
3146,4142,Mar del Plata,Buenos Aires,BA,8960,AR
3147,4143,CABA,Buenos Aires,BA,1898,AR
3148,4144,Rosario,Santa Fe,SF,9977,AR
3149,4145,Río Cuarto,Córdoba,CBA,5811,AR
3150,4146,CABA,Buenos Aires,BA,1008,AR
3151,4147,Córdoba,Córdoba,CBA,1460,AR
3152,4148,CABA,Buenos Aires,BA,8758,AR
3153,4149,Río Cuarto,Córdoba,CBA,1536,AR
3154,4150,Mar del Plata,Buenos Aires,BA,8755,AR
3155,4151,Río Cuarto,Córdoba,CBA,6264,AR
3156,4152,Villa Carlos Paz,Córdoba,CBA,5225,AR
3157,4153,CABA,Buenos Aires,BA,4460,AR
3158,4154,Mar del Plata,Buenos Aires,BA,8513,AR
3159,4155,Santa Fe,Santa Fe,SF,7214,AR
3160,4156,Mar del Plata,Buenos Aires,BA,6627,AR
3161,4157,Santa Fe,Santa Fe,SF,6950,AR
3162,4158,Mar del Plata,Buenos Aires,BA,5506,AR
3163,4159,Córdoba,Córdoba,CBA,9246,AR
3164,4160,Mar del Plata,Buenos Aires,BA,5185,AR
3165,4161,Mar del Plata,Buenos Aires,BA,3992,AR
3166,4162,CABA,Buenos Aires,BA,2592,AR
3167,4163,CABA,Buenos Aires,BA,9752,AR
3168,4164,La Plata,Buenos Aires,BA,4643,AR
3169,4165,La Plata,Buenos Aires,BA,1857,AR
3170,4166,Córdoba,Córdoba,CBA,1653,AR
3171,4167,La Plata,Buenos Aires,BA,3199,AR
3172,4168,La Plata,Buenos Aires,BA,9979,AR
3173,4169,Córdoba,Córdoba,CBA,9844,AR
3174,4170,La Plata,Buenos Aires,BA,8465,AR
3175,4171,Mar del Plata,Buenos Aires,BA,2320,AR
3176,4172,La Plata,Buenos Aires,BA,5447,AR
3177,4173,Rafaela,Santa Fe,SF,9248,AR
3178,4174,Villa Carlos Paz,Córdoba,CBA,8710,AR
3179,4175,La Plata,Buenos Aires,BA,2134,AR
3180,4176,CABA,Buenos Aires,BA,7814,AR
3181,4177,Río Cuarto,Córdoba,CBA,6453,AR
3182,4178,San Rafael,Mendoza,MZA,9453,AR
3183,4179,La Plata,Buenos Aires,BA,4971,AR
3184,4180,Río Cuarto,Córdoba,CBA,6900,AR
3185,4181,Villa Carlos Paz,Córdoba,CBA,2017,AR
3186,4182,La Plata,Buenos Aires,BA,6178,AR
3187,4183,CABA,Buenos Aires,BA,5907,AR
3188,4184,CABA,Buenos Aires,BA,2104,AR
3189,4185,Mar del Plata,Buenos Aires,BA,6769,AR
3190,4186,CABA,Buenos Aires,BA,4435,AR
3191,4187,Villa Carlos Paz,Córdoba,CBA,9840,AR
3192,4188,Godoy Cruz,Mendoza,MZA,6680,AR
3193,4189,La Plata,Buenos Aires,BA,6342,AR
3194,4190,CABA,Buenos Aires,BA,6547,AR
3195,4191,CABA,Buenos Aires,BA,8090,AR
3196,4192,Godoy Cruz,Mendoza,MZA,3877,AR
3197,4193,CABA,Buenos Aires,BA,6379,AR
3198,4194,CABA,Buenos Aires,BA,2493,AR
3199,4195,CABA,Buenos Aires,BA,9568,AR
3200,4196,Mendoza,Mendoza,MZA,3231,AR
3201,4197,San Rafael,Mendoza,MZA,9670,AR
3202,4198,Córdoba,Córdoba,CBA,8353,AR
3203,4199,La Plata,Buenos Aires,BA,7663,AR
3204,4200,Córdoba,Córdoba,CBA,7033,AR
